{"version": 0.6, "generator": "Overpass API 0.7.62.4 2390de5a", "osm3s": {"timestamp_osm_base": "2025-01-20T23:16:29Z", "copyright": "The data included in this document is from www.openstreetmap.org. The data is made available under ODbL."}, "elements": [{"type": "node", "id": 26611707, "lat": 52.3627683, "lon": 4.922683, "tags": {"addr:city": "Amsterdam", "addr:country": "NL", "addr:housenumber": "2", "addr:postcode": "1092CK", "addr:street": "Linnaeusstraat", "description": "ethnographic museum", "email": "info@wereldmuseum.nl", "fee": "yes", "name": "Wereldmuseum Amsterdam", "opening_hours": "Tu-Su 10:00-17:00", "operator": "Nationaal Museum van Wereldculturen", "operator:wikidata": "Q17153751", "phone": "+31 88 00 42 800", "source": "BAG", "source:date": "2014-03-24", "tourism": "museum", "website": "https://amsterdam.wereldmuseum.nl/", "wheelchair": "yes", "wikidata": "Q1131589", "wikipedia": "nl:Wereldmuseum Amsterdam"}}, {"type": "node", "id": 34050744, "lat": 52.3656031, "lon": 4.8990152, "tags": {"addr:city": "Amsterdam", "addr:housenumber": "605", "addr:postcode": "1017CE", "addr:street": "Herengracht", "fee": "yes", "name": "Willet-Holthuysen", "name:uk": "\u041c\u0443\u0437\u0435\u0439 \u0412\u0456\u043b\u043b\u0435\u0442-\u0413\u043e\u043b\u0442\u0433\u0435\u0439\u0437\u0435\u043d", "opening_hours": "Mo-Fr 10:00-17:00; Sa-Su 11:00-17:00", "phone": "+31 20 523 1822", "source": "BAG", "source:date": "2014-02-11", "tourism": "museum", "website": "https://www.willetholthuysen.nl/", "wheelchair": "no", "wikidata": "Q1886176", "wikimedia_commons": "Category:Museum Willet-Holthuysen", "wikipedia": "nl:Huis Willet-Holthuysen"}}, {"type": "node", "id": 34050747, "lat": 52.2939911, "lon": 4.9600178, "tags": {"email": "museumvrolik@amsterdamumc.nl", "fee": "yes", "name": "Museum Vrolik", "opening_hours": "Mo-Fr 11:00-17:00; Jan 1,easter +1 days,Apr 27,easter +39 days,easter +50 days,Dec 25-26 off", "phone": "+31 20 566 4928", "tourism": "museum", "website": "https://www.museumvrolik.nl/", "wikidata": "Q2480545", "wikimedia_commons": "Category:Museum Vrolik", "wikipedia": "nl:Museum Vrolik"}}, {"type": "node", "id": 34050755, "lat": 52.3347068, "lon": 4.8664359, "tags": {"addr:city": "Amsterdam", "addr:housenumber": "1105", "addr:postcode": "1081HV", "addr:street": "De Boelelaan", "name": "Bilderdijk Museum", "note": "kamer 1B-21", "source": "BAG", "source:date": "2014-03-24", "tourism": "museum", "website": "https://www.willembilderdijk.nl", "wikidata": "Q1375186", "wikipedia": "nl:Willem Bilderdijk"}}, {"type": "node", "id": 34050759, "lat": 52.363464, "lon": 4.8933781, "tags": {"addr:city": "Amsterdam", "addr:housenumber": "672", "addr:postcode": "1017ET", "addr:street": "Keizersgracht", "check_date": "2024-05-12", "fee": "yes", "int_name": "Museum Van Loon", "name": "Museum Van Loon", "name:nl": "Museum Van Loon", "name:zh": "\u8303\u9686\u535a\u7269\u9928", "opening_hours": "Mo-Su 10:00-17:00; Dec 24,31 10:00-15:00; Apr 27,Dec 25,Jan 1 off", "payment:apple_pay": "yes", "payment:cash": "no", "payment:girocard": "yes", "payment:google_pay": "yes", "payment:maestro": "yes", "payment:mastercard": "yes", "payment:visa": "yes", "phone": "+31 20 624 5255", "source": "BAG", "source:date": "2014-02-11", "tourism": "museum", "website": "https://www.museumvanloon.nl/", "wheelchair": "no", "wikidata": "Q2191110", "wikimedia_commons": "Category:Museum Van Loon", "wikipedia": "nl:Museum Van Loon"}}, {"type": "node", "id": 34050776, "lat": 52.3661534, "lon": 4.927969, "tags": {"addr:city": "Amsterdam", "addr:housenumber": "19-21", "addr:postcode": "1093SK", "addr:street": "Zeeburgerdijk", "name": "Museum Suriname", "tourism": "museum", "website": "https://surinamemuseum.nl/"}}, {"type": "node", "id": 34050787, "lat": 52.3755212, "lon": 4.8826878, "tags": {"addr:city": "Amsterdam", "addr:housenumber": "16", "addr:postcode": "1015TA", "addr:street": "Eerste Leliedwarsstraat", "fee": "yes", "museum": "person", "name": "Theo Thijssen Museum", "opening_hours": "Th-Su 12:00-17:00", "phone": "+31 20 420 7119", "tourism": "museum", "website": "https://theothijssenmuseum.nl", "wikidata": "Q111154596", "wikipedia": "nl:Theo Thijssen Museum"}}, {"type": "node", "id": 34050788, "lat": 52.3751311, "lon": 4.8993678}, {"type": "node", "id": 34050790, "lat": 52.3704312, "lon": 4.8904288, "tags": {"addr:city": "Amsterdam", "addr:country": "NL", "addr:housenumber": "92", "addr:postcode": "1012PH", "addr:street": "Kalverstraat", "alt_name": "AHM", "description": "museum of Amsterdams city history", "designation": "Historical museum", "email": "info@amsterdammuseum.nl", "fee": "yes", "name": "Amsterdam Museum", "name:en": "Amsterdam Museum", "name:es": "Museo de Historia de la Ciudad", "name:ru": "\u0410\u043c\u0441\u0442\u0435\u0440\u0434\u0430\u043c\u0441\u043a\u0438\u0439 \u0438\u0441\u0442\u043e\u0440\u0438\u0447\u0435\u0441\u043a\u0438\u0439 \u043c\u0443\u0437\u0435\u0439", "name:zh": "\u963f\u59c6\u65af\u7279\u4e39\u535a\u7269\u9928", "note": "Locatie tijdelijk gesloten vanwege renovatie, verhuisd naar gebouw Hermitage / location temporarily closed for renovation, moved to Hermitage building", "old_name": "Amsterdams Historisch Museum", "opening_hours": "Mo-Su 10:00-17:00", "source": "http://www.amsterdammuseum.nl/", "toilets:wheelchair": "yes", "tourism": "museum", "website": "https://www.amsterdammuseum.nl/", "wheelchair": "yes", "wikidata": "Q1820897", "wikipedia": "nl:Amsterdam Museum"}}, {"type": "node", "id": 34050791, "lat": 52.3688053, "lon": 4.8930549, "tags": {"addr:city": "Amsterdam", "addr:country": "NL", "addr:housenumber": "127", "addr:postcode": "1012GC", "addr:street": "Oude Turfmarkt", "description": "Archeological museum", "fee": "yes", "internet_access": "wlan", "name": "Allard Pierson Museum", "name:en": "Allard Pierson Museum", "name:es": "Museo Allard Pierson", "name:nl": "Allard Pierson Museum", "name:ru": "\u041c\u0443\u0437\u0435\u0439 \u0410\u043b\u043b\u0430\u0440\u0434\u0430 \u041f\u0438\u0440\u0441\u043e\u043d\u0430", "operator": "Universiteit van Amsterdam", "source": "BAG", "source:date": "2014-02-11", "tourism": "museum", "website": "https://allardpierson.nl/", "wheelchair": "yes", "wikidata": "Q1244372", "wikimedia_commons": "Category:Allard Pierson Museum", "wikipedia": "nl:Allard Pierson Museum"}}, {"type": "node", "id": 250624672, "lat": 52.3639884, "lon": 4.8932631, "tags": {"addr:city": "Amsterdam", "addr:country": "NL", "addr:housenumber": "609", "addr:postcode": "1017DS", "addr:street": "Keizersgracht", "description": "Fotografiemuseum Amsterdam", "email": "info@foam.org", "fee": "yes", "name": "foam", "name:zh": "\u8377\u5170\u6444\u5f71\u535a\u7269\u9986", "opening_hours": "Sa-We 10:00-18:00; Th-Fr 10:00-21:00", "phone": "+31 20 551 6500", "source": "BAG", "source:date": "2014-02-11", "toilets:wheelchair": "yes", "tourism": "museum", "website": "https://www.foam.org/", "wheelchair": "no", "wikidata": "Q5422840", "wikimedia_commons": "Category:Fotografiemuseum Amsterdam", "wikipedia": "nl:Foam Fotografiemuseum Amsterdam"}}, {"type": "node", "id": 250624673, "lat": 52.3693667, "lon": 4.9012367, "tags": {"addr:city": "Amsterdam", "addr:housenumber": "4", "addr:postcode": "1011NK", "addr:street": "Jodenbreestraat", "check_date": "2024-02-16", "check_date:opening_hours": "2021-08-17", "description": "The house where Rembrandt van Rijn lived.", "designation": "Historical Museum", "fee": "yes", "name": "Rembrandthuis", "name:da": "Rembrandt-museet", "name:de": "Rembrandthaus", "name:en": "Rembrandt House", "name:lb": "Rembrandthaus", "name:nl": "Rembrandthuis", "name:ru": "\u0414\u043e\u043c-\u043c\u0443\u0437\u0435\u0439 \u0420\u0435\u043c\u0431\u0440\u0430\u043d\u0434\u0442\u0430", "name:uk": "\u041c\u0443\u0437\u0435\u0439 \u0420\u0435\u043c\u0431\u0440\u0430\u043d\u0434\u0442\u0430", "name:zh": "\u4f26\u52c3\u6717\u6545\u5c45", "opening_hours": "Tu-Su 10:00-18:00", "phone": "+31 20 520 0400", "toilets:wheelchair": "yes", "tourism": "museum", "website": "https://www.rembrandthuis.nl/", "wheelchair": "limited", "wheelchair:description": "Museum not fully accessible - but the exhibitions are accessible by lift", "wheelchair:description:de": "Das Museum ist nicht \u00fcberall barrierefrei;die Ausstellungen sind mit dem Aufzug erreichbar. Allerdings ist das alte Haus von Rembrandt nur \u00fcber enge, steile Wendeltreppen erreichbar, wie sie im 17. Jahrhundert \u00fcblich waren.", "wikidata": "Q277316", "wikimedia_commons": "Category:Rembrandt House Museum", "wikipedia": "nl:Rembrandthuis"}}, {"type": "node", "id": 251147170, "lat": 52.3765815, "lon": 4.8972749, "tags": {"addr:city": "Amsterdam", "addr:country": "NL", "addr:housenumber": "18", "addr:postcode": "1012LH", "addr:street": "Damrak", "fee": "yes", "name": "Venustempel Sexmuseum", "name:en": "Sexmuseum", "name:he": "\u05de\u05d5\u05d6\u05d9\u05d0\u05d5\u05df \u05d4\u05e1\u05e7\u05e1", "name:nl": "Venustempel Sexmuseum", "name:ru": "\u041c\u0443\u0437\u0435\u0439 \u0441\u0435\u043a\u0441\u0430", "name:zh": "\u6027\u535a\u7269\u9928", "opening_hours": "Mo-Su 09:30-23:30", "toilets:wheelchair": "no", "tourism": "museum", "website": "https://sexmuseumamsterdam.nl/", "wheelchair": "no", "wikidata": "Q3329876", "wikimedia_commons": "Category:Sexmuseum Amsterdam", "wikipedia": "nl:Sexmuseum"}}, {"type": "node", "id": 330036899, "lat": 52.3714621, "lon": 4.9150396, "tags": {"entrance": "main"}}, {"type": "node", "id": 330144546, "lat": 52.3602819, "lon": 4.8835625}, {"type": "node", "id": 330144547, "lat": 52.3607631, "lon": 4.8849668}, {"type": "node", "id": 330144548, "lat": 52.3607841, "lon": 4.885014}, {"type": "node", "id": 330144549, "lat": 52.36022, "lon": 4.8864171}, {"type": "node", "id": 330144640, "lat": 52.3596984, "lon": 4.8863302}, {"type": "node", "id": 330144642, "lat": 52.3589951, "lon": 4.8862543}, {"type": "node", "id": 330144643, "lat": 52.3589151, "lon": 4.8861559}, {"type": "node", "id": 330144644, "lat": 52.3590851, "lon": 4.8849098}, {"type": "node", "id": 330144645, "lat": 52.3591928, "lon": 4.8843399}, {"type": "node", "id": 330144648, "lat": 52.3593058, "lon": 4.8841128}, {"type": "node", "id": 330144649, "lat": 52.3601878, "lon": 4.8834356}, {"type": "node", "id": 330723850, "lat": 52.3593463, "lon": 4.884038}, {"type": "node", "id": 356669762, "lat": 52.3751525, "lon": 4.8842762}, {"type": "node", "id": 356669764, "lat": 52.3751079, "lon": 4.8842353}, {"type": "node", "id": 356669765, "lat": 52.375075, "lon": 4.8838208}, {"type": "node", "id": 432506873, "lat": 52.3664388, "lon": 4.911154, "tags": {"addr:city": "Amsterdam", "addr:country": "NL", "addr:housenumber": "24", "addr:postcode": "1018DE", "addr:street": "Plantage Middenlaan", "fee": "no", "historic": "memorial", "memorial": "obelisk", "name": "Hollandsche Schouwburg", "opening_hours": "Mo-Su 10:00-17:00", "phone": "+31 20 531 0310", "toilets:wheelchair": "no", "tourism": "museum", "website": "https://www.hollandscheschouwburg.nl/en", "wheelchair": "yes", "wikidata": "Q2206529", "wikimedia_commons": "Category:Hollandsche Schouwburg", "wikipedia": "nl:Hollandsche Schouwburg"}}, {"type": "node", "id": 440419242, "lat": 52.3677709, "lon": 4.912759, "tags": {"addr:city": "Amsterdam", "addr:country": "NL", "addr:housenumber": "61", "addr:street": "Plantage Kerklaan", "alt_name": "Verzetsmuseum Amsterdam", "designation": "Dutch Resistance Museum", "fee": "yes", "int_name": "Dutch Resistance Museum", "name": "Verzetsmuseum", "name:en": "Dutch Resistance Museum", "name:ru": "\u041c\u0443\u0437\u0435\u0439 \u0441\u043e\u043f\u0440\u043e\u0442\u0438\u0432\u043b\u0435\u043d\u0438\u044f", "opening_hours": "Mo-Fr 10:00-17:00; Sa,Su 11:00-17:00", "phone": "+31 20 620 2535", "source": "http://www.verzetsmuseum.org/", "tourism": "museum", "website": "https://www.verzetsmuseum.org/", "wheelchair": "yes", "wikidata": "Q828307", "wikimedia_commons": "Category:Verzetsmuseum Amsterdam", "wikipedia": "nl:Verzetsmuseum Amsterdam"}}, {"type": "node", "id": 441327444, "lat": 52.3904885, "lon": 4.8737264, "tags": {"addr:city": "Amsterdam", "addr:housenumber": "45", "addr:postcode": "1013WG", "addr:street": "Oostzaanstraat", "building:architecture": "amsterdam_school", "description": "museum of architecture (\"Amsterdam School\" style - Dutch expressionism) with former post office and historic museum appartement.", "email": "info@hetschip.nl", "museum": "history", "name": "Museum Het Schip", "opening_hours": "Tu-Su 11:00-17:00", "phone": "+31 20 686 8595", "source": "BAG", "source:date": "2014-03-24", "tourism": "museum", "website": "https://www.hetschip.nl", "wheelchair": "yes", "wikidata": "Q1616115", "wikimedia_commons": "Category:Het Schip", "wikipedia": "nl:Museum Het Schip"}}, {"type": "node", "id": 565497929, "lat": 52.3577407, "lon": 4.8791552}, {"type": "node", "id": 565497931, "lat": 52.3578393, "lon": 4.8791194}, {"type": "node", "id": 565497933, "lat": 52.3579613, "lon": 4.879}, {"type": "node", "id": 565497934, "lat": 52.3579694, "lon": 4.8790302}, {"type": "node", "id": 565497937, "lat": 52.3578315, "lon": 4.87909}, {"type": "node", "id": 565497938, "lat": 52.3580521, "lon": 4.8789348}, {"type": "node", "id": 565497939, "lat": 52.3580593, "lon": 4.879106}, {"type": "node", "id": 565497940, "lat": 52.3580923, "lon": 4.8790829}, {"type": "node", "id": 565497961, "lat": 52.3574024, "lon": 4.8793954}, {"type": "node", "id": 565498033, "lat": 52.358606, "lon": 4.8808026}, {"type": "node", "id": 565498038, "lat": 52.3586574, "lon": 4.8809911}, {"type": "node", "id": 565498049, "lat": 52.3585922, "lon": 4.8810376}, {"type": "node", "id": 565498051, "lat": 52.3585601, "lon": 4.881306}, {"type": "node", "id": 565498056, "lat": 52.3586465, "lon": 4.8812436}, {"type": "node", "id": 565498082, "lat": 52.3583068, "lon": 4.8797983}, {"type": "node", "id": 565498083, "lat": 52.3581967, "lon": 4.8793888}, {"type": "node", "id": 565498084, "lat": 52.3581449, "lon": 4.8794251}, {"type": "node", "id": 565498085, "lat": 52.3582539, "lon": 4.8798365}, {"type": "node", "id": 565498086, "lat": 52.3581847, "lon": 4.8804128}, {"type": "node", "id": 565498087, "lat": 52.3583742, "lon": 4.8801309}, {"type": "node", "id": 565498088, "lat": 52.358192, "lon": 4.8804394}, {"type": "node", "id": 565498090, "lat": 52.3583161, "lon": 4.8803163}, {"type": "node", "id": 565498092, "lat": 52.35834, "lon": 4.8801564}, {"type": "node", "id": 565498093, "lat": 52.3584139, "lon": 4.8802788}, {"type": "node", "id": 565498094, "lat": 52.3583241, "lon": 4.8803451}, {"type": "node", "id": 565498095, "lat": 52.3585242, "lon": 4.8805611}, {"type": "node", "id": 565498099, "lat": 52.3582187, "lon": 4.8807789}, {"type": "node", "id": 565498100, "lat": 52.3581229, "lon": 4.8810699}, {"type": "node", "id": 565498101, "lat": 52.358235, "lon": 4.8808404}, {"type": "node", "id": 565498102, "lat": 52.3580885, "lon": 4.8809452}, {"type": "node", "id": 565498106, "lat": 52.3583621, "lon": 4.8814872}, {"type": "node", "id": 565498107, "lat": 52.3585405, "lon": 4.8806295}, {"type": "node", "id": 565498108, "lat": 52.3585927, "lon": 4.8808115}, {"type": "node", "id": 565498112, "lat": 52.3585263, "lon": 4.8805687}, {"type": "node", "id": 565498113, "lat": 52.3585245, "lon": 4.88057}, {"type": "node", "id": 565498114, "lat": 52.3585425, "lon": 4.8806281}, {"type": "node", "id": 565498117, "lat": 52.3583724, "lon": 4.8815267}, {"type": "node", "id": 568319832, "lat": 52.3881339, "lon": 4.9259504}, {"type": "node", "id": 568319836, "lat": 52.3882215, "lon": 4.9259178}, {"type": "node", "id": 568319894, "lat": 52.3881539, "lon": 4.926094}, {"type": "node", "id": 568319898, "lat": 52.3882414, "lon": 4.926061}, {"type": "node", "id": 571169666, "lat": 52.3680037, "lon": 4.9197531}, {"type": "node", "id": 571169676, "lat": 52.3678399, "lon": 4.9203754}, {"type": "node", "id": 571169677, "lat": 52.3678714, "lon": 4.9202844}, {"type": "node", "id": 571169682, "lat": 52.368399, "lon": 4.9201068}, {"type": "node", "id": 571169684, "lat": 52.3680342, "lon": 4.9204316}, {"type": "node", "id": 571169689, "lat": 52.368231, "lon": 4.9206077}, {"type": "node", "id": 571169695, "lat": 52.3680011, "lon": 4.9205236}, {"type": "node", "id": 717731062, "lat": 52.3718929, "lon": 4.9151841}, {"type": "node", "id": 717736802, "lat": 52.3746499, "lon": 4.8981859}, {"type": "node", "id": 717738472, "lat": 52.3669889, "lon": 4.9038647}, {"type": "node", "id": 717741884, "lat": 52.367013, "lon": 4.9036013}, {"type": "node", "id": 717742319, "lat": 52.3612309, "lon": 4.9662008}, {"type": "node", "id": 717743630, "lat": 52.3669445, "lon": 4.9037104}, {"type": "node", "id": 717744114, "lat": 52.3741005, "lon": 4.8982683}, {"type": "node", "id": 717744320, "lat": 52.3715067, "lon": 4.9143982}, {"type": "node", "id": 717749636, "lat": 52.3740778, "lon": 4.8982604}, {"type": "node", "id": 717750082, "lat": 52.3740481, "lon": 4.8869166}, {"type": "node", "id": 717750203, "lat": 52.3719274, "lon": 4.914485}, {"type": "node", "id": 717756699, "lat": 52.3745931, "lon": 4.8982069}, {"type": "node", "id": 717760682, "lat": 52.3670604, "lon": 4.9035769}, {"type": "node", "id": 717766278, "lat": 52.3740779, "lon": 4.8979664}, {"type": "node", "id": 717766804, "lat": 52.3720726, "lon": 4.9150259}, {"type": "node", "id": 717767063, "lat": 52.37142, "lon": 4.914911}, {"type": "node", "id": 717767858, "lat": 52.374634, "lon": 4.8982014}, {"type": "node", "id": 717770965, "lat": 52.3672485, "lon": 4.9036091}, {"type": "node", "id": 717771786, "lat": 52.3670174, "lon": 4.903626}, {"type": "node", "id": 717775873, "lat": 52.3740877, "lon": 4.8980851}, {"type": "node", "id": 717775959, "lat": 52.3741014, "lon": 4.8982891}, {"type": "node", "id": 717780349, "lat": 52.3670607, "lon": 4.9035786}, {"type": "node", "id": 717785148, "lat": 52.3716164, "lon": 4.9154261}, {"type": "node", "id": 717785431, "lat": 52.3740743, "lon": 4.8978836}, {"type": "node", "id": 717787986, "lat": 52.374637, "lon": 4.8981875}, {"type": "node", "id": 717794298, "lat": 52.371493, "lon": 4.9151332}, {"type": "node", "id": 717795916, "lat": 52.3669194, "lon": 4.9039067}, {"type": "node", "id": 717799191, "lat": 52.3740859, "lon": 4.8980883}, {"type": "node", "id": 717803973, "lat": 52.3714422, "lon": 4.9148914}, {"type": "node", "id": 717807067, "lat": 52.3746503, "lon": 4.8981994}, {"type": "node", "id": 717808182, "lat": 52.366967, "lon": 4.9037834}, {"type": "node", "id": 717808286, "lat": 52.3716066, "lon": 4.9143101}, {"type": "node", "id": 717808832, "lat": 52.3613206, "lon": 4.9662739}, {"type": "node", "id": 717809945, "lat": 52.3716183, "lon": 4.9143458}, {"type": "node", "id": 717810408, "lat": 52.3669802, "lon": 4.9041769}, {"type": "node", "id": 717811631, "lat": 52.3719672, "lon": 4.9147051}, {"type": "node", "id": 717815170, "lat": 52.3740783, "lon": 4.8982707}, {"type": "node", "id": 717815411, "lat": 52.3743453, "lon": 4.8974699}, {"type": "node", "id": 717816597, "lat": 52.3673815, "lon": 4.9038649}, {"type": "node", "id": 717816966, "lat": 52.3740811, "lon": 4.897998}, {"type": "node", "id": 717817371, "lat": 52.3715141, "lon": 4.9151146}, {"type": "node", "id": 717820031, "lat": 52.366936, "lon": 4.9037304}, {"type": "node", "id": 717820242, "lat": 52.3715187, "lon": 4.9144348}, {"type": "node", "id": 717820678, "lat": 52.3612396, "lon": 4.9665397}, {"type": "node", "id": 717822844, "lat": 52.3743367, "lon": 4.8974702}, {"type": "node", "id": 717824708, "lat": 52.3718042, "lon": 4.9153043}, {"type": "node", "id": 717825015, "lat": 52.3669504, "lon": 4.9037816}, {"type": "node", "id": 717825153, "lat": 52.3669379, "lon": 4.9037633}, {"type": "node", "id": 717825997, "lat": 52.3611499, "lon": 4.9664666}, {"type": "node", "id": 717827857, "lat": 52.3719924, "lon": 4.9146829}, {"type": "node", "id": 717828080, "lat": 52.3713431, "lon": 4.9145895}, {"type": "node", "id": 717828870, "lat": 52.3717977, "lon": 4.9141878}, {"type": "node", "id": 717833546, "lat": 52.3719025, "lon": 4.9145069}, {"type": "node", "id": 717834134, "lat": 52.3743037, "lon": 4.8974752}, {"type": "node", "id": 717835036, "lat": 52.3719036, "lon": 4.9152166}, {"type": "node", "id": 717835948, "lat": 52.3717931, "lon": 4.9152705}, {"type": "node", "id": 806535141, "lat": 52.3599351, "lon": 4.8864734}, {"type": "node", "id": 806541635, "lat": 52.3603682, "lon": 4.8861233}, {"type": "node", "id": 806545991, "lat": 52.359819, "lon": 4.8863838}, {"type": "node", "id": 855243398, "lat": 52.365366, "lon": 4.9023874, "tags": {"addr:city": "Amsterdam", "addr:country": "NL", "addr:housenumber": "51", "addr:postcode": "1018EJ", "addr:street": "Amstel", "check_date": "2024-05-12", "fee": "yes", "museum": "history", "name": "Amsterdam Museum", "note": "tijdelijke huisvesting/temporary location", "payment:apple_pay": "yes", "payment:cash": "no", "payment:girocard": "yes", "payment:google_pay": "yes", "payment:maestro": "yes", "payment:mastercard": "yes", "payment:visa": "yes", "tourism": "museum", "website": "https://www.amsterdammuseum.nl/"}}, {"type": "node", "id": 875593535, "lat": 52.358068, "lon": 4.8817156}, {"type": "node", "id": 875597336, "lat": 52.3581024, "lon": 4.8805056}, {"type": "node", "id": 875605193, "lat": 52.3577615, "lon": 4.8807358}, {"type": "node", "id": 876370528, "lat": 52.373527, "lon": 4.9126936}, {"type": "node", "id": 876373316, "lat": 52.3725732, "lon": 4.9124779}, {"type": "node", "id": 876374774, "lat": 52.372724, "lon": 4.9125404}, {"type": "node", "id": 876376007, "lat": 52.3732051, "lon": 4.9126673}, {"type": "node", "id": 876389072, "lat": 52.3733659, "lon": 4.9126828}, {"type": "node", "id": 876397259, "lat": 52.3726771, "lon": 4.9143635}, {"type": "node", "id": 876399480, "lat": 52.37197, "lon": 4.914483}, {"type": "node", "id": 876421054, "lat": 52.3739076, "lon": 4.9127027}, {"type": "node", "id": 876426031, "lat": 52.3721469, "lon": 4.9143087}, {"type": "node", "id": 876429838, "lat": 52.3726752, "lon": 4.9145052}, {"type": "node", "id": 876435277, "lat": 52.3728877, "lon": 4.9125895}, {"type": "node", "id": 876437013, "lat": 52.3722199, "lon": 4.9144545}, {"type": "node", "id": 876440800, "lat": 52.3720175, "lon": 4.9146412}, {"type": "node", "id": 1135509041, "lat": 52.3672872, "lon": 4.8906653, "tags": {"addr:city": "Amsterdam", "addr:housenumber": "449", "addr:postcode": "1012WP", "addr:street": "Singel", "alt_name": "Museum voor Martelwerktuigen", "email": "info@torturemuseum.org", "fee": "yes", "name": "Torture Museum", "name:en": "Torture Museum", "name:nl": "Torture Museum", "name:ru": "\u041c\u0443\u0437\u0435\u0439 \u043f\u044b\u0442\u043e\u043a", "opening_hours": "10:00-23:00", "phone": "+31 20 3206642", "tourism": "museum", "website": "https://www.torturemuseum.org", "wheelchair": "no", "wikidata": "Q17146713", "wikimedia_commons": "Category:Torture Museum, Amsterdam", "wikipedia": "nl:Torture Museum Amsterdam"}}, {"type": "node", "id": 1237228907, "lat": 52.3676378, "lon": 4.8848092, "tags": {"addr:city": "Amsterdam", "addr:country": "NL", "addr:housenumber": "401", "addr:postcode": "1016EK", "addr:street": "Keizersgracht", "description": "photography museum in a 17th century monumental house.", "fee": "yes", "museum": "art", "name": "Huis Marseille", "opening_hours": "Fr-We 10:00-18:00, Th 10:00-09:00; PH off", "source": "BAG", "source:date": "2014-02-11", "tourism": "museum", "website": "https://www.huismarseille.nl/", "wheelchair": "no", "wikidata": "Q2141968", "wikipedia": "nl:Huis Marseille"}}, {"type": "node", "id": 1282548619, "lat": 52.3731562, "lon": 4.9130969}, {"type": "node", "id": 1282548620, "lat": 52.3720734, "lon": 4.9127774}, {"type": "node", "id": 1282548621, "lat": 52.3738973, "lon": 4.9130644}, {"type": "node", "id": 1282548622, "lat": 52.3721631, "lon": 4.9122946}, {"type": "node", "id": 1282548623, "lat": 52.3726263, "lon": 4.9130591}, {"type": "node", "id": 1293163366, "lat": 52.3774872, "lon": 4.8911258, "tags": {"addr:city": "Amsterdam", "addr:country": "NL", "addr:housenumber": "20", "addr:postcode": "1015AR", "addr:street": "Korsjespoortsteeg", "fee": "yes", "museum": "person", "name": "Multatuli Museum", "opening_hours": "Fr 10:00-17:00, Sa-Su 12:00-17:00, PH off", "tourism": "museum", "website": "https://www.multatuli-museum.nl", "wheelchair": "no", "wikidata": "Q18169482", "wikimedia_commons": "Category:Multatulimuseum", "wikipedia": "nl:Multatuli Museum"}}, {"type": "node", "id": 1299850584, "lat": 52.3627156, "lon": 4.8829059, "tags": {"email": "euwemec@xs4all.nl", "fee": "no", "name": "Max Euwe Centrum", "opening_hours": "Tu-Sa 12:00-16:00", "phone": "+31 20 625 7017", "tourism": "museum", "website": "https://www.maxeuwe.nl/", "wikidata": "Q2533298", "wikimedia_commons": "Category:Max Euwe Centrum", "wikipedia": "nl:Max Euwe Centrum"}}, {"type": "node", "id": 1301238546, "lat": 52.3743761, "lon": 4.8974698}, {"type": "node", "id": 1301238548, "lat": 52.3743368, "lon": 4.8974724}, {"type": "node", "id": 1301238551, "lat": 52.3743685, "lon": 4.89747}, {"type": "node", "id": 1301238552, "lat": 52.3740916, "lon": 4.8982689}, {"type": "node", "id": 1301238553, "lat": 52.3740925, "lon": 4.8982897}, {"type": "node", "id": 1301238554, "lat": 52.3740929, "lon": 4.8979647}, {"type": "node", "id": 1301238555, "lat": 52.3743685, "lon": 4.8974678}, {"type": "node", "id": 1301238556, "lat": 52.3743453, "lon": 4.8974721}, {"type": "node", "id": 1301238563, "lat": 52.3743933, "lon": 4.8974687}, {"type": "node", "id": 1310974825, "lat": 52.3717617, "lon": 4.896959, "tags": {"addr:city": "Amsterdam", "addr:housenumber": "148", "addr:postcode": "1012DV", "addr:street": "Oudezijds Achterburgwal", "description": "This is an information centre cq attraction, that does not conform to the museum definitions of Unesco, ICOM and Museumvereniging.", "fee": "yes", "name": "Hash Marihuana & Hemp Museum", "name:en": "Hash Marihuana & Hemp Museum", "name:nl": "Hash Marihuana & Hemp Museum", "name:ru": "\u041c\u0443\u0437\u0435\u0439 \u0433\u0430\u0448\u0438\u0448\u0430 \u0438 \u043c\u0430\u0440\u0438\u0445\u0443\u0430\u043d\u044b", "name:zh": "\u5927\u9ebb\u535a\u7269\u9928", "opening_hours": "10:00-22:00", "tourism": "museum", "website": "https://hashmuseum.com/amsterdam", "wheelchair": "yes", "wikidata": "Q3783595", "wikimedia_commons": "Category:Hash, Marihuana & Hemp Museum", "wikipedia": "nl:Hash Marihuana & Hemp Museum"}}, {"type": "node", "id": 1411122981, "lat": 52.3847453, "lon": 4.9001258}, {"type": "node", "id": 1411122982, "lat": 52.3847714, "lon": 4.9005597}, {"type": "node", "id": 1411122983, "lat": 52.384464, "lon": 4.9002116}, {"type": "node", "id": 1411122985, "lat": 52.3845145, "lon": 4.9009054}, {"type": "node", "id": 1576983470, "lat": 52.3841565, "lon": 4.9005533}, {"type": "node", "id": 1727571380, "lat": 52.3701526, "lon": 4.882602, "tags": {"addr:city": "Amsterdam", "addr:country": "NL", "addr:housenumber": "296K", "addr:postcode": "1016HW", "addr:street": "Prinsengracht", "alt_name": "Woonbootmuseum", "check_date": "2024-05-31", "fee": "yes", "name": "Houseboat Museum", "name:ru": "\u041c\u0443\u0437\u0435\u0439-\u043b\u043e\u0434\u043a\u0430", "note": "on a houseboat", "opening_hours": "Fr 10:00-17:00", "tourism": "museum", "website": "https://www.houseboatmuseum.nl", "wheelchair": "no", "wikidata": "Q14544962", "wikimedia_commons": "Category:Woonbootmuseum"}}, {"type": "node", "id": 1849096599, "lat": 52.374074, "lon": 4.8866933}, {"type": "node", "id": 1849096600, "lat": 52.3740714, "lon": 4.8865035}, {"type": "node", "id": 1849096601, "lat": 52.3740653, "lon": 4.8865385}, {"type": "node", "id": 1849096602, "lat": 52.3740983, "lon": 4.8865538}, {"type": "node", "id": 1874737580, "lat": 52.3841682, "lon": 4.9003317}, {"type": "node", "id": 1982750021, "lat": 52.378619, "lon": 4.8836352, "tags": {"addr:city": "Amsterdam", "addr:housenumber": "106", "addr:postcode": "1015MN", "addr:street": "Westerstraat", "alt_name": "Pianolamuseum", "check_date": "2023-06-19", "name": "Pianola Museum", "name:en": "Pianola Museum", "name:es": "Museo de las Pianolas", "name:nl": "Pianola Museum", "opening_hours": "Fr,Sa 13:00-17:00; Su 13:00-16:00", "tourism": "museum", "website": "https://www.pianola.nl", "wikidata": "Q15124806", "wikimedia_commons": "Category:Pianola Museum"}}, {"type": "node", "id": 2291985786, "lat": 52.3671947, "lon": 4.8927025, "tags": {"addr:city": "Amsterdam", "addr:housenumber": "8", "addr:postcode": "1012WR", "addr:street": "Muntplein", "email": "info@hetmuizenhuis.nl", "name": "Het Muizenhuis", "opening_hours": "Mo-Su 10:00-18:00; PH 10:00-17:00; Apr 27 off", "phone": "+31 20 215 7341", "shop": "toys", "tourism": "museum", "url": "https://www.themousemansion.com/", "website": "https://hetmuizenhuis.nl/pages/mini-museum-kom-op-bezoek-het-muizenhuis", "wikimedia_commons": "Category:Het Muizenhuis Mini Museum, Muntplein 8, Amsterdam"}}, {"type": "node", "id": 2506563644, "lat": 52.3498616, "lon": 4.8990404, "tags": {"addr:city": "Amsterdam", "addr:housenumber": "128", "addr:postcode": "1073KG", "addr:street": "Burgemeester Tellegenstraat", "building:architecture": "Amsterdam_school", "description": "Museum for the social housing complex \"De Dageraad\" in the Amsterdam School architecture (Dutch expressionism)", "email": "info@hetschip.nl", "museum": "history", "name": "Museum De Dageraad", "opening_hours": "Th-Su 13:00-17:00", "operator": "Museum Het Schip", "operator:type": "private_non_profit", "phone": "+31 20 686 8595", "source": "BAG", "source:date": "2014-03-24", "tourism": "museum", "website": "https://www.dedageraad.nl", "wheelchair": "limited", "wikidata": "Q17234586", "wikimedia_commons": "Category:De Dageraad", "wikipedia": "nl:De Dageraad (Amsterdam)"}}, {"type": "node", "id": 2631625098, "lat": 52.3756175, "lon": 4.8807964, "tags": {"addr:city": "Amsterdam", "addr:housenumber": "5", "addr:postcode": "1015TB", "addr:street": "Tweede Leliedwarsstraat", "email": "electriclady21@hotmail.com", "fee": "yes", "name": "Electric Ladyland", "opening_hours": "Tu-Sa 14:00-18:00", "phone": "+31 20 420 3776", "reservation": "required", "reservation:website": "https://electricladyland.appointy.com/", "tourism": "museum", "website": "http://electric-lady-land.com/", "wikidata": "Q41574019", "wikimedia_commons": "Category:Electric Ladyland (museum)", "wikipedia": "en:Electric Ladyland (museum)"}}, {"type": "node", "id": 2720969403, "lat": 52.3763172, "lon": 4.8841529, "tags": {"addr:city": "Amsterdam", "addr:housenumber": "116", "addr:postcode": "1015EA", "addr:street": "Prinsengracht", "fee": "yes", "name": "Amsterdam Tulip Museum", "opening_hours": "Mo-Su 10:00-18:00", "phone": "+31 20 421 0095", "source": "BAG", "source:date": "2014-02-11", "tourism": "museum", "website": "https://amsterdamtulipmuseum.com/", "wikidata": "Q2020907", "wikimedia_commons": "Category:Amsterdam Tulip Museum", "wikipedia": "nl:Amsterdam Tulip Museum"}}, {"type": "node", "id": 2721473628, "lat": 52.3740132, "lon": 4.8869135}, {"type": "node", "id": 2721473667, "lat": 52.3740574, "lon": 4.886497}, {"type": "node", "id": 2721473682, "lat": 52.3740835, "lon": 4.8869337}, {"type": "node", "id": 2721473697, "lat": 52.3741215, "lon": 4.8867153}, {"type": "node", "id": 2721474485, "lat": 52.3749645, "lon": 4.8841438}, {"type": "node", "id": 2721474529, "lat": 52.3750344, "lon": 4.884208}, {"type": "node", "id": 2721474569, "lat": 52.3751591, "lon": 4.8842568}, {"type": "node", "id": 2721474574, "lat": 52.375193, "lon": 4.8843329}, {"type": "node", "id": 2721474580, "lat": 52.3752047, "lon": 4.884299}, {"type": "node", "id": 2721474583, "lat": 52.3752133, "lon": 4.8839477}, {"type": "node", "id": 2721474589, "lat": 52.3752382, "lon": 4.8843748}, {"type": "node", "id": 2721474594, "lat": 52.3752435, "lon": 4.8843594}, {"type": "node", "id": 2721474598, "lat": 52.3752525, "lon": 4.8839837}, {"type": "node", "id": 2721474613, "lat": 52.3752996, "lon": 4.8840249}, {"type": "node", "id": 2721474621, "lat": 52.3753446, "lon": 4.8840669}, {"type": "node", "id": 2721723210, "lat": 52.3747535, "lon": 4.8948907, "tags": {"addr:city": "Amsterdam", "addr:housenumber": "66", "addr:postcode": "1012LM", "addr:street": "Damrak", "email": "amsterdam@bodyworlds.nl", "fee": "yes", "name": "Body Worlds", "opening_hours": "Su-Fr 09:00-20:00; Sa 09:00-22:00", "phone:NL": "0900 8411", "source": "BAG", "source:date": "2014-02-11", "toilets:wheelchair": "yes", "tourism": "museum", "website": "https://bodyworlds.nl/en", "wheelchair": "yes"}}, {"type": "node", "id": 2722211473, "lat": 52.3701923, "lon": 4.8895378, "tags": {"addr:city": "Amsterdam", "addr:housenumber": "310", "addr:postcode": "1012RV", "addr:street": "Nieuwezijds Voorburgwal", "description": "open on appointment", "name": "The Amsterdam Toy Museum", "source": "BAG", "source:date": "2014-02-11", "tourism": "museum", "website": "https://theamsterdamtoymuseum.com/"}}, {"type": "node", "id": 2724102309, "lat": 52.3684642, "lon": 4.8932426, "tags": {"addr:city": "Amsterdam", "addr:housenumber": "129", "addr:postcode": "1012GC", "addr:street": "Oude Turfmarkt", "fee": "yes", "name": "UvA Bijzondere Collecties", "name:en": "Bijzondere Collecties", "name:nl": "UvA Bijzondere Collecties", "operator": "Universiteit van Amsterdam", "source": "BAG", "source:date": "2014-02-11", "tourism": "museum", "website": "https://bijzonderecollecties.uva.nl", "wheelchair": "yes", "wikidata": "Q2100495", "wikimedia_commons": "Category:University of Amsterdam Special Collections", "wikipedia": "nl:Bijzondere Collecties van de Universiteit van Amsterdam"}}, {"type": "node", "id": 2724287866, "lat": 52.374071, "lon": 4.8981023}, {"type": "node", "id": 2724287869, "lat": 52.3740714, "lon": 4.898113}, {"type": "node", "id": 2724287885, "lat": 52.3740811, "lon": 4.8980046}, {"type": "node", "id": 2724287890, "lat": 52.3740846, "lon": 4.8980044}, {"type": "node", "id": 2724287891, "lat": 52.3740866, "lon": 4.8979976}, {"type": "node", "id": 2724287895, "lat": 52.3740863, "lon": 4.8981007}, {"type": "node", "id": 2724287929, "lat": 52.3741261, "lon": 4.8976432}, {"type": "node", "id": 2724287936, "lat": 52.3741361, "lon": 4.8978763}, {"type": "node", "id": 2724287949, "lat": 52.3741478, "lon": 4.8982633}, {"type": "node", "id": 2724288007, "lat": 52.374184, "lon": 4.8975761}, {"type": "node", "id": 2724288009, "lat": 52.3741844, "lon": 4.8975874}, {"type": "node", "id": 2724288015, "lat": 52.3741863, "lon": 4.8976363}, {"type": "node", "id": 2724288019, "lat": 52.3741938, "lon": 4.8975605}, {"type": "node", "id": 2724288029, "lat": 52.3742125, "lon": 4.8982564}, {"type": "node", "id": 2724288031, "lat": 52.3742139, "lon": 4.8975587}, {"type": "node", "id": 2724288032, "lat": 52.3742236, "lon": 4.8985114}, {"type": "node", "id": 2724288042, "lat": 52.3742247, "lon": 4.897572}, {"type": "node", "id": 2724288044, "lat": 52.3742268, "lon": 4.8976314}, {"type": "node", "id": 2724288116, "lat": 52.3742693, "lon": 4.8985065}, {"type": "node", "id": 2724288122, "lat": 52.3742959, "lon": 4.8986197}, {"type": "node", "id": 2724288126, "lat": 52.3743047, "lon": 4.8975067}, {"type": "node", "id": 2724288137, "lat": 52.3743079, "lon": 4.8976219}, {"type": "node", "id": 2724288181, "lat": 52.3743556, "lon": 4.8986767}, {"type": "node", "id": 2724288200, "lat": 52.3743761, "lon": 4.8974676}, {"type": "node", "id": 2724288210, "lat": 52.3743946, "lon": 4.8975048}, {"type": "node", "id": 2724288212, "lat": 52.3743982, "lon": 4.8976108}, {"type": "node", "id": 2724288214, "lat": 52.3744132, "lon": 4.898671}, {"type": "node", "id": 2724288217, "lat": 52.3744207, "lon": 4.8986702}, {"type": "node", "id": 2724288250, "lat": 52.3744807, "lon": 4.8985972}, {"type": "node", "id": 2724288265, "lat": 52.3744944, "lon": 4.8984797}, {"type": "node", "id": 2724288280, "lat": 52.3745136, "lon": 4.8975989}, {"type": "node", "id": 2724288306, "lat": 52.3745614, "lon": 4.8975932}, {"type": "node", "id": 2724288317, "lat": 52.3745693, "lon": 4.8975925}, {"type": "node", "id": 2724288319, "lat": 52.37457, "lon": 4.8976061}, {"type": "node", "id": 2724288347, "lat": 52.3745935, "lon": 4.8978748}, {"type": "node", "id": 2724288351, "lat": 52.3746016, "lon": 4.897887}, {"type": "node", "id": 2724288352, "lat": 52.3746021, "lon": 4.8979051}, {"type": "node", "id": 2724288364, "lat": 52.3746195, "lon": 4.897903}, {"type": "node", "id": 2724288367, "lat": 52.3746212, "lon": 4.8978973}, {"type": "node", "id": 2724288368, "lat": 52.3746219, "lon": 4.8979057}, {"type": "node", "id": 2724288369, "lat": 52.3746238, "lon": 4.8978993}, {"type": "node", "id": 2724288371, "lat": 52.3746257, "lon": 4.8979802}, {"type": "node", "id": 2724288372, "lat": 52.3746292, "lon": 4.897984}, {"type": "node", "id": 2724288379, "lat": 52.3746362, "lon": 4.8979385}, {"type": "node", "id": 2724288380, "lat": 52.3746365, "lon": 4.8979438}, {"type": "node", "id": 2724288381, "lat": 52.3746258, "lon": 4.8980378}, {"type": "node", "id": 2724288382, "lat": 52.3746307, "lon": 4.8980519}, {"type": "node", "id": 2724288384, "lat": 52.3746406, "lon": 4.8979381}, {"type": "node", "id": 2724288385, "lat": 52.3746407, "lon": 4.8979436}, {"type": "node", "id": 2724288390, "lat": 52.3746425, "lon": 4.8980358}, {"type": "node", "id": 2724288391, "lat": 52.3746432, "lon": 4.8980502}, {"type": "node", "id": 2724289134, "lat": 52.3750375, "lon": 4.8993641}, {"type": "node", "id": 2724289166, "lat": 52.3750682, "lon": 4.8991341}, {"type": "node", "id": 2724289180, "lat": 52.3750858, "lon": 4.8994119}, {"type": "node", "id": 2724289190, "lat": 52.3750899, "lon": 4.8990886}, {"type": "node", "id": 2724289191, "lat": 52.3750939, "lon": 4.8990776}, {"type": "node", "id": 2724289208, "lat": 52.3751055, "lon": 4.8991688}, {"type": "node", "id": 2724289211, "lat": 52.375107, "lon": 4.8994363}, {"type": "node", "id": 2724289213, "lat": 52.3751087, "lon": 4.8990332}, {"type": "node", "id": 2724289220, "lat": 52.3751118, "lon": 4.8994231}, {"type": "node", "id": 2724289230, "lat": 52.3751228, "lon": 4.8993059}, {"type": "node", "id": 2724289270, "lat": 52.3751594, "lon": 4.8994873}, {"type": "node", "id": 2724289272, "lat": 52.3751603, "lon": 4.8994849}, {"type": "node", "id": 2724289303, "lat": 52.3751858, "lon": 4.89921}, {"type": "node", "id": 2724289306, "lat": 52.3751906, "lon": 4.8991126}, {"type": "node", "id": 2724289336, "lat": 52.3752122, "lon": 4.8993353}, {"type": "node", "id": 2724289354, "lat": 52.3752211, "lon": 4.8993096}, {"type": "node", "id": 2724289360, "lat": 52.3752239, "lon": 4.8993121}, {"type": "node", "id": 2724289373, "lat": 52.375229, "lon": 4.8992973}, {"type": "node", "id": 2724289389, "lat": 52.3752423, "lon": 4.899259}, {"type": "node", "id": 2724369153, "lat": 52.3721119, "lon": 4.8972549, "tags": {"addr:city": "Amsterdam", "addr:housenumber": "130", "addr:postcode": "1012DT", "addr:street": "Oudezijds Achterburgwal", "fee": "yes", "name": "Hemp Gallery", "note": "Part of the \"Hash Marihuana & Hemp Museum\". This is an information centre cq attraction, that does not conform to the museum definitions of Unesco, ICOM and Museumvereniging.", "source": "BAG", "source:date": "2014-02-11", "tourism": "museum", "website": "https://hashmuseum.com/en/amsterdam/hemp-gallery", "wheelchair": "yes"}}, {"type": "node", "id": 2725914421, "lat": 52.365606, "lon": 4.8915478, "tags": {"addr:city": "Amsterdam", "addr:housenumber": "497", "addr:street": "Herengracht", "contact:facebook": "https://www.facebook.com/CatCabinet", "contact:instagram": "https://www.instagram.com/het.kattenkabinet/", "email": "info@kattenkabinet.nl", "name": "Kattenkabinet", "name:de": "Katzenmuseum", "name:en": "Cat Cabinet", "name:ru": "\u041c\u0443\u0437\u0435\u0439 \u043a\u043e\u0448\u0435\u043a", "opening_hours": "Sa,Su 12:00-17:00; Mo-Fr 10:00-17:00", "phone": "+31 20 626 9040", "toilets": "yes", "toilets:access": "customers", "tourism": "museum", "website": "https://www.kattenkabinet.nl/", "wheelchair": "no", "wikidata": "Q2916386", "wikimedia_commons": "Category:KattenKabinet", "wikipedia": "nl:KattenKabinet"}}, {"type": "node", "id": 2737805178, "lat": 52.3650527, "lon": 4.9006803, "tags": {"addr:city": "Amsterdam", "addr:housenumber": "218", "addr:postcode": "1017AJ", "addr:street": "Amstel", "fee": "no", "museum": "art", "name": "Collectie Six", "opening_hours": "\"only after reservation\"", "operator:type": "private", "phone": "+31 20 642 7777", "reservation": "required", "source": "BAG", "source:date": "2014-02-11", "tourism": "museum", "website": "https://collectiesix.nl", "wikidata": "Q2370540", "wikimedia_commons": "Category:Six Collection, Amsterdam", "wikipedia": "nl:Collectie Six"}}, {"type": "node", "id": 2741083161, "lat": 52.3738532, "lon": 4.9121113, "tags": {"addr:city": "Amsterdam", "addr:housenumber": "2", "addr:postcode": "1011VX", "addr:street": "Oosterdok", "baby_feeding": "room", "charge": "17.5 EUR per person", "designation": "Science Museum", "email": "info@e-nemo.nl", "fee": "yes", "internet_access": "wlan", "internet_access:fee": "no", "name": "Nemo", "name:es": "Nemo", "name:he": "\u05e0\u05de\u05d5", "name:ko": "\uacfc\ud559\uae30\uc220 \ubc15\ubb3c\uad00(\ub2c8\ubaa8)", "name:nl": "Nemo", "name:uk": "\u041d\u0435\u043c\u043e", "opening_hours": "Tu-Su 10:00-17:30", "phone": "+31 20 531 3233", "source": "BAG", "source:date": "2022-10-27", "toilets:wheelchair": "yes", "tourism": "museum", "website": "https://www.e-nemo.nl", "wheelchair": "yes", "wikidata": "Q1422000", "wikimedia_commons": "Category:NEMO", "wikipedia": "nl:NEMO Science Museum"}}, {"type": "node", "id": 2741083668, "lat": 52.3715088, "lon": 4.9124742, "tags": {"addr:city": "Amsterdam", "addr:housenumber": "600", "addr:postcode": "1011VX", "addr:street": "Prins Hendrikkade", "description": "Architectuurcentrum Amsterdam", "name": "Arcam", "opening_hours": "Tu-Su 13:00-17:00", "source": "BAG", "source:date": "2014-03-24", "tourism": "museum", "website": "https://www.arcam.nl/", "wikidata": "Q2098441", "wikimedia_commons": "Category:Prins Hendrikkade 600, Amsterdam", "wikipedia": "nl:ARCAM"}}, {"type": "node", "id": 2741084384, "lat": 52.3669187, "lon": 4.9039089}, {"type": "node", "id": 2741084386, "lat": 52.3669197, "lon": 4.9039083}, {"type": "node", "id": 2741084389, "lat": 52.3669223, "lon": 4.9039246}, {"type": "node", "id": 2741084390, "lat": 52.3669233, "lon": 4.903924}, {"type": "node", "id": 2741084394, "lat": 52.366933, "lon": 4.9039725}, {"type": "node", "id": 2741084396, "lat": 52.366934, "lon": 4.9039719}, {"type": "node", "id": 2741084397, "lat": 52.3669348, "lon": 4.9037395}, {"type": "node", "id": 2741084399, "lat": 52.3669348, "lon": 4.9037456}, {"type": "node", "id": 2741084400, "lat": 52.3669353, "lon": 4.9037518}, {"type": "node", "id": 2741084402, "lat": 52.3669363, "lon": 4.9037577}, {"type": "node", "id": 2741084403, "lat": 52.3669374, "lon": 4.9037246}, {"type": "node", "id": 2741084405, "lat": 52.3669393, "lon": 4.9037193}, {"type": "node", "id": 2741084407, "lat": 52.3669412, "lon": 4.9037709}, {"type": "node", "id": 2741084408, "lat": 52.3669417, "lon": 4.9037145}, {"type": "node", "id": 2741084410, "lat": 52.3669433, "lon": 4.9040369}, {"type": "node", "id": 2741084411, "lat": 52.3669439, "lon": 4.9037752}, {"type": "node", "id": 2741084413, "lat": 52.3669463, "lon": 4.9040315}, {"type": "node", "id": 2741084414, "lat": 52.366947, "lon": 4.9037788}, {"type": "node", "id": 2741084416, "lat": 52.3669505, "lon": 4.9040685}, {"type": "node", "id": 2741084417, "lat": 52.3669539, "lon": 4.9037836}, {"type": "node", "id": 2741084419, "lat": 52.366955, "lon": 4.9040702}, {"type": "node", "id": 2741084420, "lat": 52.3669577, "lon": 4.9037847}, {"type": "node", "id": 2741084422, "lat": 52.3669596, "lon": 4.9037849}, {"type": "node", "id": 2741084424, "lat": 52.3669633, "lon": 4.9037846}, {"type": "node", "id": 2741084425, "lat": 52.3669688, "lon": 4.9041313}, {"type": "node", "id": 2741084427, "lat": 52.3669698, "lon": 4.9041307}, {"type": "node", "id": 2741084428, "lat": 52.3669792, "lon": 4.9041775}, {"type": "node", "id": 2741084432, "lat": 52.3669828, "lon": 4.9041937}, {"type": "node", "id": 2741084433, "lat": 52.3669838, "lon": 4.9041928}, {"type": "node", "id": 2741084435, "lat": 52.3669841, "lon": 4.9041944}, {"type": "node", "id": 2741084436, "lat": 52.3669936, "lon": 4.9041868}, {"type": "node", "id": 2741084437, "lat": 52.366994, "lon": 4.9041883}, {"type": "node", "id": 2741084447, "lat": 52.3670462, "lon": 4.9041546}, {"type": "node", "id": 2741084448, "lat": 52.367047, "lon": 4.9041578}, {"type": "node", "id": 2741084449, "lat": 52.3670509, "lon": 4.9041553}, {"type": "node", "id": 2741084450, "lat": 52.3670514, "lon": 4.9041573}, {"type": "node", "id": 2741084453, "lat": 52.3670528, "lon": 4.9041564}, {"type": "node", "id": 2741084455, "lat": 52.367054, "lon": 4.9041612}, {"type": "node", "id": 2741084460, "lat": 52.3670593, "lon": 4.9041524}, {"type": "node", "id": 2741084461, "lat": 52.3670604, "lon": 4.9041572}, {"type": "node", "id": 2741084465, "lat": 52.3670809, "lon": 4.9041394}, {"type": "node", "id": 2741084466, "lat": 52.367082, "lon": 4.9041442}, {"type": "node", "id": 2741084468, "lat": 52.3670855, "lon": 4.9035471}, {"type": "node", "id": 2741084469, "lat": 52.3670874, "lon": 4.9041355}, {"type": "node", "id": 2741084470, "lat": 52.3670884, "lon": 4.9041327}, {"type": "node", "id": 2741084471, "lat": 52.3670885, "lon": 4.9041403}, {"type": "node", "id": 2741084472, "lat": 52.3670889, "lon": 4.9041346}, {"type": "node", "id": 2741084473, "lat": 52.3670917, "lon": 4.9041272}, {"type": "node", "id": 2741084474, "lat": 52.3670924, "lon": 4.9041303}, {"type": "node", "id": 2741084487, "lat": 52.3671441, "lon": 4.9040956}, {"type": "node", "id": 2741084488, "lat": 52.3671444, "lon": 4.904097}, {"type": "node", "id": 2741084490, "lat": 52.3671538, "lon": 4.9040897}, {"type": "node", "id": 2741084491, "lat": 52.3671541, "lon": 4.9040911}, {"type": "node", "id": 2741084492, "lat": 52.3671545, "lon": 4.9040868}, {"type": "node", "id": 2741084493, "lat": 52.367155, "lon": 4.904089}, {"type": "node", "id": 2741084502, "lat": 52.3671751, "lon": 4.903442}, {"type": "node", "id": 2741084506, "lat": 52.3671915, "lon": 4.9040645}, {"type": "node", "id": 2741084507, "lat": 52.3671918, "lon": 4.9040657}, {"type": "node", "id": 2741084511, "lat": 52.3671938, "lon": 4.9040645}, {"type": "node", "id": 2741084513, "lat": 52.367195, "lon": 4.9040707}, {"type": "node", "id": 2741084516, "lat": 52.3671963, "lon": 4.9040728}, {"type": "node", "id": 2741084517, "lat": 52.3671981, "lon": 4.9040736}, {"type": "node", "id": 2741084518, "lat": 52.3671994, "lon": 4.9040732}, {"type": "node", "id": 2741084519, "lat": 52.3672001, "lon": 4.90406}, {"type": "node", "id": 2741084520, "lat": 52.3672006, "lon": 4.9040721}, {"type": "node", "id": 2741084521, "lat": 52.367201, "lon": 4.9040713}, {"type": "node", "id": 2741084522, "lat": 52.3672018, "lon": 4.9040671}, {"type": "node", "id": 2741084523, "lat": 52.3672018, "lon": 4.9040682}, {"type": "node", "id": 2741084531, "lat": 52.3672334, "lon": 4.9040399}, {"type": "node", "id": 2741084534, "lat": 52.367236, "lon": 4.9040512}, {"type": "node", "id": 2741084535, "lat": 52.3672402, "lon": 4.9040359}, {"type": "node", "id": 2741084536, "lat": 52.3672427, "lon": 4.9040472}, {"type": "node", "id": 2741084557, "lat": 52.3672845, "lon": 4.9036982}, {"type": "node", "id": 2741084561, "lat": 52.3672939, "lon": 4.9037263}, {"type": "node", "id": 2741084566, "lat": 52.367302, "lon": 4.9039987}, {"type": "node", "id": 2741084569, "lat": 52.3673045, "lon": 4.9040096}, {"type": "node", "id": 2741084571, "lat": 52.3673088, "lon": 4.9039946}, {"type": "node", "id": 2741084572, "lat": 52.3673096, "lon": 4.903717}, {"type": "node", "id": 2741084575, "lat": 52.3673112, "lon": 4.9040056}, {"type": "node", "id": 2741084591, "lat": 52.3673317, "lon": 4.9038976}, {"type": "node", "id": 2741084599, "lat": 52.3673384, "lon": 4.9037819}, {"type": "node", "id": 2741084601, "lat": 52.3673418, "lon": 4.9039747}, {"type": "node", "id": 2741084604, "lat": 52.3673425, "lon": 4.9037771}, {"type": "node", "id": 2741084609, "lat": 52.3673442, "lon": 4.9039854}, {"type": "node", "id": 2741084611, "lat": 52.3673444, "lon": 4.9037874}, {"type": "node", "id": 2741084615, "lat": 52.3673461, "lon": 4.9037853}, {"type": "node", "id": 2741084621, "lat": 52.3673485, "lon": 4.903971}, {"type": "node", "id": 2741084626, "lat": 52.3673509, "lon": 4.9039814}, {"type": "node", "id": 2741084627, "lat": 52.3673512, "lon": 4.9038028}, {"type": "node", "id": 2741084631, "lat": 52.367353, "lon": 4.9038007}, {"type": "node", "id": 2741084635, "lat": 52.3673549, "lon": 4.903811}, {"type": "node", "id": 2741084636, "lat": 52.3673566, "lon": 4.903809}, {"type": "node", "id": 2741084644, "lat": 52.3673655, "lon": 4.903835}, {"type": "node", "id": 2741084645, "lat": 52.3673673, "lon": 4.9038329}, {"type": "node", "id": 2741084648, "lat": 52.3673692, "lon": 4.9038433}, {"type": "node", "id": 2741084649, "lat": 52.367371, "lon": 4.9038413}, {"type": "node", "id": 2741084652, "lat": 52.3673762, "lon": 4.9038589}, {"type": "node", "id": 2741084653, "lat": 52.3673775, "lon": 4.9038697}, {"type": "node", "id": 2741084654, "lat": 52.3673779, "lon": 4.9038568}, {"type": "node", "id": 2742811299, "lat": 52.3656522, "lon": 4.9022137, "tags": {"addr:city": "Amsterdam", "addr:housenumber": "51", "addr:postcode": "1018EJ", "addr:street": "Amstel", "email": "mail@hartmuseum.nl", "fee": "yes", "museum": "art", "name": "H'ART Museum", "opening_hours": "Mo-Su 10:00-17:00; Dec 25,Jan 1 12:00-17:00", "phone": "+31 20 530 87 55", "source": "BAG", "source:date": "2014-03-24", "toilets:wheelchair": "yes", "tourism": "museum", "website": "https://hartmuseum.nl", "wheelchair": "yes", "wikidata": "Q1350009", "wikipedia": "nl:H'ART Museum"}}, {"type": "node", "id": 2742884279, "lat": 52.3668719, "lon": 4.9110104, "tags": {"addr:city": "Amsterdam", "addr:housenumber": "27", "addr:postcode": "1018DB", "addr:street": "Plantage Middenlaan", "air_conditioning": "yes", "description": "The former Hervormde Kweekschool, opened approx April 2016. National Holocaust Museum is opened in 2024", "fee": "yes", "internet_access": "wlan", "museum_type": "national", "name": "Nationaal Holocaustmuseum", "name:en": "National Holocaust Museum", "name:nl": "Nationaal Holocaustmuseum", "name:ru": "\u041d\u0430\u0446\u0438\u043e\u043d\u0430\u043b\u044c\u043d\u044b\u0439 \u043c\u0443\u0437\u0435\u0439 \u0425\u043e\u043b\u043e\u043a\u043e\u0441\u0442\u0430", "opening_hours": "Mo-Su 10:00-17:00", "source": "BAG", "source:date": "2014-03-24", "tourism": "museum", "website": "https://jck.nl/locatie/nationaal-holocaustmuseum", "wikidata": "Q26822174", "wikimedia_commons": "Category:Nationaal Holocaust Museum"}}, {"type": "node", "id": 2742996045, "lat": 52.3661497, "lon": 4.9131288, "tags": {"addr:city": "Amsterdam", "addr:housenumber": "41A", "addr:postcode": "1018DC", "addr:street": "Plantage Middenlaan", "fee": "yes", "museum": "nature", "name": "Groote Museum", "opening_hours": "10:00-17:00; Tu 10:00-22:00", "opening_hours:url": "https://www.grootemuseum.nl/nl/plan-je-bezoek#openingstijden", "operator": "Artis", "source": "BAG", "source:date": "2014-03-24", "tourism": "museum", "website": "https://www.grootemuseum.nl/", "wikidata": "Q115172749", "wikimedia_commons": "Category:Het Groote Museum", "wikipedia": "nl:Groote Museum (Artis)", "wikipedia:nl": "Groote Museum (Artis)"}}, {"type": "node", "id": 2743293849, "lat": 52.3679065, "lon": 4.9201848}, {"type": "node", "id": 2743293885, "lat": 52.3679369, "lon": 4.9200033}, {"type": "node", "id": 2743293891, "lat": 52.367943, "lon": 4.9199315}, {"type": "node", "id": 2743293903, "lat": 52.3679509, "lon": 4.919939}, {"type": "node", "id": 2743293907, "lat": 52.3679536, "lon": 4.9199552}, {"type": "node", "id": 2743293911, "lat": 52.3679549, "lon": 4.9200469}, {"type": "node", "id": 2743293914, "lat": 52.3679565, "lon": 4.9200483}, {"type": "node", "id": 2743293921, "lat": 52.3679636, "lon": 4.9200281}, {"type": "node", "id": 2816504554, "lat": 52.3587165, "lon": 4.8819619, "tags": {"addr:city": "Amsterdam", "addr:housenumber": "20", "addr:postcode": "1071DE", "addr:street": "Honthorststraat", "alt_name": "Modern Contemporary Museum", "email": "hello@mocomuseum.com", "fee": "yes", "name": "Moco Museum", "opening_hours": "Mo-Th, Su 09:00-19:00; Fr, Sa 09:00-20:00", "phone": "+31 20 370 1997", "source": "BAG", "source:date": "2014-03-24", "tourism": "museum", "website": "https://mocomuseum.com/", "wheelchair": "no", "wikidata": "Q26832671", "wikimedia_commons": "Category:Modern Contemporary (Moco) Museum, Amsterdam", "wikipedia": "nl:Moco Museum"}}, {"type": "node", "id": 2816506923, "lat": 52.3577679, "lon": 4.8791307}, {"type": "node", "id": 2816506924, "lat": 52.3577691, "lon": 4.8791349}, {"type": "node", "id": 2816506942, "lat": 52.3578027, "lon": 4.8791053}, {"type": "node", "id": 2816506943, "lat": 52.3578039, "lon": 4.8791097}, {"type": "node", "id": 2816506979, "lat": 52.3578736, "lon": 4.8809955}, {"type": "node", "id": 2816507104, "lat": 52.3579887, "lon": 4.8789743}, {"type": "node", "id": 2816507105, "lat": 52.35799, "lon": 4.8789792}, {"type": "node", "id": 2816507106, "lat": 52.3579925, "lon": 4.8789714}, {"type": "node", "id": 2816507111, "lat": 52.3580222, "lon": 4.8789508}, {"type": "node", "id": 2816507112, "lat": 52.3580232, "lon": 4.8789546}, {"type": "node", "id": 2816507121, "lat": 52.3580649, "lon": 4.8789811}, {"type": "node", "id": 2816507123, "lat": 52.3580673, "lon": 4.8789794}, {"type": "node", "id": 2816507125, "lat": 52.3580801, "lon": 4.8790364}, {"type": "node", "id": 2816507126, "lat": 52.3580824, "lon": 4.8790347}, {"type": "node", "id": 2816507134, "lat": 52.3581293, "lon": 4.8804858}, {"type": "node", "id": 2816507135, "lat": 52.3581304, "lon": 4.8804898}, {"type": "node", "id": 2816507137, "lat": 52.3581626, "lon": 4.8804609}, {"type": "node", "id": 2816507139, "lat": 52.3581638, "lon": 4.8804651}, {"type": "node", "id": 2816507140, "lat": 52.3582272, "lon": 4.8795022}, {"type": "node", "id": 2816507141, "lat": 52.3582341, "lon": 4.8794974}, {"type": "node", "id": 2816507142, "lat": 52.3582762, "lon": 4.879685}, {"type": "node", "id": 2816507143, "lat": 52.3582825, "lon": 4.8796804}, {"type": "node", "id": 2816507144, "lat": 52.3583521, "lon": 4.8803245}, {"type": "node", "id": 2816507145, "lat": 52.3583533, "lon": 4.8803287}, {"type": "node", "id": 2816507146, "lat": 52.3583856, "lon": 4.8802997}, {"type": "node", "id": 2816507147, "lat": 52.3583868, "lon": 4.880304}, {"type": "node", "id": 2816507148, "lat": 52.3583872, "lon": 4.8801767}, {"type": "node", "id": 2816507149, "lat": 52.3583891, "lon": 4.8801753}, {"type": "node", "id": 2816507150, "lat": 52.3584012, "lon": 4.8802325}, {"type": "node", "id": 2816507151, "lat": 52.358404, "lon": 4.8802305}, {"type": "node", "id": 2817515795, "lat": 52.3578404, "lon": 4.891784, "tags": {"addr:city": "Amsterdam", "addr:country": "NL", "addr:housenumber": "78", "addr:postcode": "1072AE", "addr:street": "Stadhouderskade", "name": "Heineken Experience", "name:en": "Heineken Experience", "name:zh": "\u6d77\u5c3c\u6839\u9ad4\u9a57\u9928", "opening_hours": "Mo-Th 10:30-19:30; Fr-Su 10:30-21:00", "source": "BAG", "source:date": "2014-03-24", "toilets:wheelchair": "yes", "tourism": "museum", "website": "https://heineken.com/Heineken-Experience", "wheelchair": "yes", "wikidata": "Q2087161", "wikimedia_commons": "Category:Heineken Experience", "wikipedia": "nl:Heineken Experience"}}, {"type": "node", "id": 2823885341, "lat": 52.3686244, "lon": 4.9373693}, {"type": "node", "id": 2823885345, "lat": 52.368625, "lon": 4.9374578}, {"type": "node", "id": 2823885382, "lat": 52.3686471, "lon": 4.9373689}, {"type": "node", "id": 2823885384, "lat": 52.3686477, "lon": 4.9374574}, {"type": "node", "id": 2839358054, "lat": 52.346163, "lon": 4.9382989, "tags": {"addr:city": "Amsterdam", "addr:housenumber": "124", "addr:postcode": "1097GA", "addr:street": "Kruislaan", "alt_name": "Nederlands Uitvaart Museum", "description": "funerary museum", "fee": "yes", "name": "Tot Zover", "name:en": "Funerary museum", "name:nl": "Tot Zover", "opening_hours": "We-Su 11:00-17:00", "payment:cash": "no", "tourism": "museum", "website": "https://www.totzover.nl/", "wikidata": "Q2383603", "wikipedia": "nl:Nederlands Uitvaart Museum Tot Zover"}}, {"type": "node", "id": 2847155569, "lat": 52.3841154, "lon": 4.9012573}, {"type": "node", "id": 2847159974, "lat": 52.3911937, "lon": 4.9040367, "tags": {"addr:city": "Amsterdam", "addr:housenumber": "22", "addr:postcode": "1031HP", "addr:street": "Asterweg", "email": "info@nxtmuseum.com", "internet_access": "wlan", "name": "Nxt Museum", "opening_hours": "Su-Th 10:00-20:00; Fr-Sa 10:00-22:00", "source": "BAG", "source:date": "2014-05-07", "tourism": "museum", "website": "https://nxtmuseum.com"}}, {"type": "node", "id": 2847160811, "lat": 52.3839961, "lon": 4.9014011}, {"type": "node", "id": 2847160822, "lat": 52.3840399, "lon": 4.9014981}, {"type": "node", "id": 2847160829, "lat": 52.3841031, "lon": 4.9014482}, {"type": "node", "id": 2853527931, "lat": 52.361153, "lon": 4.9664563}, {"type": "node", "id": 2853527932, "lat": 52.3611539, "lon": 4.966457}, {"type": "node", "id": 2853527933, "lat": 52.3611563, "lon": 4.9664719}, {"type": "node", "id": 2853527934, "lat": 52.3611568, "lon": 4.9664704}, {"type": "node", "id": 2853527936, "lat": 52.3611801, "lon": 4.9663674}, {"type": "node", "id": 2853527937, "lat": 52.361181, "lon": 4.9663682}, {"type": "node", "id": 2853527938, "lat": 52.3611963, "lon": 4.9665022}, {"type": "node", "id": 2853527939, "lat": 52.3612005, "lon": 4.9663004}, {"type": "node", "id": 2853527940, "lat": 52.3612014, "lon": 4.9663011}, {"type": "node", "id": 2853527943, "lat": 52.3612276, "lon": 4.9662115}, {"type": "node", "id": 2853527944, "lat": 52.3612285, "lon": 4.9662122}, {"type": "node", "id": 2853527945, "lat": 52.3612332, "lon": 4.9665345}, {"type": "node", "id": 2853527946, "lat": 52.3612337, "lon": 4.9665331}, {"type": "node", "id": 2853527947, "lat": 52.3612369, "lon": 4.9662076}, {"type": "node", "id": 2853527948, "lat": 52.3612374, "lon": 4.9662061}, {"type": "node", "id": 2853527949, "lat": 52.361242, "lon": 4.9665284}, {"type": "node", "id": 2853527950, "lat": 52.3612429, "lon": 4.9665291}, {"type": "node", "id": 2853527951, "lat": 52.3612627, "lon": 4.9662285}, {"type": "node", "id": 2853527952, "lat": 52.3612691, "lon": 4.9664394}, {"type": "node", "id": 2853527953, "lat": 52.36127, "lon": 4.9664401}, {"type": "node", "id": 2853527955, "lat": 52.3612802, "lon": 4.9662427}, {"type": "node", "id": 2853527957, "lat": 52.3612895, "lon": 4.9663724}, {"type": "node", "id": 2853527958, "lat": 52.3612904, "lon": 4.9663731}, {"type": "node", "id": 2853527959, "lat": 52.3613139, "lon": 4.9662702}, {"type": "node", "id": 2853527960, "lat": 52.3613144, "lon": 4.9662688}, {"type": "node", "id": 2853527961, "lat": 52.3613166, "lon": 4.9662835}, {"type": "node", "id": 2853527962, "lat": 52.3613175, "lon": 4.9662843}, {"type": "node", "id": 2862571795, "lat": 52.3215243, "lon": 4.9773503, "tags": {"addr:city": "Amsterdam", "addr:housenumber": "39", "addr:postcode": "1103GH", "addr:street": "Grubbehoeve", "email": "bijlmermuseum@gmail.com", "fee": "yes", "name": "Bijlmermuseum", "opening_hours": "\"on appointment\"", "phone": "+31 6 41612131", "source": "BAG", "source:date": "2014-05-07", "tourism": "museum", "website": "https://bijlmermuseum.com/"}}, {"type": "node", "id": 3315030353, "lat": 52.3725463, "lon": 4.9142149}, {"type": "node", "id": 3315030354, "lat": 52.3725176, "lon": 4.9141785}, {"type": "node", "id": 3315030355, "lat": 52.3721548, "lon": 4.9141461}, {"type": "node", "id": 3315030357, "lat": 52.3721391, "lon": 4.914214}, {"type": "node", "id": 3664785682, "lat": 52.3841204, "lon": 4.9013414, "tags": {"entrance": "main"}}, {"type": "node", "id": 3664785683, "lat": 52.3838505, "lon": 4.9016609}, {"type": "node", "id": 3678670298, "lat": 52.3755776, "lon": 4.8996677, "tags": {"addr:city": "Amsterdam", "addr:housenumber": "19", "addr:street": "Oudezijds Armsteeg", "fee": "no", "name": "Leger des Heilsmuseum", "tourism": "museum", "website": "https://www.legerdesheils.nl/leger-des-heils-museum"}}, {"type": "node", "id": 3701475270, "lat": 52.3590353, "lon": 4.8852784, "tags": {"access": "permissive", "barrier": "gate", "foot": "yes"}}, {"type": "node", "id": 3930519201, "lat": 52.3606802, "lon": 4.8848081}, {"type": "node", "id": 3930519202, "lat": 52.3606592, "lon": 4.8847657}, {"type": "node", "id": 3930519203, "lat": 52.3598125, "lon": 4.8837005}, {"type": "node", "id": 3930519204, "lat": 52.3605803, "lon": 4.8845983}, {"type": "node", "id": 3930519205, "lat": 52.3608077, "lon": 4.8851718}, {"type": "node", "id": 3930519208, "lat": 52.3605714, "lon": 4.8845796}, {"type": "node", "id": 3930519210, "lat": 52.3605978, "lon": 4.885671}, {"type": "node", "id": 3930519217, "lat": 52.3607818, "lon": 4.8853071}, {"type": "node", "id": 3930539994, "lat": 52.3602463, "lon": 4.8835166, "tags": {"barrier": "gate"}}, {"type": "node", "id": 3931144274, "lat": 52.3589264, "lon": 4.8860735, "tags": {"barrier": "gate"}}, {"type": "node", "id": 3931144281, "lat": 52.3591531, "lon": 4.8844218}, {"type": "node", "id": 3931144308, "lat": 52.3600571, "lon": 4.8865559}, {"type": "node", "id": 3931472391, "lat": 52.3600051, "lon": 4.8865371}, {"type": "node", "id": 4003040352, "lat": 52.420322, "lon": 4.8379717, "tags": {"addr:city": "Zaandam", "addr:housenumber": "2", "addr:postcode": "1505RS", "addr:street": "Vulhuis", "alt_name": "Zaanstad-Amsterdammuseum", "name": "ZAMU", "opening_hours": "Mo-Su closed", "source": "BAG", "source:date": "2016-02-12", "start_date": "2025", "tourism": "museum"}}, {"type": "node", "id": 4003040364, "lat": 52.4214436, "lon": 4.8297516, "tags": {"addr:city": "Zaandam", "addr:housenumber": "10", "addr:postcode": "1505RD", "addr:street": "Ketelhuis", "description": "Check de website voor openingstijden in de zomermaanden", "fee": "donation", "name": "Museum of Humanity", "opening_hours": "Fr-Su 11:00-17:00", "source": "BAG", "source:date": "2016-02-12", "tourism": "museum", "website": "https://www.museumofhumanity.nl/"}}, {"type": "node", "id": 4003042222, "lat": 52.4226857, "lon": 4.8318236, "tags": {"addr:city": "Zaandam", "addr:housenumber": "14", "addr:postcode": "1505RX", "addr:street": "Kanonnenloods", "alt_name": "Hembrugmuseum", "email": "info@hembrugmuseum.nl", "fee": "no", "name": "Hembrug Museum", "phone": "+31 75 681 00 00", "source": "BAG", "source:date": "2016-02-12", "tourism": "museum", "website": "https://zaansmuseum.nl/hembrug-museum/", "wikidata": "Q2454702", "wikipedia": "nl:Hembrug Museum"}}, {"type": "node", "id": 4036881965, "lat": 52.3751363, "lon": 4.8994649, "tags": {"entrance": "main"}}, {"type": "node", "id": 4051951353, "lat": 52.3575815, "lon": 4.880066, "tags": {"entrance": "main"}}, {"type": "node", "id": 4210977099, "lat": 52.3763849, "lon": 4.8842327, "tags": {"addr:city": "Amsterdam", "addr:housenumber": "112", "addr:street": "Prinsengracht", "email": "info@cheesemuseumamsterdam.com", "fee": "no", "level": "-1", "name": "Amsterdam Cheese Museum", "note": "Museum in basement, shop in ground floor", "opening_hours:signed": "no", "phone": "+31 20 331 6605", "toilets:wheelchair": "no", "tourism": "museum", "website": "http://www.cheesemuseumamsterdam.com/", "wheelchair": "no", "wheelchair:description": "too small"}}, {"type": "node", "id": 4362812617, "lat": 52.361191, "lon": 4.8721123, "tags": {"addr:city": "Amsterdam", "addr:housenumber": "140", "addr:postcode": "1054GT", "addr:street": "Vondelstraat", "email": "contact@levendpaardenmuseum.nl", "fee": "yes", "name": "Levend Paardenmuseum", "opening_hours": "Tu-Fr 13:00-19:00; Sa,Su 11:00-17:00; Apr 27,easter +49 days,Jan 1 off", "opening_hours:url": "https://levendpaardenmuseum.nl/openingstijden/", "tourism": "museum", "website": "https://levendpaardenmuseum.nl/", "wikidata": "Q110995934"}}, {"type": "node", "id": 4383681597, "lat": 52.3669134, "lon": 4.91257, "tags": {"addr:city": "Amsterdam", "addr:housenumber": "38-40", "addr:postcode": "1018CZ", "addr:street": "Plantage Kerklaan", "email": "info@micropia.nl", "fee": "yes", "name": "Micropia", "opening_hours": "Mo-We 09:00-18:00; Th-Sa 09:00-20:00; Su 09:00-18:00", "phone:NL": "0900 2784796", "tourism": "museum", "website": "https://www.micropia.nl/", "wheelchair": "yes", "wikidata": "Q18169481", "wikimedia_commons": "Category:Micropia", "wikipedia": "nl:Micropia"}}, {"type": "node", "id": 4395269183, "lat": 52.3579487, "lon": 4.8810262, "tags": {"entrance": "main", "name": "Main entrance"}}, {"type": "node", "id": 4395476118, "lat": 52.3608067, "lon": 4.8851332}, {"type": "node", "id": 4395476134, "lat": 52.3601191, "lon": 4.8865401}, {"type": "node", "id": 4395476154, "lat": 52.3593966, "lon": 4.8862952, "tags": {"barrier": "gate"}}, {"type": "node", "id": 4396030065, "lat": 52.3596918, "lon": 4.8846391}, {"type": "node", "id": 4396030066, "lat": 52.359381, "lon": 4.8842178}, {"type": "node", "id": 4396030069, "lat": 52.3593396, "lon": 4.8841617}, {"type": "node", "id": 4396030085, "lat": 52.359227, "lon": 4.884386}, {"type": "node", "id": 4396030088, "lat": 52.3595792, "lon": 4.8848639}, {"type": "node", "id": 4431447989, "lat": 52.3840049, "lon": 4.9014204}, {"type": "node", "id": 4431447990, "lat": 52.3840151, "lon": 4.9014432}, {"type": "node", "id": 4431447991, "lat": 52.3840688, "lon": 4.9016793}, {"type": "node", "id": 4431447992, "lat": 52.3840701, "lon": 4.9017654}, {"type": "node", "id": 4431447993, "lat": 52.3841162, "lon": 4.9012428}, {"type": "node", "id": 4431447994, "lat": 52.3841183, "lon": 4.901207}, {"type": "node", "id": 4438890690, "lat": 52.3724236, "lon": 4.8935854, "tags": {"addr:city": "Amsterdam", "addr:housenumber": "21", "addr:postcode": "1012JS", "addr:street": "Dam", "email": "info@ripleysamsterdam.com", "fee": "yes", "name": "Ripley's Believe It or Not", "name:en": "Ripley's Believe It or Not", "opening_hours": "Mo-Su 10:00-21:00", "phone": "+31 20 369 7120", "toilets:wheelchair": "yes", "tourism": "museum", "website": "https://www.ripleys.com/amsterdam", "wheelchair": "yes"}}, {"type": "node", "id": 4457150327, "lat": 52.3655242, "lon": 4.9088495, "tags": {"addr:city": "Amsterdam", "addr:housenumber": "570", "addr:postcode": "1018VG", "addr:street": "Nieuwe Keizersgracht", "email": "info@luthermuseum.nl", "name": "Luther Museum Amsterdam", "opening_hours": "Th-Su 11:00-17:00", "phone": "+31 20 214 2112", "source": "BAG", "source:date": "2016-10-20", "tourism": "museum", "website": "https://luthermuseum.nl"}}, {"type": "node", "id": 4528638565, "lat": 52.3829828, "lon": 4.7501828}, {"type": "node", "id": 4528639596, "lat": 52.3833304, "lon": 4.7492661}, {"type": "node", "id": 4528639599, "lat": 52.3832008, "lon": 4.7502605}, {"type": "node", "id": 4528639600, "lat": 52.3829795, "lon": 4.7494369}, {"type": "node", "id": 4528639601, "lat": 52.3833265, "lon": 4.7495493}, {"type": "node", "id": 4528639602, "lat": 52.3832867, "lon": 4.7498238}, {"type": "node", "id": 4528639604, "lat": 52.3829609, "lon": 4.7495878}, {"type": "node", "id": 4528639605, "lat": 52.3832048, "lon": 4.749223}, {"type": "node", "id": 4563246656, "lat": 52.3399222, "lon": 4.8928792, "tags": {"addr:city": "Amsterdam", "addr:housenumber": "5", "addr:postcode": "1079PC", "addr:street": "Europaboulevard", "email": "hello@the-upsidedown.com", "mobile": "+31 85 065 9225", "name": "The Upside Down social media museum", "opening_hours": "Mo-Su 09:30-19:00; Fr,Sa 09:30-20:00", "phone": "+31 20 261 0428", "source": "BAG", "source:date": "2016-12-20", "tourism": "museum", "website": "https://the-upsidedown.com/"}}, {"type": "node", "id": 4586173931, "lat": 52.3683733, "lon": 4.9201713}, {"type": "node", "id": 4672250949, "lat": 52.3739231, "lon": 4.8916924, "tags": {"addr:city": "Amsterdam", "addr:country": "NL", "addr:housenumber": "12", "addr:postcode": "1012NP", "addr:street": "Dam", "fee": "yes", "name": "Nieuwe Kerk", "name:de": "Neue Kirche", "name:en": "New Church", "name:nl": "Nieuwe Kerk", "name:ru": "\u041d\u043e\u0432\u0430\u044f \u0446\u0435\u0440\u043a\u043e\u0432\u044c", "name:zh": "\u65b0\u6559\u5802", "toilets:wheelchair": "yes", "tourism": "museum", "website": "https://www.nieuwekerk.nl/", "wheelchair": "yes", "wikidata": "Q1419675", "wikimedia_commons": "Category:Nieuwe Kerk (Amsterdam)", "wikipedia": "nl:Nieuwe Kerk (Amsterdam)"}}, {"type": "node", "id": 4715157543, "lat": 52.3739131, "lon": 4.8992098, "tags": {"addr:city": "Amsterdam", "addr:housenumber": "54", "addr:postcode": "1012DP", "addr:street": "Oudezijds Achterburgwal", "alt_name": "Sexy Art Gallery", "check_date": "2024-07-29", "contact:phone": "+31 20 627 8954", "fee": "yes", "int_name": "Erotic Museum", "name": "Erotisch Museum", "name:en": "Erotic Museum", "name:nl": "Erotisch Museum", "name:ru": "\u041c\u0443\u0437\u0435\u0439 \u044d\u0440\u043e\u0442\u0438\u043a\u0438", "opening_hours": "Mo-Su 13:00-20:00", "phone": "+31 20 627 8954", "tourism": "museum", "website": "https://erotisch-museum.nl/", "wheelchair": "no"}}, {"type": "node", "id": 4817804877, "lat": 52.3626068, "lon": 4.9223161, "tags": {"addr:city": "Amsterdam", "addr:housenumber": "2", "addr:postcode": "1092CK", "addr:street": "Linnaeusstraat", "email": "info@wereldmuseum.nl", "fee": "yes", "name": "Wereldmuseum Junior", "operator": "Nationaal Museum van Wereldculturen", "operator:wikidata": "Q17153751", "phone": "+31 88 004 2840", "tourism": "museum", "website": "https://amsterdam.wereldmuseum.nl"}}, {"type": "node", "id": 4866454999, "lat": 52.3739617, "lon": 4.895992, "tags": {"addr:housenumber": "5", "addr:postcode": "1012JW", "addr:street": "Beursplein", "fee": "yes", "name": "Amsterdam Exchange Experience", "note": "Due to reconstruction work currently closed", "opening_hours": "Mo-Su off \"reconstruction work\"", "phone": "+31 20 721 4333", "reservation": "required", "tourism": "museum", "website": "https://www.euronext.com/nl/markets/amsterdam/amsterdam-exchange-experience"}}, {"type": "node", "id": 4866733949, "lat": 52.3736461, "lon": 4.8989754, "tags": {"addr:city": "Amsterdam", "addr:housenumber": "60", "addr:postcode": "1012DP", "addr:street": "Oudezijds Achterburgwal", "fee": "yes", "name": "Red Light Secrets", "opening_hours": "Mo-Su 11:00-22:00; Fr,Sa 11:00-23:00", "phone": "+31 20 846 7020", "tourism": "museum", "website": "https://www.redlightsecrets.com/", "wheelchair": "no"}}, {"type": "node", "id": 4909411075, "lat": 52.3678921, "lon": 4.8862198, "tags": {"addr:city": "Amsterdam", "addr:housenumber": "386", "addr:postcode": "1016CJ", "addr:street": "Herengracht", "alt_name": "Museum Het Grachtenhuis", "fee": "yes", "name": "Grachtenhuis", "name:en": "Museum of the Canals", "name:nl": "Grachtenhuis", "opening_hours": "Tu-Su 10:00-17:00", "phone": "+31 20 421 1656", "tourism": "museum", "website": "https://grachten.museum/", "wheelchair": "yes"}}, {"type": "node", "id": 4914550866, "lat": 52.3842421, "lon": 4.9017638}, {"type": "node", "id": 5567846282, "lat": 52.3730127, "lon": 4.8262451, "tags": {"addr:city": "Amsterdam", "addr:housenumber": "31", "addr:postcode": "1064GV", "addr:street": "Noordzijde", "fee": "yes", "name": "Van Eesteren Museum", "opening_hours": "Th-Su 12:00-17:00; Jan 1, Apr 27, Jul 1, Dec 25-26 off", "phone": "+31 20 447 1857", "tourism": "museum", "website": "https://vaneesterenmuseum.nl", "wheelchair": "yes", "wikidata": "Q2794022", "wikipedia": "nl:Van Eesteren Museum"}}, {"type": "node", "id": 5660403824, "lat": 52.36697, "lon": 4.8897695, "tags": {"addr:city": "Amsterdam", "addr:housenumber": "484", "addr:postcode": "1017AW", "addr:street": "Singel", "brand": "Henri Willig", "contact:website": "https://www.cheesefarms.com/nl/hoeve-winkels/henri-willig-singel", "fee": "no", "level": "1", "museum": "agriculture", "name": "Henri's Little Cheese Museum", "opening_hours": "Mo-Su,PH 09:00-19:00; Dec-Feb Mo-Su,PH 10:00-18:00", "operator": "Henri Willig Kaas B.V.", "operator:type": "private", "source": "BAG", "source:date": "2014-02-11", "tourism": "museum", "wheelchair": "no"}}, {"type": "node", "id": 5713686919, "lat": 52.3750134, "lon": 4.8840009, "tags": {"entrance": "main"}}, {"type": "node", "id": 5713836297, "lat": 52.3751383, "lon": 4.8993471}, {"type": "node", "id": 5713836298, "lat": 52.3751158, "lon": 4.8993262}, {"type": "node", "id": 5713836299, "lat": 52.3751085, "lon": 4.899347}, {"type": "node", "id": 5713836300, "lat": 52.3751547, "lon": 4.899215}, {"type": "node", "id": 5773624054, "lat": 52.3749807, "lon": 4.8840965}, {"type": "node", "id": 5793987234, "lat": 52.3724085, "lon": 4.914569}, {"type": "node", "id": 5793987235, "lat": 52.3722045, "lon": 4.9145521}, {"type": "node", "id": 5793987236, "lat": 52.3722014, "lon": 4.9146516}, {"type": "node", "id": 5793987237, "lat": 52.3724055, "lon": 4.9146685}, {"type": "node", "id": 5793987238, "lat": 52.3723936, "lon": 4.9145678}, {"type": "node", "id": 5793987239, "lat": 52.3723961, "lon": 4.9144901}, {"type": "node", "id": 5793987241, "lat": 52.3722178, "lon": 4.9145532}, {"type": "node", "id": 6997001568, "lat": 52.3741849, "lon": 4.8975987}, {"type": "node", "id": 6997001571, "lat": 52.3742255, "lon": 4.8975941}, {"type": "node", "id": 6997002289, "lat": 52.3746045, "lon": 4.8984655}, {"type": "node", "id": 7006512879, "lat": 52.3740889, "lon": 4.8982589}, {"type": "node", "id": 7006512880, "lat": 52.3740826, "lon": 4.8981117}, {"type": "node", "id": 7006512881, "lat": 52.3745735, "lon": 4.8978778}, {"type": "node", "id": 7006553790, "lat": 52.374624, "lon": 4.8979854}, {"type": "node", "id": 7006553791, "lat": 52.3746272, "lon": 4.8979891}, {"type": "node", "id": 7006553797, "lat": 52.374562, "lon": 4.8976072}, {"type": "node", "id": 7047148739, "lat": 52.3580855, "lon": 4.8810365}, {"type": "node", "id": 7047148740, "lat": 52.3580822, "lon": 4.8810406}, {"type": "node", "id": 7047148741, "lat": 52.3581068, "lon": 4.8810817}, {"type": "node", "id": 7047148742, "lat": 52.3583232, "lon": 4.8815701}, {"type": "node", "id": 7047148743, "lat": 52.3583206, "lon": 4.8815733}, {"type": "node", "id": 7047148744, "lat": 52.3583043, "lon": 4.8815282}, {"type": "node", "id": 7800877214, "lat": 52.376342, "lon": 4.8874494, "tags": {"addr:city": "Amsterdam", "addr:housenumber": "123", "addr:postcode": "1015CJ", "addr:street": "Keizersgracht", "contact:facebook": "https://www.facebook.com/embassyofthefreemind/", "contact:instagram": "https://www.instagram.com/embassyofthefreemind/", "fee": "yes", "name": "Embassy of the Free Mind", "opening_hours": "We-Su 10:00-17:00", "phone": "+31 20 625 8079", "source": "survey", "tourism": "museum", "website": "https://embassyofthefreemind.com", "wheelchair": "no", "wikidata": "Q56452182", "wikimedia_commons": "Category:Embassy of the Free Mind", "wikipedia": "nl:Embassy of the Free Mind"}}, {"type": "node", "id": 8139553977, "lat": 52.371857, "lon": 4.9152577, "tags": {"entrance": "emergency"}}, {"type": "node", "id": 8335928712, "lat": 52.3641246, "lon": 4.8853385, "tags": {"addr:city": "Amsterdam", "addr:housenumber": "488", "addr:postcode": "1017KH", "addr:street": "Prinsengracht", "email": "info@pipemuseum.nl", "fee": "yes", "name": "Pijpenkabinet", "name:en": "Amsterdam Pipe Museum", "name:nl": "Pijpenkabinet", "name:ru": "\u041c\u0443\u0437\u0435\u0439 \u0442\u0440\u0443\u0431\u043e\u043a", "opening_hours": "Mo-Sa 12:00-18:00", "phone": "+31 20 421 1779", "source": "BAG", "source:date": "2021-01-08", "tourism": "museum", "website": "https://www.pipemuseum.nl", "wikidata": "Q2218690", "wikimedia_commons": "Category:Amsterdam Pipe Museum", "wikipedia": "nl:Amsterdam Pipe Museum"}}, {"type": "node", "id": 8867602724, "lat": 52.3611891, "lon": 4.966338}, {"type": "node", "id": 9271847554, "lat": 52.3660776, "lon": 4.8995135, "tags": {"addr:city": "Amsterdam", "addr:housenumber": "26", "addr:postcode": "1017DA", "addr:street": "Amstelstraat", "fee": "yes", "museum": "art", "name": "Our House", "phone": "+31 20 820 0670", "tourism": "museum", "website": "https://www.our-house.com", "wheelchair": "no"}}, {"type": "node", "id": 9656239459, "lat": 52.3680191, "lon": 4.9204734}, {"type": "node", "id": 9964047123, "lat": 52.3404045, "lon": 5.0131812, "tags": {"addr:housenumber": "34", "addr:postcode": "1111PP", "addr:street": "Overdiemerweg", "email": "museum@saan.nl", "fee": "no", "name": "Saan Museum", "operator": "Saan", "phone": "+31 20 660 6060", "tourism": "museum", "website": "https://www.saan.nl/saan-museum/"}}, {"type": "node", "id": 10198298339, "lat": 52.3593328, "lon": 4.8841537, "tags": {"barrier": "gate"}}, {"type": "node", "id": 10946356652, "lat": 52.3594104, "lon": 4.8825054, "tags": {"addr:city": "Amsterdam", "addr:housenumber": "8", "addr:postcode": "1071CZ", "addr:street": "Paulus Potterstraat", "email": "info@diamantmuseumamsterdam.nl", "fee": "yes", "name": "Diamant Museum Amsterdam", "name:de": "Diamantenmuseum Amsterdam", "name:en": "Diamond Museum Amsterdam", "name:nl": "Diamant Museum Amsterdam", "opening_hours": "Mo-Su 09:00-17:00", "phone": "+31 20 305 5300", "tourism": "museum", "website": "https://diamonds-amsterdam.com/", "wheelchair": "yes", "wikidata": "Q1208561", "wikimedia_commons": "Category:Diamant Museum in Amsterdam", "wikipedia": "nl:Diamantmuseum (Amsterdam)"}}, {"type": "node", "id": 10973518622, "lat": 52.4019435, "lon": 4.8937104, "tags": {"addr:city": "Amsterdam", "addr:housenumber": "1", "addr:postcode": "1033WC", "addr:street": "NDSM-plein", "contact:facebook": "https://www.facebook.com/straat.museum.ndsm", "contact:instagram": "https://www.instagram.com/straatmuseum/", "fee": "yes", "museum": "art", "name": "STRAAT", "opening_hours": "Mo 12:00-18:00; Tu-Su 10:00-18:00", "phone": "+31 20 370 9630", "tourism": "museum", "website": "https://straatmuseum.com"}}, {"type": "node", "id": 11039647229, "lat": 52.3141678, "lon": 4.952305, "tags": {"addr:housenumber": "110-111", "addr:postcode": "1102DB", "addr:street": "Bijlmerplein", "contact:facebook": "openspacecontemporaryartmuseum", "contact:instagram": "oscamonline", "email": "info@oscam.nl", "name": "Open Space Contemporary Museum", "opening_hours": "Tu-Fr 10:00-18:00; Sa 10:00-17:00", "phone": "+31 6 28757113", "tourism": "museum", "website": "https://www.oscam.nl/"}}, {"type": "node", "id": 11168034496, "lat": 52.3842492, "lon": 4.9017431}, {"type": "node", "id": 11182000230, "lat": 52.3844424, "lon": 4.9002847}, {"type": "node", "id": 11182000231, "lat": 52.3845045, "lon": 4.9002776}, {"type": "node", "id": 11182027538, "lat": 52.3838721, "lon": 4.9015365}, {"type": "node", "id": 11182027539, "lat": 52.3839255, "lon": 4.9015508}, {"type": "node", "id": 11182027540, "lat": 52.383845, "lon": 4.9016484}, {"type": "node", "id": 11182027541, "lat": 52.3838555, "lon": 4.9016725}, {"type": "node", "id": 11182027542, "lat": 52.3841493, "lon": 4.9014393}, {"type": "node", "id": 11182027543, "lat": 52.3841509, "lon": 4.9014405}, {"type": "node", "id": 11182027544, "lat": 52.384191, "lon": 4.9012207}, {"type": "node", "id": 11182027545, "lat": 52.3842054, "lon": 4.901224}, {"type": "node", "id": 11182027546, "lat": 52.384203, "lon": 4.9012529}, {"type": "node", "id": 11182027547, "lat": 52.3842066, "lon": 4.9012536}, {"type": "node", "id": 11182027548, "lat": 52.3842071, "lon": 4.9012551}, {"type": "node", "id": 11182027549, "lat": 52.3843384, "lon": 4.9012886}, {"type": "node", "id": 11182027550, "lat": 52.3844589, "lon": 4.9009303}, {"type": "node", "id": 11182027551, "lat": 52.3844585, "lon": 4.9009272}, {"type": "node", "id": 11182027552, "lat": 52.3845622, "lon": 4.9007985}, {"type": "node", "id": 11182027553, "lat": 52.3845577, "lon": 4.9006899}, {"type": "node", "id": 11182027554, "lat": 52.3845378, "lon": 4.900691}, {"type": "node", "id": 11182027555, "lat": 52.3845372, "lon": 4.9006633}, {"type": "node", "id": 11182027556, "lat": 52.3845393, "lon": 4.9006631}, {"type": "node", "id": 11182027557, "lat": 52.3846507, "lon": 4.9005255}, {"type": "node", "id": 11182027558, "lat": 52.3846414, "lon": 4.9002622}, {"type": "node", "id": 11182027559, "lat": 52.3843413, "lon": 4.9002961}, {"type": "node", "id": 11182027560, "lat": 52.384745, "lon": 4.9006085}, {"type": "node", "id": 11184404999, "lat": 52.384129, "lon": 4.9013605}, {"type": "node", "id": 11184405000, "lat": 52.3841134, "lon": 4.9013256}, {"type": "node", "id": 11184405001, "lat": 52.3841714, "lon": 4.9013283}, {"type": "node", "id": 11184405002, "lat": 52.3841638, "lon": 4.90137, "tags": {"entrance": "yes"}}, {"type": "node", "id": 11184405003, "lat": 52.3841978, "lon": 4.9012223, "tags": {"entrance": "yes", "ref": "1", "wheelchair": "designated"}}, {"type": "node", "id": 11184405026, "lat": 52.3845765, "lon": 4.9008255}, {"type": "node", "id": 11184405028, "lat": 52.3846462, "lon": 4.9003984, "tags": {"access": "delivery", "entrance": "yes"}}, {"type": "node", "id": 11184405029, "lat": 52.3846484, "lon": 4.9004617, "tags": {"access": "delivery", "entrance": "yes"}}, {"type": "node", "id": 11184405175, "lat": 52.3844716, "lon": 4.9002813}, {"type": "node", "id": 11185144775, "lat": 52.3624141, "lon": 4.8835477, "tags": {"contact:email": "contact@rembrandtsamsterdam.com", "contact:facebook": "https://www.facebook.com/rembrandtsamsterdam", "contact:phone": "+31 20 226 9094", "name": "Rembrandts Amsterdam Experience", "tourism": "museum", "website": "https://rembrandtsamsterdam.com/"}}, {"type": "node", "id": 11188226243, "lat": 52.3843718, "lon": 4.9011894}, {"type": "node", "id": 11410483414, "lat": 52.3577731, "lon": 4.8813959}, {"type": "node", "id": 11410483415, "lat": 52.358109, "lon": 4.8816677}, {"type": "node", "id": 11410483416, "lat": 52.3579618, "lon": 4.8810368}, {"type": "node", "id": 11410483417, "lat": 52.3578275, "lon": 4.8815425}, {"type": "node", "id": 11410483418, "lat": 52.3581342, "lon": 4.8816042}, {"type": "node", "id": 11410483419, "lat": 52.3579015, "lon": 4.8810022}, {"type": "node", "id": 11410483420, "lat": 52.357795, "lon": 4.8814667}, {"type": "node", "id": 11410483421, "lat": 52.3579221, "lon": 4.8810106}, {"type": "node", "id": 11410483422, "lat": 52.3577493, "lon": 4.8812429}, {"type": "node", "id": 11410483423, "lat": 52.3580251, "lon": 4.8817257}, {"type": "node", "id": 11410483424, "lat": 52.3580606, "lon": 4.8811709}, {"type": "node", "id": 11410483425, "lat": 52.3577624, "lon": 4.8813504}, {"type": "node", "id": 11410483426, "lat": 52.3580939, "lon": 4.8816898}, {"type": "node", "id": 11410483427, "lat": 52.3580763, "lon": 4.8812035}, {"type": "node", "id": 11410483428, "lat": 52.3577742, "lon": 4.8810673}, {"type": "node", "id": 11410483429, "lat": 52.3577562, "lon": 4.8813152}, {"type": "node", "id": 11410483430, "lat": 52.3579637, "lon": 4.8817093}, {"type": "node", "id": 11410483431, "lat": 52.3581226, "lon": 4.8813381}, {"type": "node", "id": 11410483432, "lat": 52.3580273, "lon": 4.8811135}, {"type": "node", "id": 11410483433, "lat": 52.3577509, "lon": 4.8811773}, {"type": "node", "id": 11410483434, "lat": 52.3579444, "lon": 4.8816966}, {"type": "node", "id": 11410483435, "lat": 52.3580905, "lon": 4.8812377}, {"type": "node", "id": 11410483436, "lat": 52.3577609, "lon": 4.8811062}, {"type": "node", "id": 11410483437, "lat": 52.3580008, "lon": 4.8817233}, {"type": "node", "id": 11410483438, "lat": 52.3581032, "lon": 4.8812735}, {"type": "node", "id": 11410483439, "lat": 52.3578197, "lon": 4.8810087}, {"type": "node", "id": 11410483440, "lat": 52.3579828, "lon": 4.8817184}, {"type": "node", "id": 11410483441, "lat": 52.3581447, "lon": 4.8815146}, {"type": "node", "id": 11410483442, "lat": 52.3577861, "lon": 4.8810451}, {"type": "node", "id": 11410483443, "lat": 52.3578433, "lon": 4.8815727}, {"type": "node", "id": 11410483444, "lat": 52.3581434, "lon": 4.881542}, {"type": "node", "id": 11410483445, "lat": 52.3577963, "lon": 4.8810307}, {"type": "node", "id": 11410483446, "lat": 52.3579198, "lon": 4.8816758}, {"type": "node", "id": 11410483447, "lat": 52.3581426, "lon": 4.8814598}, {"type": "node", "id": 11410483448, "lat": 52.3578785, "lon": 4.8816273}, {"type": "node", "id": 11410483449, "lat": 52.3581275, "lon": 4.8816284}, {"type": "node", "id": 11410483450, "lat": 52.3577833, "lon": 4.8814319}, {"type": "node", "id": 11410483451, "lat": 52.3581054, "lon": 4.8816736}, {"type": "node", "id": 11410483452, "lat": 52.3579683, "lon": 4.8810425}, {"type": "node", "id": 11410483453, "lat": 52.3578225, "lon": 4.881532}, {"type": "node", "id": 11410483454, "lat": 52.3581392, "lon": 4.881578}, {"type": "node", "id": 11410483455, "lat": 52.3579871, "lon": 4.8810613}, {"type": "node", "id": 11410483456, "lat": 52.3578081, "lon": 4.8815001}, {"type": "node", "id": 11410483457, "lat": 52.3580634, "lon": 4.881719}, {"type": "node", "id": 11410483458, "lat": 52.3579288, "lon": 4.881014}, {"type": "node", "id": 11410483459, "lat": 52.3577491, "lon": 4.8812319}, {"type": "node", "id": 11410483460, "lat": 52.3580434, "lon": 4.8817244}, {"type": "node", "id": 11410483461, "lat": 52.3580437, "lon": 4.8811402}, {"type": "node", "id": 11410483462, "lat": 52.3577496, "lon": 4.8811991}, {"type": "node", "id": 11410483463, "lat": 52.3580898, "lon": 4.8816948}, {"type": "node", "id": 11410483464, "lat": 52.3580812, "lon": 4.8812147}, {"type": "node", "id": 11410483465, "lat": 52.3577668, "lon": 4.881086}, {"type": "node", "id": 11410483466, "lat": 52.3577546, "lon": 4.8813032}, {"type": "node", "id": 11410483467, "lat": 52.358077, "lon": 4.881708}, {"type": "node", "id": 11410483468, "lat": 52.3581253, "lon": 4.8813492}, {"type": "node", "id": 11410529069, "lat": 52.3580108, "lon": 4.8810897}, {"type": "node", "id": 11410529070, "lat": 52.3577518, "lon": 4.8811665}, {"type": "node", "id": 11410529071, "lat": 52.3579381, "lon": 4.8816919}, {"type": "node", "id": 11410529072, "lat": 52.3581323, "lon": 4.8813834}, {"type": "node", "id": 11410529073, "lat": 52.3577557, "lon": 4.8811343}, {"type": "node", "id": 11410529074, "lat": 52.358019, "lon": 4.8817256}, {"type": "node", "id": 11410529075, "lat": 52.3581068, "lon": 4.8812839}, {"type": "node", "id": 11410529076, "lat": 52.3578238, "lon": 4.8810059}, {"type": "node", "id": 11410529077, "lat": 52.3579769, "lon": 4.8817162}, {"type": "node", "id": 11410529078, "lat": 52.3581444, "lon": 4.8814872}, {"type": "node", "id": 11410529079, "lat": 52.3578367, "lon": 4.8809994}, {"type": "node", "id": 11410529080, "lat": 52.3578603, "lon": 4.881601}, {"type": "node", "id": 11410529081, "lat": 52.3581426, "lon": 4.8815511}, {"type": "node", "id": 11410529082, "lat": 52.357859, "lon": 4.8809944}, {"type": "node", "id": 11410529083, "lat": 52.3578, "lon": 4.8810264}, {"type": "node", "id": 11410529084, "lat": 52.3579139, "lon": 4.8816699}, {"type": "node", "id": 11410529085, "lat": 52.3581392, "lon": 4.88143}, {"type": "node", "id": 11410529086, "lat": 52.3578806, "lon": 4.8809967}, {"type": "node", "id": 11410529087, "lat": 52.3578967, "lon": 4.8816507}, {"type": "node", "id": 11410529088, "lat": 52.3581247, "lon": 4.8816354}, {"type": "node", "id": 11410529089, "lat": 52.3577798, "lon": 4.88142}, {"type": "node", "id": 11410529090, "lat": 52.3581157, "lon": 4.8816554}, {"type": "node", "id": 11410529091, "lat": 52.3578545, "lon": 4.8809948}, {"type": "node", "id": 11410529092, "lat": 52.3577702, "lon": 4.8813847}, {"type": "node", "id": 11410529093, "lat": 52.3581377, "lon": 4.8815868}, {"type": "node", "id": 11410529094, "lat": 52.3579932, "lon": 4.881068}, {"type": "node", "id": 11410529095, "lat": 52.3578036, "lon": 4.8814892}, {"type": "node", "id": 11410529096, "lat": 52.3581322, "lon": 4.8816128}, {"type": "node", "id": 11410529097, "lat": 52.3579084, "lon": 4.8810047}, {"type": "node", "id": 11410529098, "lat": 52.3577508, "lon": 4.8812672}, {"type": "node", "id": 11410529099, "lat": 52.3580373, "lon": 4.8817252}, {"type": "node", "id": 11410529100, "lat": 52.3580495, "lon": 4.8811503}, {"type": "node", "id": 11410529101, "lat": 52.3577502, "lon": 4.8811882}, {"type": "node", "id": 11410529102, "lat": 52.3581017, "lon": 4.8816792}, {"type": "node", "id": 11410529103, "lat": 52.358066, "lon": 4.8811816}, {"type": "node", "id": 11410529104, "lat": 52.3577692, "lon": 4.8810795}, {"type": "node", "id": 11410529105, "lat": 52.3577601, "lon": 4.8813387}, {"type": "node", "id": 11410529106, "lat": 52.3580725, "lon": 4.8817119}, {"type": "node", "id": 11410529107, "lat": 52.3581168, "lon": 4.881316}, {"type": "node", "id": 11410529108, "lat": 52.3580164, "lon": 4.8810974}, {"type": "node", "id": 11410529109, "lat": 52.357777, "lon": 4.8810614}, {"type": "node", "id": 11410529110, "lat": 52.3579572, "lon": 4.8817053}, {"type": "node", "id": 11410529111, "lat": 52.3581343, "lon": 4.8813949}, {"type": "node", "id": 11410529112, "lat": 52.3580326, "lon": 4.8811219}, {"type": "node", "id": 11410529113, "lat": 52.3577574, "lon": 4.8811237}, {"type": "node", "id": 11410529114, "lat": 52.358013, "lon": 4.8817251}, {"type": "node", "id": 11410529115, "lat": 52.3580949, "lon": 4.8812495}, {"type": "node", "id": 11410529116, "lat": 52.3578115, "lon": 4.881015}, {"type": "node", "id": 11410529117, "lat": 52.3579948, "lon": 4.881722}, {"type": "node", "id": 11410529118, "lat": 52.3581447, "lon": 4.8814963}, {"type": "node", "id": 11410529119, "lat": 52.3578412, "lon": 4.8809978}, {"type": "node", "id": 11410529120, "lat": 52.3578545, "lon": 4.8815918}, {"type": "node", "id": 11410529121, "lat": 52.3581445, "lon": 4.8815238}, {"type": "node", "id": 11410529122, "lat": 52.3577894, "lon": 4.8810401}, {"type": "node", "id": 11410529123, "lat": 52.3578379, "lon": 4.8815628}, {"type": "node", "id": 11410529124, "lat": 52.3581404, "lon": 4.8814419}, {"type": "node", "id": 11410529125, "lat": 52.3578876, "lon": 4.8809982}, {"type": "node", "id": 11410529126, "lat": 52.3578913, "lon": 4.8816437}, {"type": "node", "id": 11410529127, "lat": 52.3581434, "lon": 4.8814689}, {"type": "node", "id": 11410529128, "lat": 52.357791, "lon": 4.8814553}, {"type": "node", "id": 11410529129, "lat": 52.3581124, "lon": 4.8816616}, {"type": "node", "id": 11410529130, "lat": 52.3579553, "lon": 4.8810314}, {"type": "node", "id": 11410529131, "lat": 52.3577674, "lon": 4.8813734}, {"type": "node", "id": 11410529132, "lat": 52.3581416, "lon": 4.8815601}, {"type": "node", "id": 11410529133, "lat": 52.3579747, "lon": 4.8810485}, {"type": "node", "id": 11410529134, "lat": 52.3578176, "lon": 4.8815216}, {"type": "node", "id": 11410529135, "lat": 52.35813, "lon": 4.8816213}, {"type": "node", "id": 11410529136, "lat": 52.3579153, "lon": 4.8810075}, {"type": "node", "id": 11410529137, "lat": 52.35775, "lon": 4.881255}, {"type": "node", "id": 11410529138, "lat": 52.3580555, "lon": 4.8817221}, {"type": "node", "id": 11410529139, "lat": 52.3579355, "lon": 4.8810178}, {"type": "node", "id": 11410529140, "lat": 52.3577491, "lon": 4.881221}, {"type": "node", "id": 11410529141, "lat": 52.3580979, "lon": 4.8816846}, {"type": "node", "id": 11410529142, "lat": 52.3580712, "lon": 4.8811924}, {"type": "node", "id": 11410529143, "lat": 52.3577627, "lon": 4.8810993}, {"type": "node", "id": 11410529144, "lat": 52.3577581, "lon": 4.881327}, {"type": "node", "id": 11410529145, "lat": 52.3580857, "lon": 4.8816994}, {"type": "node", "id": 11410529146, "lat": 52.3581198, "lon": 4.881327}, {"type": "node", "id": 11410529147, "lat": 52.3579992, "lon": 4.881075}, {"type": "node", "id": 11410529148, "lat": 52.3577799, "lon": 4.8810558}, {"type": "node", "id": 11410529149, "lat": 52.3577531, "lon": 4.8812913}, {"type": "node", "id": 11410529150, "lat": 52.3579508, "lon": 4.8817011}, {"type": "node", "id": 11410529151, "lat": 52.3581278, "lon": 4.8813605}, {"type": "node", "id": 11410529152, "lat": 52.3580377, "lon": 4.8811304}, {"type": "node", "id": 11410529153, "lat": 52.3577529, "lon": 4.8811557}, {"type": "node", "id": 11410529154, "lat": 52.3579319, "lon": 4.8816868}, {"type": "node", "id": 11410529155, "lat": 52.3580991, "lon": 4.8812614}, {"type": "node", "id": 11410529156, "lat": 52.3578155, "lon": 4.8810117}, {"type": "node", "id": 11410529157, "lat": 52.3579888, "lon": 4.8817203}, {"type": "node", "id": 11410529158, "lat": 52.3581103, "lon": 4.8812945}, {"type": "node", "id": 11410529159, "lat": 52.3578281, "lon": 4.8810034}, {"type": "node", "id": 11410529160, "lat": 52.3578723, "lon": 4.8816188}, {"type": "node", "id": 11410529161, "lat": 52.358144, "lon": 4.8815329}, {"type": "node", "id": 11410529162, "lat": 52.3577928, "lon": 4.8810353}, {"type": "node", "id": 11410529163, "lat": 52.3578326, "lon": 4.8815528}, {"type": "node", "id": 11410529164, "lat": 52.3581361, "lon": 4.8814066}, {"type": "node", "id": 11410529165, "lat": 52.3578037, "lon": 4.8810223}, {"type": "node", "id": 11410529166, "lat": 52.3578666, "lon": 4.8809946}, {"type": "node", "id": 11410529167, "lat": 52.3579081, "lon": 4.8816638}, {"type": "node", "id": 11410529168, "lat": 52.358144, "lon": 4.881478}, {"type": "node", "id": 11410529169, "lat": 52.3577871, "lon": 4.8814436}, {"type": "node", "id": 11410529170, "lat": 52.3581219, "lon": 4.8816422}, {"type": "node", "id": 11410529171, "lat": 52.3578456, "lon": 4.8809965}, {"type": "node", "id": 11410529172, "lat": 52.3577764, "lon": 4.881408}, {"type": "node", "id": 11410529173, "lat": 52.3581405, "lon": 4.8815691}, {"type": "node", "id": 11410529174, "lat": 52.3579809, "lon": 4.8810548}, {"type": "node", "id": 11410529175, "lat": 52.3578127, "lon": 4.8815109}, {"type": "node", "id": 11410529176, "lat": 52.358136, "lon": 4.8815956}, {"type": "node", "id": 11410529177, "lat": 52.3578946, "lon": 4.8810001}, {"type": "node", "id": 11410529178, "lat": 52.3577992, "lon": 4.881478}, {"type": "node", "id": 11410529179, "lat": 52.3580494, "lon": 4.8817234}, {"type": "node", "id": 11410529180, "lat": 52.3579421, "lon": 4.8810218}, {"type": "node", "id": 11410529181, "lat": 52.3577492, "lon": 4.8812101}, {"type": "node", "id": 11410529182, "lat": 52.3580312, "lon": 4.8817256}, {"type": "node", "id": 11410529183, "lat": 52.3580551, "lon": 4.8811605}, {"type": "node", "id": 11410529184, "lat": 52.3577647, "lon": 4.8810926}, {"type": "node", "id": 11410529185, "lat": 52.3577648, "lon": 4.8813619}, {"type": "node", "id": 11410529186, "lat": 52.3580814, "lon": 4.8817039}, {"type": "node", "id": 11410529187, "lat": 52.358005, "lon": 4.8810822}, {"type": "node", "id": 11410529188, "lat": 52.3577716, "lon": 4.8810733}, {"type": "node", "id": 11410529189, "lat": 52.3577519, "lon": 4.8812792}, {"type": "node", "id": 11410529190, "lat": 52.3579703, "lon": 4.8817129}, {"type": "node", "id": 11410529191, "lat": 52.3581301, "lon": 4.8813719}, {"type": "node", "id": 11410529192, "lat": 52.3580219, "lon": 4.8811053}, {"type": "node", "id": 11410529193, "lat": 52.3577542, "lon": 4.8811449}, {"type": "node", "id": 11410529194, "lat": 52.3579258, "lon": 4.8816814}, {"type": "node", "id": 11410529195, "lat": 52.3580859, "lon": 4.8812261}, {"type": "node", "id": 11410529196, "lat": 52.3577592, "lon": 4.8811132}, {"type": "node", "id": 11410529197, "lat": 52.3580069, "lon": 4.8817244}, {"type": "node", "id": 11410529198, "lat": 52.3581137, "lon": 4.8813052}, {"type": "node", "id": 11410529199, "lat": 52.3578324, "lon": 4.8810013}, {"type": "node", "id": 11410529200, "lat": 52.3578663, "lon": 4.88161}, {"type": "node", "id": 11410529201, "lat": 52.3581448, "lon": 4.8815055}, {"type": "node", "id": 11410529202, "lat": 52.3577829, "lon": 4.8810503}, {"type": "node", "id": 11410529203, "lat": 52.3578488, "lon": 4.8815824}, {"type": "node", "id": 11410529204, "lat": 52.3581377, "lon": 4.8814183}, {"type": "node", "id": 11410529205, "lat": 52.3578076, "lon": 4.8810185}, {"type": "node", "id": 11410529206, "lat": 52.3579023, "lon": 4.8816573}, {"type": "node", "id": 11410529207, "lat": 52.3581416, "lon": 4.8814508}, {"type": "node", "id": 11410529208, "lat": 52.3578848, "lon": 4.8816357}, {"type": "node", "id": 11410529209, "lat": 52.3581189, "lon": 4.8816489}, {"type": "node", "id": 11410529210, "lat": 52.35785, "lon": 4.8809955}, {"type": "node", "id": 11410582863, "lat": 52.3604478, "lon": 4.8859371}, {"type": "node", "id": 11410582864, "lat": 52.3604978, "lon": 4.8858361}, {"type": "node", "id": 11410582865, "lat": 52.3601661, "lon": 4.8865047}, {"type": "node", "id": 11410582866, "lat": 52.3601805, "lon": 4.8864858}, {"type": "node", "id": 11410582867, "lat": 52.360201, "lon": 4.8864472}, {"type": "node", "id": 11410582868, "lat": 52.3601442, "lon": 4.8865235}, {"type": "node", "id": 11410652069, "lat": 52.3601005, "lon": 4.8865499}, {"type": "node", "id": 11410652070, "lat": 52.3600815, "lon": 4.8865556}, {"type": "node", "id": 11410652071, "lat": 52.3600302, "lon": 4.886548}, {"type": "node", "id": 11410652072, "lat": 52.3599709, "lon": 4.8865084}, {"type": "node", "id": 11410652073, "lat": 52.3598781, "lon": 4.8864235}, {"type": "node", "id": 11410652074, "lat": 52.3597796, "lon": 4.8863622}, {"type": "node", "id": 11410652075, "lat": 52.3597451, "lon": 4.8863462}, {"type": "node", "id": 11410652076, "lat": 52.359665, "lon": 4.8863245}, {"type": "node", "id": 11410652077, "lat": 52.3596304, "lon": 4.8863188}, {"type": "node", "id": 11410652081, "lat": 52.3604795, "lon": 4.8843098}, {"type": "node", "id": 11410652082, "lat": 52.3605164, "lon": 4.8844286}, {"type": "node", "id": 11410652083, "lat": 52.3605325, "lon": 4.8844786}, {"type": "node", "id": 11410652084, "lat": 52.3607471, "lon": 4.8849375}, {"type": "node", "id": 11410652085, "lat": 52.3607747, "lon": 4.8849908}, {"type": "node", "id": 11410652086, "lat": 52.3607926, "lon": 4.8850422}, {"type": "node", "id": 11410652087, "lat": 52.3607986, "lon": 4.8850672}, {"type": "node", "id": 11410652088, "lat": 52.3608038, "lon": 4.8850988}, {"type": "node", "id": 11410652089, "lat": 52.3607937, "lon": 4.8852723}, {"type": "node", "id": 11410652090, "lat": 52.3608052, "lon": 4.8852044}, {"type": "node", "id": 11410652091, "lat": 52.3608006, "lon": 4.8852412}, {"type": "node", "id": 11980737884, "lat": 52.384333, "lon": 4.900308}, {"type": "node", "id": 11980737885, "lat": 52.38417, "lon": 4.900534}, {"type": "node", "id": 11980737886, "lat": 52.3841434, "lon": 4.9007715}, {"type": "node", "id": 11992037625, "lat": 52.3843591, "lon": 4.901404}, {"type": "node", "id": 11992037626, "lat": 52.3840807, "lon": 4.9015994}, {"type": "node", "id": 11992037627, "lat": 52.3843769, "lon": 4.9013469}, {"type": "node", "id": 11992037628, "lat": 52.3840891, "lon": 4.9015428}, {"type": "node", "id": 11992037629, "lat": 52.3842498, "lon": 4.9017411}, {"type": "node", "id": 12214993152, "lat": 52.3598672, "lon": 4.8864162}, {"type": "node", "id": 12244019936, "lat": 52.3843716, "lon": 4.9002925}, {"type": "node", "id": 12244019937, "lat": 52.3840862, "lon": 4.9012925}, {"type": "node", "id": 12244019938, "lat": 52.3840883, "lon": 4.9012763}, {"type": "node", "id": 12287511348, "lat": 52.3143268, "lon": 4.9538835, "tags": {"name": "The black archives", "tourism": "museum"}}, {"type": "way", "id": 29989787, "nodes": [4396030065, 4396030066, 4396030069, 10198298339, 330144648, 330723850, 3930519203, 330144649, 3930539994, 330144546, 11410652081, 11410652082, 11410652083, 3930519208, 3930519204, 3930519202, 3930519201, 11410652084, 330144547, 11410652085, 330144548, 11410652086, 11410652087, 11410652088, 4395476118, 3930519205, 11410652090, 11410652091, 11410652089, 3930519217, 3930519210, 11410582864, 11410582863, 806541635, 330144549, 11410582867, 11410582866, 11410582865, 11410582868, 4395476134, 11410652069, 11410652070, 3931144308, 11410652071, 3931472391, 11410652072, 806535141, 11410652073, 12214993152, 806545991, 11410652074, 11410652075, 330144640, 11410652076, 11410652077, 4395476154, 330144642, 330144643, 3931144274, 3701475270, 330144644, 3931144281, 330144645, 4396030085, 4396030088, 4396030065], "tags": {"area": "yes", "check_date:opening_hours": "2021-08-08", "fee": "yes", "heritage": "2", "heritage:operator": "rce", "int_name": "Rijksmuseum Amsterdam", "museum": "art;history", "museum_type": "national", "name": "Rijksmuseum", "name:de": "Reichsmuseum", "name:ko": "\uad6d\ub9bd\ubbf8\uc220\uad00", "name:nl": "Rijksmuseum", "name:uk": "\u0420\u0435\u0439\u043a\u0441\u043c\u0443\u0437\u0435\u0439", "opening_hours": "Mo-Su 09:00-17:00", "payment:museumkaart": "yes", "start_date": "1885-07-13", "toilets:wheelchair": "yes", "tourism": "museum", "website": "https://www.rijksmuseum.nl/", "wheelchair": "yes", "wikidata": "Q190804", "wikimedia_commons": "Category:Rijksmuseum Amsterdam", "wikipedia": "nl:Rijksmuseum Amsterdam"}}, {"type": "way", "id": 44508814, "nodes": [565498117, 565498106, 7047148744, 7047148742, 7047148743, 7047148740, 7047148739, 7047148741, 565498100, 565498102, 565498101, 565498099, 565498095, 565498112, 565498113, 565498107, 565498114, 565498108, 565498033, 565498038, 565498049, 565498056, 565498051, 565498117], "tags": {"note": "Tags are on the multipolygon relation of the museum, please edit there!", "ref:bag": "0363100012098679", "source": "BAG", "source:date": "2014-03-24"}}, {"type": "way", "id": 44508819, "nodes": [875597336, 875605193, 4051951353, 565497961, 565497929, 2816506924, 2816506923, 2816506942, 2816506943, 565497937, 565497931, 565497934, 565497933, 2816507105, 2816507104, 2816507106, 2816507111, 2816507112, 565497938, 2816507121, 2816507123, 2816507126, 2816507125, 565497940, 565497939, 565498084, 565498083, 2816507140, 2816507141, 2816507143, 2816507142, 565498082, 565498085, 565498092, 565498087, 2816507148, 2816507149, 2816507151, 2816507150, 565498093, 2816507146, 2816507147, 2816507145, 2816507144, 565498094, 565498090, 565498086, 565498088, 2816507137, 2816507139, 2816507135, 2816507134, 875597336], "tags": {"addr:city": "Amsterdam", "addr:housenumber": "10", "addr:postcode": "1071DJ", "addr:street": "Museumplein", "building": "yes", "check_date": "2024-10-23", "designation": "picture gallery of modern art", "email": "info@stedelijk.nl", "fax": "+31 20 675 2716", "fee": "yes", "int_name": "Stedelijk Museum Amsterdam", "name": "Stedelijk Museum Amsterdam", "name:de": "Stedelijk Museum", "name:en": "Stedelijk Museum Amsterdam", "name:es": "Museo Stedelijk", "name:ko": "\uc554\uc2a4\ud14c\ub974\ub2f4 \uc2dc\ub9bd \ubbf8\uc220\uad00", "name:nl": "Stedelijk Museum", "name:uk": "\u041c\u0443\u0437\u0435\u0439 \u0421\u0442\u0435\u0434\u0435\u043b\u0435\u043a", "name:zh": "\u963f\u59c6\u65af\u7279\u4e39\u5e02\u7acb\u535a\u7269\u9928", "opening_hours": "Mo-Su 10:00-18:00", "payment:museumkaart": "yes", "phone": "+31 20 573 2911", "ref:bag": "363100012077791", "start_date": "1874", "toilets:wheelchair": "yes", "tourism": "museum", "website": "https://www.stedelijk.nl/", "wheelchair": "yes", "wikidata": "Q42175133", "wikipedia": "nl:Stedelijk Museum Amsterdam"}}, {"type": "way", "id": 44827440, "nodes": [568319898, 568319894, 568319832, 568319836, 568319898], "tags": {"addr:housenumber": "28", "addr:street": "Zamenhofstraat", "building": "industrial", "fee": "yes", "name": "Museum Noord", "opening_hours": "Th-Su 13:00-17:00; Mo-We off", "ref:bag": "363100012158267", "source": "BAG", "source:date": "2014-05-07", "start_date": "1918", "tourism": "museum", "wikidata": "Q2787871", "wikipedia": "nl:Museum Amsterdam-Noord"}}, {"type": "way", "id": 57857592, "nodes": [2724288347, 2724288351, 2724288352, 2724288364, 2724288367, 2724288369, 2724288368, 2724288379, 2724288384, 2724288385, 2724288380, 2724288371, 2724288372, 7006553791, 7006553790, 2724288381, 2724288390, 2724288391, 2724288382, 717787986, 717736802, 717807067, 717767858, 717756699, 6997002289, 2724288265, 2724288250, 2724288217, 2724288214, 2724288181, 2724288122, 2724288116, 2724288032, 2724288029, 2724287949, 717744114, 717775959, 1301238553, 1301238552, 717815170, 717749636, 7006512879, 7006512880, 2724287869, 2724287866, 2724287895, 717799191, 717775873, 2724287890, 2724287885, 717816966, 2724287891, 1301238554, 717766278, 717785431, 2724287936, 2724287929, 2724288015, 6997001568, 2724288009, 2724288007, 2724288019, 2724288031, 2724288042, 6997001571, 2724288044, 2724288137, 2724288126, 717834134, 1301238548, 717822844, 717815411, 1301238556, 1301238551, 1301238555, 2724288200, 1301238546, 1301238563, 2724288210, 2724288212, 2724288280, 2724288306, 2724288317, 2724288319, 7006553797, 7006512881, 2724288347], "tags": {"addr:city": "Amsterdam", "addr:housenumber": "23", "addr:postcode": "1012GX", "addr:street": "Oudekerksplein", "building": "church", "denomination": "protestant", "fee": "yes", "heritage": "2", "heritage:operator": "rce", "name": "Oude Kerk", "name:de": "Alte Kirche", "name:en": "Old Church", "name:es": "Oudekerk", "name:ml": "\u0d2a\u0d34\u0d2f \u0d26\u0d48\u0d35\u0d3e\u0d32\u0d2f\u0d02", "name:nl": "Oude Kerk", "name:ru": "\u0410\u0443\u0434\u0435-\u043a\u0435\u0440\u043a (\u0421\u0442\u0430\u0440\u0430\u044f \u0446\u0435\u0440\u043a\u043e\u0432\u044c), \u0434\u0435\u0440\u0435\u0432\u044f\u043d\u043d\u0430\u044f \u0447\u0430\u0441\u043e\u0432\u043d\u044f 1213\u0433.", "name:uk": "\u0410\u0443\u0434\u0435\u043a\u0435\u0440\u043a", "name:zh": "\u8001\u6559\u5802", "opening_hours": "Mo-Sa 10:00-18:00; Su 13:00-17:30", "ref:bag": "363100012178469", "ref:rce": "3990", "religion": "christian", "source": "BAG", "source:date": "2014-02-11", "start_date": "1300", "tourism": "museum", "website": "https://www.oudekerk.nl/", "wheelchair": "yes", "wikidata": "Q623558", "wikimedia_commons": "Category:Oude Kerk (Amsterdam)", "wikipedia": "nl:Oude Kerk (Amsterdam)"}}, {"type": "way", "id": 57857987, "nodes": [2741084491, 2741084488, 2741084487, 2741084473, 2741084474, 2741084470, 2741084472, 2741084469, 2741084471, 2741084466, 2741084465, 2741084460, 2741084461, 2741084455, 2741084453, 2741084450, 2741084449, 2741084448, 2741084447, 2741084436, 2741084437, 2741084435, 2741084433, 2741084432, 2741084428, 717810408, 2741084427, 2741084425, 2741084419, 2741084416, 2741084410, 2741084413, 2741084394, 2741084396, 2741084390, 2741084389, 2741084384, 2741084386, 717795916, 717738472, 717808182, 2741084424, 2741084422, 2741084420, 2741084417, 717825015, 2741084414, 2741084411, 2741084407, 717825153, 2741084402, 2741084400, 2741084399, 2741084397, 717820031, 2741084403, 2741084405, 2741084408, 717743630, 717771786, 717741884, 717780349, 717760682, 2741084468, 2741084502, 717770965, 2741084557, 2741084561, 2741084572, 2741084599, 2741084604, 2741084615, 2741084611, 2741084627, 2741084631, 2741084636, 2741084635, 2741084644, 2741084645, 2741084649, 2741084648, 2741084652, 2741084654, 717816597, 2741084653, 2741084591, 2741084621, 2741084626, 2741084609, 2741084601, 2741084571, 2741084575, 2741084569, 2741084566, 2741084535, 2741084536, 2741084534, 2741084531, 2741084519, 2741084522, 2741084523, 2741084521, 2741084520, 2741084518, 2741084517, 2741084516, 2741084513, 2741084511, 2741084507, 2741084506, 2741084492, 2741084493, 2741084490, 2741084491], "tags": {"addr:city": "Amsterdam", "addr:housenumber": "1", "addr:postcode": "1011PL", "addr:street": "Nieuwe Amstelstraat", "building": "yes", "fee": "yes", "name": "Joods Museum", "name:de": "J\u00fcdisches Museum", "name:en": "Jewish Museum", "name:nl": "Joods Museum", "name:ru": "\u0415\u0432\u0440\u0435\u0439\u0441\u043a\u0438\u0439 \u0438\u0441\u0442\u043e\u0440\u0438\u0447\u0435\u0441\u043a\u0438\u0439 \u043c\u0443\u0437\u0435\u0439", "name:uk": "\u0404\u0432\u0440\u0435\u0439\u0441\u044c\u043a\u0438\u0439 \u0456\u0441\u0442\u043e\u0440\u0438\u0447\u043d\u0438\u0439 \u043c\u0443\u0437\u0435\u0439", "opening_hours": "Mo-Su 11:00-17:00", "ref:bag": "363100012182037", "source": "BAG", "source:date": "2014-03-24", "start_date": "1005", "tourism": "museum", "website": "https://www.jhm.nl", "wheelchair": "yes", "wikidata": "Q702726", "wikimedia_commons": "Category:Joods Historisch Museum", "wikipedia": "nl:Joods Historisch Museum"}}, {"type": "way", "id": 57859504, "nodes": [717820678, 2853527945, 2853527946, 2853527938, 2853527934, 2853527933, 717825997, 2853527931, 2853527932, 2853527937, 2853527936, 8867602724, 2853527939, 2853527940, 2853527944, 2853527943, 717742319, 2853527948, 2853527947, 2853527951, 2853527955, 2853527959, 2853527960, 717808832, 2853527962, 2853527961, 2853527957, 2853527958, 2853527953, 2853527952, 2853527949, 2853527950, 717820678], "tags": {"building": "yes", "heritage": "2", "heritage:operator": "rce", "historic": "yes", "name": "Gemeenlandshuis", "note": "Limited opening hours, plan your visit.", "opening_hours": "Su[1] 12:00-16:00", "operator": "Vereniging Hendrick de Keyser", "ref:bag": "363100012155481", "ref:rce": "878", "source": "BAG, Bing, Wikipedia", "source:date": "2014-05-07", "start_date": "1948", "tourism": "museum", "website": "https://www.museumhuizen.nl/nl/gemeenlandshuis-amsterdam", "wikidata": "Q4328492", "wikimedia_commons": "Category:Gemeenlandshuis (Diemen)", "wikipedia": "nl:Gemeenlandshuis van Diemen"}}, {"type": "way", "id": 112951656, "nodes": [1282548621, 1282548619, 1282548623, 1282548620, 1282548622, 876373316, 876374774, 876435277, 876376007, 876389072, 876370528, 876421054, 1282548621], "tags": {"area": "yes", "fee": "no", "historic": "ship", "name": "Museumhaven", "note": "historic ships", "opening_hours": "24/7", "tourism": "museum", "website": "https://www.museumhavenamsterdam.nl/", "wheelchair": "limited"}}, {"type": "way", "id": 127505497, "nodes": [4914550866, 4431447992, 4431447991, 11992037626, 11992037628, 2847160829, 2847160822, 4431447990, 4431447989, 2847160811, 12244019937, 2847155569, 4431447993, 4431447994, 11980737886, 1576983470, 1874737580, 1411122983, 1411122981, 1411122982, 11182027560, 11184405026, 1411122985, 11992037627, 11992037625, 11992037629, 11168034496, 4914550866], "tags": {"addr:city": "Amsterdam", "addr:housenumber": "1", "addr:postcode": "1031KT", "addr:street": "IJpromenade", "amenity": "cinema", "building": "yes", "building:colour": "#bbbcb6", "changing_table": "yes", "layer": "2", "level": "1", "name": "EYE Filminstituut", "name:es": "Museo del Cine - EYE", "name:nl": "EYE Filminstituut", "old_name": "Filmmuseum", "payment:american_express": "yes", "payment:cash": "no", "payment:maestro": "yes", "payment:mastercard": "yes", "payment:visa": "yes", "ref:bag": "363100012237838", "source": "BAG", "source:date": "2016-10-04", "start_date": "2011", "toilets": "yes", "toilets:wheelchair": "yes", "tourism": "museum", "website": "https://www.eyefilm.nl/", "wheelchair": "yes", "wheelchair:description": "https://www.youtube.com/watch?v=zCkIx84VBC4", "wikidata": "Q1538389", "wikimedia_commons": "Category:EYE Film Institute Netherlands", "wikipedia": "nl:Eye Filmmuseum"}}, {"type": "way", "id": 174193863, "nodes": [2721473682, 717750082, 2721473628, 2721473667, 1849096600, 1849096601, 1849096602, 1849096599, 2721473697, 2721473682], "tags": {"addr:housenumber": "172", "addr:street": "Herengracht", "alt_name": "Bartolottihuis", "building": "yes", "name": "Huis Bartolotti", "opening_hours": "Th-Sa 10:00-16:00; Su 12:00-16:00", "operator": "Vereniging Hendrick de Keyser", "ref:bag": "363100012176355", "source": "BAG", "source:date": "2014-02-11", "start_date": "1622", "tourism": "museum", "website": "https://www.museumhuizen.nl/nl/huis-bartolotti", "wikidata": "Q2205055", "wikimedia_commons": "Category:Huis Bartolotti", "wikipedia": "nl:Huis Bartolotti"}}, {"type": "way", "id": 199199043, "nodes": [571169689, 571169684, 9656239459, 571169695, 571169676, 571169677, 2743293849, 2743293911, 2743293914, 2743293921, 2743293885, 2743293907, 2743293903, 2743293891, 571169666, 571169682, 4586173931, 571169689], "tags": {"addr:city": "Amsterdam", "addr:housenumber": "147", "addr:postcode": "1018BJ", "addr:street": "Hoogte Kadijk", "building": "yes", "fee": "yes", "name": "Werf 't Kromhout", "opening_hours": "Tu 10:00-15:00 || \"on appointment\"", "ref:bag": "0363100012180688", "source": "BAG", "source:date": "2014-03-24", "start_date": "1843", "tourism": "museum"}}, {"type": "way", "id": 277950873, "nodes": [2823885384, 2823885345, 2823885341, 2823885382, 2823885384], "tags": {"building": "yes", "name": "Museum Perron Oost", "ref:bag": "363100012221103", "source": "BAG", "source:date": "2014-03-24", "start_date": "1992", "tourism": "museum", "website": "https://www.museumperronoost.nl/", "wheelchair": "yes"}}, {"type": "way", "id": 441830027, "nodes": [11410529082, 11410529166, 2816506979, 11410529086, 11410529125, 11410529177, 11410483419, 11410529097, 11410529136, 11410483421, 11410483458, 11410529139, 11410529180, 4395269183, 11410529130, 11410483416, 11410483452, 11410529133, 11410529174, 11410483455, 11410529094, 11410529147, 11410529187, 11410529069, 11410529108, 11410529192, 11410483432, 11410529112, 11410529152, 11410483461, 11410529100, 11410529183, 11410483424, 11410529103, 11410529142, 11410483427, 11410483464, 11410529195, 11410483435, 11410529115, 11410529155, 11410483438, 11410529075, 11410529158, 11410529198, 11410529107, 11410529146, 11410483431, 11410483468, 11410529151, 11410529191, 11410529072, 11410529111, 11410529164, 11410529204, 11410529085, 11410529124, 11410529207, 11410483447, 11410529127, 11410529168, 11410529078, 11410529118, 11410529201, 11410483441, 11410529121, 11410529161, 11410483444, 11410529081, 11410529132, 11410529173, 11410483454, 11410529093, 11410529176, 11410483418, 11410529096, 11410529135, 11410483449, 11410529088, 11410529170, 11410529209, 11410529090, 11410529129, 11410483415, 11410483451, 11410529102, 11410529141, 11410483426, 11410483463, 11410529145, 11410529186, 11410483467, 11410529106, 875593535, 11410483457, 11410529138, 11410529179, 11410483460, 11410529099, 11410529182, 11410483423, 11410529074, 11410529114, 11410529197, 11410483437, 11410529117, 11410529157, 11410483440, 11410529077, 11410529190, 11410483430, 11410529110, 11410529150, 11410483434, 11410529071, 11410529154, 11410529194, 11410483446, 11410529084, 11410529167, 11410529206, 11410529087, 11410529126, 11410529208, 11410483448, 11410529160, 11410529200, 11410529080, 11410529120, 11410529203, 11410483443, 11410529123, 11410529163, 11410483417, 11410483453, 11410529134, 11410529175, 11410483456, 11410529095, 11410529178, 11410483420, 11410529128, 11410529169, 11410483450, 11410529089, 11410529172, 11410483414, 11410529092, 11410529131, 11410529185, 11410483425, 11410529105, 11410529144, 11410483429, 11410483466, 11410529149, 11410529189, 11410529098, 11410529137, 11410483422, 11410483459, 11410529140, 11410529181, 11410483462, 11410529101, 11410483433, 11410529070, 11410529153, 11410529193, 11410529073, 11410529113, 11410529196, 11410483436, 11410529143, 11410529184, 11410483465, 11410529104, 11410529188, 11410483428, 11410529109, 11410529148, 11410529202, 11410483442, 11410529122, 11410529162, 11410483445, 11410529083, 11410529165, 11410529205, 11410529116, 11410529156, 11410483439, 11410529076, 11410529159, 11410529199, 11410529079, 11410529119, 11410529171, 11410529210, 11410529091, 11410529082], "tags": {"building": "yes", "note": "Tags are on the multipolygon relation of the museum, please edit there!", "ref:bag": "0363100012211564", "source": "BAG", "source:date": "2023-12-11", "start_date": "1973", "wikidata": "Q42297000"}}, {"type": "way", "id": 456607614, "nodes": [4528639601, 4528639602, 4528639599, 4528638565, 4528639604, 4528639600, 4528639605, 4528639596, 4528639601], "tags": {"description": "polder pumping station, steam operated, preserved", "fee": "yes", "name": "Stoomgemaal Halfweg", "tourism": "museum", "website": "https://www.stoomgemaalhalfweg.nl", "wikipedia": "nl:Stoomgemaal Halfweg"}}, {"type": "way", "id": 601081859, "nodes": [2721474580, 2721474574, 2721474589, 2721474594, 2721474621, 2721474613, 2721474598, 2721474583, 356669765, 5713686919, 5773624054, 2721474485, 2721474529, 356669764, 356669762, 2721474569, 2721474580], "tags": {"addr:city": "Amsterdam", "addr:country": "NL", "addr:housenumber": "267", "addr:postcode": "1016GV", "addr:street": "Prinsengracht", "description:en": "Entry only with pre-booked online tickets", "fax": "+31 20 620 7999", "fee": "yes", "name": "Anne Frank Huis", "name:ca": "Casa d'Anne Frank", "name:cs": "D\u016fm Anny Frankov\u00e9", "name:cy": "T\u0177 Anne Frank", "name:da": "Anne Franks hus", "name:de": "Anne-Frank-Haus", "name:el": "\u039c\u03bf\u03c5\u03c3\u03b5\u03af\u03bf \u0386\u03bd\u03bd\u03b1\u03c2 \u03a6\u03c1\u03b1\u03bd\u03ba", "name:en": "Anne Frank House", "name:es": "Casa Anna Frank", "name:eu": "Anne Franken etxea", "name:fi": "Anne Frankin talo", "name:fr": "Maison Anne Frank", "name:he": "\u05d1\u05d9\u05ea \u05d0\u05e0\u05d4 \u05e4\u05e8\u05e0\u05e7", "name:is": "H\u00fas \u00d6nnu Frank", "name:it": "Casa di Anna Frank", "name:ja": "\u30a2\u30f3\u30cd\u30fb\u30d5\u30e9\u30f3\u30af\u306e\u5bb6", "name:ko": "\uc548\ub124 \ud504\ub791\ud06c\uc758 \uc9d1", "name:nl": "Anne Frank Huis", "name:no": "Anne Frank-huset", "name:pl": "Dom Anny Frank", "name:pt": "Casa de Anne Frank", "name:ru": "\u0414\u043e\u043c \u0410\u043d\u043d\u044b \u0424\u0440\u0430\u043d\u043a", "name:sv": "Anne Frank-huset", "name:uk": "\u0411\u0443\u0434\u0438\u043d\u043e\u043a \u0410\u043d\u043d\u0438 \u0424\u0440\u0430\u043d\u043a", "name:zh": "\u5b89\u59ae\u00b7\u5f17\u5170\u514b\u4e4b\u5bb6", "opening_hours": "Nov 01-Mar 31 Mo-Fr,Su 09:00-19:00 \"Online tickets only\"; Nov 01-Mar 31 Sa 09:00-21:00 \"Online tickets only\"; Apr 01-Oct 31 Mo-Su 09:00-22:00 \"Online tickets only\"", "phone": "+31 20 556 7100", "surveillance": "indoor;outdoor", "tourism": "museum", "website": "https://www.annefrank.org/", "wheelchair": "no", "wikidata": "Q165366", "wikimedia_commons": "Category:Wing Anne Frank House", "wikipedia": "nl:Anne Frank Huis"}}, {"type": "way", "id": 601100273, "nodes": [2724289211, 2724289220, 34050788, 5713836299, 2724289180, 2724289134, 2724289208, 2724289166, 2724289190, 2724289191, 2724289213, 2724289306, 5713836300, 2724289230, 5713836298, 5713836297, 2724289303, 2724289389, 2724289373, 2724289360, 2724289354, 2724289336, 2724289272, 2724289270, 4036881965, 2724289211], "tags": {"addr:city": "Amsterdam", "addr:country": "NL", "addr:housenumber": "38", "addr:postcode": "1012GD", "addr:province": "Noord-Holland", "addr:street": "Oudezijds Voorburgwal", "email": "info@opsolder.nl", "fee": "yes", "name": "Ons' Lieve Heer op Solder", "name:en": "Our Lord in the Attic Museum", "name:fr": "Notre Seigneur du Grenier", "name:ru": "\u041d\u0430\u0448 \u0433\u043e\u0441\u043f\u043e\u0434\u044c \u043d\u0430 \u0447\u0435\u0440\u0434\u0430\u043a\u0435", "name:zh": "\u95a3\u6a13\u4e0a\u7684\u79d8\u5bc6\u6559\u5802", "opening_hours": "Mo-Sa 10:00-17:00; Su 13:00-17:00", "phone": "+31 20 624 6604", "surveillance": "indoor", "toilets": "yes", "toilets:wheelchair": "yes", "tourism": "museum", "website": "https://www.opsolder.nl/", "wheelchair": "no", "wikidata": "Q493160", "wikimedia_commons": "Category:Museum Ons' Lieve Heer op Solder", "wikipedia": "nl:Museum Ons' Lieve Heer op Solder"}}, {"type": "way", "id": 1206726812, "nodes": [4431447993, 4431447994, 11980737886, 1576983470, 11980737885, 11980737884, 11182027559, 12244019936, 11182000230, 11184405175, 11182000231, 11182027558, 11184405028, 11184405029, 11182027557, 11182027556, 11182027555, 11182027554, 11182027553, 11182027552, 11182027551, 11182027550, 11188226243, 11182027549, 11182027548, 11182027547, 11182027546, 11182027545, 11184405003, 11182027544, 11184405001, 11184404999, 3664785682, 11184405000, 2847155569, 4431447993], "tags": {"addr:city": "Amsterdam", "addr:housenumber": "1", "addr:postcode": "1031KT", "addr:street": "IJpromenade", "amenity": "cinema", "building": "yes", "building:colour": "#bbbcb6", "changing_table": "yes", "level": "0", "name": "EYE Filminstituut", "name:es": "Museo del Cine - EYE", "name:nl": "EYE Filminstituut", "old_name": "Filmmuseum", "payment:american_express": "yes", "payment:cash": "no", "payment:maestro": "yes", "payment:mastercard": "yes", "payment:visa": "yes", "ref:bag": "363100012237838", "source": "BAG", "source:date": "2016-10-04", "start_date": "2011", "toilets": "yes", "toilets:wheelchair": "yes", "tourism": "museum", "website": "https://www.eyefilm.nl/", "wheelchair": "yes", "wheelchair:description": "https://www.youtube.com/watch?v=zCkIx84VBC4", "wikidata": "Q1538389", "wikimedia_commons": "Category:EYE Film Institute Netherlands", "wikipedia": "nl:Eye Filmmuseum"}}, {"type": "way", "id": 1207014127, "nodes": [11184405001, 11184405002, 11182027543, 11182027542, 11182027541, 3664785683, 11182027540, 11182027539, 11182027538, 12244019938, 4431447993, 2847155569, 11184405000, 3664785682, 11184404999, 11184405001], "tags": {"addr:city": "Amsterdam", "addr:housenumber": "1", "addr:postcode": "1031KT", "addr:street": "IJpromenade", "amenity": "cinema", "building": "yes", "building:colour": "#bbbcb6", "changing_table": "yes", "fee": "yes", "level": "0", "name": "EYE Filminstituut", "name:es": "Museo del Cine - EYE", "name:nl": "EYE Filminstituut", "old_name": "Filmmuseum", "payment:american_express": "yes", "payment:cash": "no", "payment:maestro": "yes", "payment:mastercard": "yes", "payment:visa": "yes", "ref:bag": "363100012237838", "source": "BAG", "source:date": "2016-10-04", "start_date": "2011", "toilets": "yes", "toilets:wheelchair": "yes", "tourism": "museum", "website": "https://www.eyefilm.nl/", "wheelchair": "yes", "wheelchair:description": "https://www.youtube.com/watch?v=zCkIx84VBC4", "wikidata": "Q1538389", "wikimedia_commons": "Category:EYE Film Institute Netherlands", "wikipedia": "nl:Eye Filmmuseum"}}, {"type": "way", "id": 1287492683, "nodes": [3315030353, 876397259, 876429838, 5793987239, 5793987238, 5793987234, 5793987237, 5793987236, 5793987235, 5793987241, 876437013, 876440800, 717827857, 717811631, 717766804, 717731062, 717835036, 8139553977, 717824708, 717835948, 717785148, 717817371, 717794298, 330036899, 717767063, 717803973, 717828080, 717820242, 717744320, 717808286, 717809945, 717828870, 717833546, 717750203, 876399480, 876426031, 3315030357, 3315030355, 3315030354, 3315030353], "tags": {"addr:city": "Amsterdam", "addr:country": "NL", "addr:housenumber": "1", "addr:postcode": "1018KK", "addr:street": "Kattenburgerplein", "email": "info@hetscheepvaartmuseum.nl", "fax": "+31 20 523 2213", "fee": "yes", "name": "Het Scheepvaartmuseum", "name:de": "Das Schifffahrtmuseum", "name:en": "The National Maritime Museum", "name:es": "Museo Mar\u00edtimo", "name:nl": "Het Scheepvaartmuseum", "name:uk": "\u041c\u0443\u0437\u0435\u0439 \u0441\u0443\u0434\u043d\u043e\u043f\u043b\u0430\u0432\u0441\u0442\u0432\u0430", "old_name": "'s Land Zeemagazijn", "opening_hours": "Tu-Su 10:00-17:00; SH Mo-Su 10:00-17:00; Jan 01,Apr 27,Dec 25 off", "phone": "+31 20 523 2222", "ref:bag": "363100012170236", "source": "BAG", "tourism": "museum", "website": "https://www.hetscheepvaartmuseum.nl/", "wheelchair": "limited", "wikidata": "Q1616123", "wikimedia_commons": "Category:Nederlands Scheepvaartmuseum", "wikipedia": "nl:Het Scheepvaartmuseum"}}, {"type": "relation", "id": 6577680, "members": [{"type": "way", "ref": 441830027, "role": "outer"}, {"type": "way", "ref": 44508814, "role": "outer"}], "tags": {"addr:city": "Amsterdam", "addr:country": "NL", "addr:housenumber": "7", "addr:postcode": "1071CX", "addr:street": "Paulus Potterstraat", "building": "yes", "description": "picture gallery", "email": "info@vangoghmuseum.nl", "fax": "+31 20 570 5222", "fee": "yes", "int_name": "Van Gogh Museum", "name": "Van Gogh Museum", "name:de": "Van-Gogh-Museum", "name:en": "Van Gogh Museum", "name:ko": "\ubc18 \uace0\ud750 \ubbf8\uc220\uad00", "name:lb": "Van Gogh Mus\u00e9", "name:nl": "Van Gogh Museum", "name:ru": "\u041c\u0443\u0437\u0435\u0439 \u0412\u0430\u043d \u0413\u043e\u0433\u0430", "name:uk": "\u041c\u0443\u0437\u0435\u0439 \u0432\u0430\u043d \u0413\u043e\u0433\u0430", "name:zh": "\u68b5\u8c37\u535a\u7269\u9928", "old_name": "Rijksmuseum Vincent van Gogh", "opening_hours": "Sa-Th 09:00-18:00; Fr 09:00-22:00", "phone": "+31 20 570 5200", "tourism": "museum", "type": "multipolygon", "website": "https://www.vangoghmuseum.nl/", "wheelchair": "yes", "wikidata": "Q224124", "wikimedia_commons": "Category:Van Gogh Museum", "wikipedia": "nl:Van Gogh Museum"}}]}