{"version": 0.6, "generator": "Overpass API 0.7.62.4 2390de5a", "osm3s": {"timestamp_osm_base": "2025-01-20T23:12:19Z", "copyright": "The data included in this document is from www.openstreetmap.org. The data is made available under ODbL."}, "elements": [{"type": "node", "id": 59846054, "lat": 41.3877215, "lon": 2.112154}, {"type": "node", "id": 59846057, "lat": 41.3880512, "lon": 2.1125903}, {"type": "node", "id": 192086704, "lat": 41.3810089, "lon": 2.1695118, "tags": {"amenity": "library", "check_date": "2023-04-27", "name": "Biblioteca de Catalunya", "name:ca": "Biblioteca de Catalunya", "opening_hours": "Mo-Fr 09:00-20:00+; Sa 09:00-14:00+; PH,Su off", "wikidata": "Q1200925", "wikipedia": "ca:Biblioteca de Catalunya"}}, {"type": "node", "id": 423541265, "lat": 41.3789783, "lon": 2.1487308}, {"type": "node", "id": 437528364, "lat": 41.3842187, "lon": 2.1772079}, {"type": "node", "id": 553098850, "lat": 41.3768651, "lon": 2.1342493}, {"type": "node", "id": 553098853, "lat": 41.3766918, "lon": 2.1342905}, {"type": "node", "id": 553098854, "lat": 41.3767595, "lon": 2.1345807}, {"type": "node", "id": 553098855, "lat": 41.3769268, "lon": 2.1345217}, {"type": "node", "id": 605504120, "lat": 41.3812356, "lon": 2.1694612, "tags": {"access": "yes", "addr:housenumber": "47", "addr:street": "Carrer del Carme", "amenity": "library", "name": "Biblioteca Sant Pau i Santa Creu", "opening_hours": "Mo,We,Fr 15:00-20:00+; Tu,Th 09:30-13:30,15:00-20:00+; Sa 10:00-14:00+; PH,Su off", "operator": "Diputaci\u00f3 de Barcelona"}}, {"type": "node", "id": 672948135, "lat": 41.4045469, "lon": 2.1908792, "tags": {"addr:housenumber": "240 4t", "addr:postcode": "08018", "addr:street": "Avinguda Diagonal", "amenity": "library", "contact:email": "bibliotecaurbanisme@bcn.cat", "name": "Ger\u00e8ncia del Sector d'Urbanisme i Infraestructures - Biblioteca d'Urbanisme", "phone": "+34 932914578"}}, {"type": "node", "id": 794340184, "lat": 41.4042192, "lon": 2.1941673}, {"type": "node", "id": 794340192, "lat": 41.4043713, "lon": 2.1943675}, {"type": "node", "id": 794340197, "lat": 41.404182, "lon": 2.1946214}, {"type": "node", "id": 794340199, "lat": 41.4040298, "lon": 2.1944211}, {"type": "node", "id": 847723430, "lat": 41.4143723, "lon": 2.1656507}, {"type": "node", "id": 907524792, "lat": 41.4073582, "lon": 2.1495948}, {"type": "node", "id": 907524798, "lat": 41.407796, "lon": 2.1491806}, {"type": "node", "id": 907524799, "lat": 41.4076108, "lon": 2.1490007}, {"type": "node", "id": 907524802, "lat": 41.4071533, "lon": 2.1492965}, {"type": "node", "id": 964260385, "lat": 41.3666855, "lon": 2.1148514}, {"type": "node", "id": 964260404, "lat": 41.3667069, "lon": 2.1154827}, {"type": "node", "id": 964260408, "lat": 41.3666618, "lon": 2.1155266}, {"type": "node", "id": 964260410, "lat": 41.3665996, "lon": 2.1154135}, {"type": "node", "id": 964260414, "lat": 41.3666269, "lon": 2.115386}, {"type": "node", "id": 964260420, "lat": 41.3665519, "lon": 2.1152589}, {"type": "node", "id": 964260423, "lat": 41.3665725, "lon": 2.1152388}, {"type": "node", "id": 964260427, "lat": 41.366471, "lon": 2.1150562}, {"type": "node", "id": 1193524869, "lat": 41.3789076, "lon": 2.1486373}, {"type": "node", "id": 1193524909, "lat": 41.3786661, "lon": 2.1491468}, {"type": "node", "id": 1193524945, "lat": 41.3785993, "lon": 2.1490533}, {"type": "node", "id": 1206798748, "lat": 41.405752, "lon": 2.1763365, "tags": {"access": "yes", "addr:housenumber": "480", "addr:street": "Carrer de Proven\u00e7a", "amenity": "library", "name": "Biblioteca Sagrada Fam\u00edlia-Josep M. Ainaud de Lasarte", "operator": "Diputaci\u00f3 de Barcelona", "website": "http://w3.bcn.es/V51/Home/V51HomeLinkPl/0,3989,526653874,00.html", "wheelchair": "yes", "wikidata": "Q85693414", "wikimedia_commons": "Category:Biblioteca Sagrada Fam\u00edlia-Josep M. Ainaud de Lasarte", "wikipedia": "ca:Biblioteca Sagrada Fam\u00edlia - Josep M. Ainaud de Lasarte"}}, {"type": "node", "id": 1303363182, "lat": 41.4341011, "lon": 2.191261}, {"type": "node", "id": 1303363184, "lat": 41.4342194, "lon": 2.1910597}, {"type": "node", "id": 1303363186, "lat": 41.4342178, "lon": 2.1910632}, {"type": "node", "id": 1316035400, "lat": 41.377865, "lon": 2.1217376, "tags": {"access": "yes", "addr:city": "Barcelona", "addr:housenumber": "58", "addr:postcode": "08028", "addr:street": "Travessera de les Corts", "amenity": "library", "internet_access": "yes", "internet_access:fee": "no", "name": "Biblioteca Les Corts - Miquel Llongueras", "operator": "Diputaci\u00f3 de Barcelona", "phone": "+34934493107", "wikidata": "Q85693375", "wikimedia_commons": "Category:Biblioteca Les Corts-Miquel Llongueras"}}, {"type": "node", "id": 1336877900, "lat": 41.42018, "lon": 2.1397152}, {"type": "node", "id": 1336877945, "lat": 41.4197783, "lon": 2.1395288}, {"type": "node", "id": 1336877953, "lat": 41.4202104, "lon": 2.1396446}, {"type": "node", "id": 1336878013, "lat": 41.4198173, "lon": 2.1393813}, {"type": "node", "id": 1339109146, "lat": 41.4437295, "lon": 2.1642621, "tags": {"access": "yes", "addr:housenumber": "34", "addr:street": "Ronda de la Guineueta Vella", "amenity": "library", "name": "Biblioteca Canyelles", "operator": "Diputaci\u00f3 de Barcelona", "panoramax": "173aff00-5a76-4f71-94dd-fa687f971864", "wikidata": "Q85692771"}}, {"type": "node", "id": 1339109153, "lat": 41.3868364, "lon": 2.1520533, "tags": {"access": "yes", "addr:housenumber": "145-147", "addr:street": "Carrer del Comte d'Urgell", "amenity": "library", "name": "Biblioteca Esquerra de l'Eixample - Agust\u00ed Centelles", "operator": "Diputaci\u00f3 de Barcelona", "toilets:wheelchair": "yes", "wheelchair": "yes", "wikidata": "Q85693327", "wikimedia_commons": "Category:Biblioteca Esquerra de l'Eixample-Agust\u00ed Centelles"}}, {"type": "node", "id": 1339109155, "lat": 41.3954122, "lon": 2.1823872, "tags": {"access": "yes", "addr:housenumber": "12-14", "addr:street": "Carrer de Ribes", "amenity": "library", "architect": "Josep Llinas", "member_of": "CodeClub Catalunya", "name": "Biblioteca Fort Pienc", "operator": "Diputaci\u00f3 de Barcelona", "wikidata": "Q65210824", "wikipedia": "ca:Biblioteca Fort Pienc"}}, {"type": "node", "id": 1339109157, "lat": 41.361716, "lon": 2.1362105, "tags": {"access": "yes", "addr:housenumber": "10", "addr:street": "Carrer d'Amnistia Internacional", "amenity": "library", "name": "Biblioteca Francesc Candel", "operator": "Diputaci\u00f3 de Barcelona", "wheelchair": "yes", "wikidata": "Q85693331"}}, {"type": "node", "id": 1339117894, "lat": 41.3787139, "lon": 2.1760758, "tags": {"access": "yes", "addr:housenumber": "30", "addr:street": "la Rambla", "amenity": "library", "internet_access": "wlan", "name": "Biblioteca G\u00f2tic - Andreu Nin", "operator": "Diputaci\u00f3 de Barcelona", "wheelchair": "yes", "wikidata": "Q85693335", "wikimedia_commons": "Category:Biblioteca G\u00f2tic-Andreu Nin"}}, {"type": "node", "id": 1339597915, "lat": 41.4366923, "lon": 2.1705836, "tags": {"access": "yes", "addr:housenumber": "2", "addr:street": "Pla\u00e7a Major de Nou Barris", "amenity": "library", "name": "Biblioteca Nou Barris", "operator": "Diputaci\u00f3 de Barcelona", "panoramax": "2be11fb1-f082-48b4-ab98-237b90d4194c", "wheelchair": "yes", "wikidata": "Q85693386"}}, {"type": "node", "id": 1339597916, "lat": 41.3740153, "lon": 2.1641336, "tags": {"access": "yes", "addr:housenumber": "34", "addr:street": "Carrer de Blai", "amenity": "library", "email": "b.barcelona.ps@diba.cat", "name": "Biblioteca Poble Sec-Francesc Boix", "opening_hours": "Tu,Th 09:30-13:30,15:00-20:00; Mo,Fr 15:00-20:00; We 09:30-20:00; Sa 10:00-14:00", "operator": "Diputaci\u00f3 de Barcelona", "operator:wikidata": "Q1607008", "phone": "+34 934 43 01 05", "toilets:wheelchair": "yes", "website": "https://www.barcelona.cat/bibfrancescboix", "wheelchair": "yes", "wikidata": "Q85693394", "wikimedia_commons": "Category:Biblioteca Poble Sec-Francesc Boix"}}, {"type": "node", "id": 1340026244, "lat": 41.4312086, "lon": 2.1605059, "tags": {"access": "yes", "addr:housenumber": "1", "addr:street": "Carrer del Vent", "amenity": "library", "check_date": "2024-02-24", "name": "Biblioteca Horta - Can Mariner", "opening_hours": "Mo,Fr 15:30-20:00; Tu,Th 09:30-13:30,15:30-20:00; We 09:30-20:00; Sa 10:00-14:00", "operator": "Diputaci\u00f3 de Barcelona", "wikidata": "Q85693342"}}, {"type": "node", "id": 1340026247, "lat": 41.4611703, "lon": 2.1797771, "tags": {"addr:housenumber": "3 bis", "addr:street": "Carrer de Vallcivera", "entrance": "yes"}}, {"type": "node", "id": 1340026248, "lat": 41.4153461, "lon": 2.1027829, "tags": {"access": "yes", "addr:housenumber": "16-34", "addr:street": "Carrer dels Reis Cat\u00f2lics", "amenity": "library", "name": "Biblioteca Collserola - Josep Miracle", "operator": "Diputaci\u00f3 de Barcelona"}}, {"type": "node", "id": 1349448991, "lat": 41.3774703, "lon": 2.163092}, {"type": "node", "id": 1349449218, "lat": 41.3773449, "lon": 2.1628135, "tags": {"barrier": "gate"}}, {"type": "node", "id": 1349449250, "lat": 41.3775074, "lon": 2.1630435}, {"type": "node", "id": 1349798814, "lat": 41.377581, "lon": 2.1630889}, {"type": "node", "id": 1349798815, "lat": 41.3775274, "lon": 2.1630173}, {"type": "node", "id": 1374630286, "lat": 41.3773039, "lon": 2.1628675}, {"type": "node", "id": 1374630339, "lat": 41.3774191, "lon": 2.1627162}, {"type": "node", "id": 1374630447, "lat": 41.3776401, "lon": 2.1630102}, {"type": "node", "id": 1381889425, "lat": 41.4351716, "lon": 2.204523}, {"type": "node", "id": 1381889439, "lat": 41.4351741, "lon": 2.2048051}, {"type": "node", "id": 1567597516, "lat": 41.3764303, "lon": 2.0809061}, {"type": "node", "id": 1567597541, "lat": 41.3758848, "lon": 2.0813889}, {"type": "node", "id": 1567597635, "lat": 41.3761116, "lon": 2.0818218}, {"type": "node", "id": 1567597705, "lat": 41.3766555, "lon": 2.0813183}, {"type": "node", "id": 1621858787, "lat": 41.4190132, "lon": 2.2190908}, {"type": "node", "id": 1753694403, "lat": 41.4305459, "lon": 2.1512301}, {"type": "node", "id": 1753694404, "lat": 41.4306001, "lon": 2.1513428}, {"type": "node", "id": 1753694406, "lat": 41.4306076, "lon": 2.1513367}, {"type": "node", "id": 1753694408, "lat": 41.4306591, "lon": 2.1515008}, {"type": "node", "id": 1753694409, "lat": 41.4306815, "lon": 2.1515474}, {"type": "node", "id": 1753694410, "lat": 41.4306792, "lon": 2.1514839}, {"type": "node", "id": 1753694413, "lat": 41.4307219, "lon": 2.1515139}, {"type": "node", "id": 1753694415, "lat": 41.4307337, "lon": 2.1515386}, {"type": "node", "id": 1753694416, "lat": 41.4307684, "lon": 2.1510405}, {"type": "node", "id": 1753694417, "lat": 41.4307933, "lon": 2.1514613}, {"type": "node", "id": 1753694418, "lat": 41.4308016, "lon": 2.1514807}, {"type": "node", "id": 1753694422, "lat": 41.43083, "lon": 2.1514156}, {"type": "node", "id": 1809828778, "lat": 41.3995125, "lon": 2.1295529}, {"type": "node", "id": 1809828782, "lat": 41.3996437, "lon": 2.1294308}, {"type": "node", "id": 1809828802, "lat": 41.3997294, "lon": 2.1299559}, {"type": "node", "id": 1809828831, "lat": 41.3998123, "lon": 2.1298753}, {"type": "node", "id": 1809828833, "lat": 41.3998562, "lon": 2.1298326}, {"type": "node", "id": 1809828834, "lat": 41.3998322, "lon": 2.1292554}, {"type": "node", "id": 1809828837, "lat": 41.3999598, "lon": 2.1295164}, {"type": "node", "id": 1809828840, "lat": 41.3999984, "lon": 2.1296943}, {"type": "node", "id": 1809828842, "lat": 41.4000095, "lon": 2.1296183}, {"type": "node", "id": 1867973641, "lat": 41.3952562, "lon": 2.171939}, {"type": "node", "id": 1867973665, "lat": 41.3904692, "lon": 2.1893995}, {"type": "node", "id": 1867973677, "lat": 41.3950204, "lon": 2.1722451}, {"type": "node", "id": 1867973760, "lat": 41.3908012, "lon": 2.1888826}, {"type": "node", "id": 1882963808, "lat": 41.4140545, "lon": 2.1654142}, {"type": "node", "id": 1882963811, "lat": 41.4142321, "lon": 2.1651582}, {"type": "node", "id": 1882963813, "lat": 41.4141104, "lon": 2.1652501}, {"type": "node", "id": 1882963815, "lat": 41.4141266, "lon": 2.1653593}, {"type": "node", "id": 1882963832, "lat": 41.414406, "lon": 2.1656277}, {"type": "node", "id": 1962716248, "lat": 41.3928277, "lon": 2.1787798, "tags": {"addr:city": "Barcelona", "addr:country": "ES", "addr:housenumber": "26", "addr:postcode": "08009", "addr:street": "Passeig de Sant Joan", "amenity": "library", "description": "Centre de documentaci\u00f3 historico-social", "name": "Biblioteca Ar\u00fas", "opening_hours": "Mo,We,Fr 10:00-15:00; Tu,Th 16:00-21:00"}}, {"type": "node", "id": 2084830330, "lat": 41.3927302, "lon": 2.1973956}, {"type": "node", "id": 2084830345, "lat": 41.3926087, "lon": 2.1983206}, {"type": "node", "id": 2084830436, "lat": 41.3926106, "lon": 2.1973976}, {"type": "node", "id": 2084830444, "lat": 41.3927308, "lon": 2.1984563}, {"type": "node", "id": 2208253458, "lat": 41.3840705, "lon": 2.1769665}, {"type": "node", "id": 2264354560, "lat": 41.383826, "lon": 2.1772203}, {"type": "node", "id": 2264354570, "lat": 41.3839561, "lon": 2.1771852}, {"type": "node", "id": 2264354575, "lat": 41.3840021, "lon": 2.1774347}, {"type": "node", "id": 2264354576, "lat": 41.3840069, "lon": 2.1771133}, {"type": "node", "id": 2264354579, "lat": 41.384018, "lon": 2.1772624}, {"type": "node", "id": 2264354582, "lat": 41.3840688, "lon": 2.1771904}, {"type": "node", "id": 2264399416, "lat": 41.3807674, "lon": 2.1778524}, {"type": "node", "id": 2264399429, "lat": 41.380802, "lon": 2.1778779}, {"type": "node", "id": 2264613945, "lat": 41.3944701, "lon": 2.1858598}, {"type": "node", "id": 2264613946, "lat": 41.3945737, "lon": 2.1859798}, {"type": "node", "id": 2264613947, "lat": 41.3943879, "lon": 2.1862056}, {"type": "node", "id": 2264613948, "lat": 41.394602, "lon": 2.1859148}, {"type": "node", "id": 2264613949, "lat": 41.3946279, "lon": 2.1859775}, {"type": "node", "id": 2264613951, "lat": 41.3946485, "lon": 2.1863139}, {"type": "node", "id": 2264613952, "lat": 41.3946306, "lon": 2.1859833}, {"type": "node", "id": 2264613953, "lat": 41.3946278, "lon": 2.1859976}, {"type": "node", "id": 2264613954, "lat": 41.3946895, "lon": 2.1861422}, {"type": "node", "id": 2264613955, "lat": 41.3947786, "lon": 2.1864729}, {"type": "node", "id": 2264613956, "lat": 41.3947798, "lon": 2.1861849}, {"type": "node", "id": 2264613958, "lat": 41.3950969, "lon": 2.1860575}, {"type": "node", "id": 2294063482, "lat": 41.3767243, "lon": 2.1342771}, {"type": "node", "id": 2294063483, "lat": 41.3767298, "lon": 2.1343011}, {"type": "node", "id": 2301909858, "lat": 41.4340188, "lon": 2.1912677}, {"type": "node", "id": 2500570197, "lat": 41.3871391, "lon": 2.1637223, "tags": {"amenity": "library", "layer": "2", "name": "Biblioteca de Matem\u00e0tiques", "name:ca": "Biblioteca de Matem\u00e0tiques", "name:en": "Library of Mathematics", "opening_hours": "Mo-Fr 08:00-20:00", "operator": "Universitat de Barcelona"}}, {"type": "node", "id": 2521182786, "lat": 41.3630245, "lon": 2.0865416}, {"type": "node", "id": 2521182801, "lat": 41.362504, "lon": 2.086448}, {"type": "node", "id": 2521182810, "lat": 41.3630552, "lon": 2.0862432}, {"type": "node", "id": 2521182824, "lat": 41.3625337, "lon": 2.0861506}, {"type": "node", "id": 2525826602, "lat": 41.3807333, "lon": 2.1778274}, {"type": "node", "id": 2525826603, "lat": 41.3807663, "lon": 2.1777314}, {"type": "node", "id": 2525826604, "lat": 41.3807618, "lon": 2.1777317}, {"type": "node", "id": 2525826605, "lat": 41.3808774, "lon": 2.1774135}, {"type": "node", "id": 2544790040, "lat": 41.384189, "lon": 2.1771714}, {"type": "node", "id": 2544790042, "lat": 41.3842485, "lon": 2.1771647}, {"type": "node", "id": 2544790044, "lat": 41.3841821, "lon": 2.1770815}, {"type": "node", "id": 2544790045, "lat": 41.3841091, "lon": 2.1770129}, {"type": "node", "id": 2544790047, "lat": 41.3839263, "lon": 2.1770769, "tags": {"access": "permissive", "addr:city": "Barcelona", "addr:housename": "Palau del Lloctinent", "addr:housenumber": "2-4", "addr:street": "Carrer dels Comtes", "entrance": "yes"}}, {"type": "node", "id": 2544790052, "lat": 41.3840998, "lon": 2.1772972, "tags": {"addr:housename": "Palau del Lloctinent", "addr:housenumber": "1-6", "addr:postcode": "08002", "addr:street": "Pla\u00e7a del Rei", "entrance": "yes"}}, {"type": "node", "id": 2544935010, "lat": 41.3840852, "lon": 2.1756666, "tags": {"amenity": "library", "name": "Arxiu Hist\u00f2ric de la Ciutat de Barcelona", "name:ca": "Arxiu Hist\u00f2ric de la Ciutat de Barcelona", "office": "government", "wikidata": "Q8203644", "wikipedia": "ca:Arxiu Hist\u00f2ric de la Ciutat de Barcelona"}}, {"type": "node", "id": 2544935011, "lat": 41.3836959, "lon": 2.1753381, "tags": {"amenity": "library", "name": "Arxiu Dioces\u00e0", "name:ca": "Arxiu Dioces\u00e0", "wikidata": "Q17152387", "wikimedia_commons": "Category:Arxiu Dioces\u00e0 de Barcelona", "wikipedia": "ca:Arxiu Dioces\u00e0 de Barcelona"}}, {"type": "node", "id": 2560086870, "lat": 41.3841798, "lon": 2.1657444}, {"type": "node", "id": 2560087140, "lat": 41.3843854, "lon": 2.1655736}, {"type": "node", "id": 2604943911, "lat": 41.4076586, "lon": 2.1493454}, {"type": "node", "id": 2604943913, "lat": 41.4075096, "lon": 2.149409}, {"type": "node", "id": 2604943914, "lat": 41.4072426, "lon": 2.1494262}, {"type": "node", "id": 2604943925, "lat": 41.4014617, "lon": 2.1582679}, {"type": "node", "id": 2604943933, "lat": 41.4015971, "lon": 2.1584828}, {"type": "node", "id": 2604943935, "lat": 41.4016508, "lon": 2.1584226}, {"type": "node", "id": 2604943937, "lat": 41.4015155, "lon": 2.1582077}, {"type": "node", "id": 2688583042, "lat": 41.4211727, "lon": 2.1551749}, {"type": "node", "id": 2688583044, "lat": 41.4209756, "lon": 2.1553951}, {"type": "node", "id": 2701523389, "lat": 41.38719, "lon": 2.0758233, "tags": {"addr:city": "Sant Just Desvern", "addr:housenumber": "17", "addr:postcode": "08960", "addr:street": "Carrer Carles Mercader", "amenity": "library", "name": "Biblioteca Joan Margarit", "note": "Biblioteca Can Ginestar", "wikidata": "Q85694318"}}, {"type": "node", "id": 2709693122, "lat": 41.3730172, "lon": 2.1013593}, {"type": "node", "id": 2709693127, "lat": 41.3728587, "lon": 2.1014362}, {"type": "node", "id": 2709693131, "lat": 41.3727146, "lon": 2.1009945}, {"type": "node", "id": 2709693136, "lat": 41.3728515, "lon": 2.100908}, {"type": "node", "id": 2764476453, "lat": 41.395119, "lon": 2.172373}, {"type": "node", "id": 2764476455, "lat": 41.3953504, "lon": 2.1720619}, {"type": "node", "id": 2764476457, "lat": 41.395097, "lon": 2.1721456, "tags": {"entrance": "yes"}}, {"type": "node", "id": 2941663858, "lat": 41.387602, "lon": 2.1639469, "tags": {"addr:city": "Barcelona", "addr:housenumber": "585", "addr:postcode": "08007", "addr:street": "Gran Via de les Corts Catalanes", "amenity": "library", "check_date": "2023-04-24", "name": "CRAI Biblioteca de Lletres. Secci\u00f3 de Rom\u00e0niques"}}, {"type": "node", "id": 2941663859, "lat": 41.3864117, "lon": 2.1637177, "tags": {"addr:city": "Barcelona", "addr:housenumber": "585", "addr:postcode": "08007", "addr:street": "Gran Via de les Corts Catalanes", "amenity": "library", "level": "1", "name": "CRAI Biblioteca de Lletres", "opening_hours": "Mo-Fr 08:30-20:30"}}, {"type": "node", "id": 2962505919, "lat": 41.3602185, "lon": 2.0966272, "tags": {"addr:city": "l'Hospitalet de Llobregat", "addr:housenumber": "2", "addr:postcode": "08901", "addr:street": "Carrer de la Riera de l'Escorxador", "amenity": "library", "email": "bibcansumarro@l-h.cat", "heritage": "4", "heritage:operator": "BCIN", "name": "Biblioteca Can Sumarro. Adults", "name:ca": "Biblioteca Can Sumarro. Adults", "phone": "+3493 337 20 82", "ref:BCIN": "RI-51-0004191", "source": "http://www.l-h.cat/biblioteques/cansumarro.aspx", "website": "http://www.l-h.cat/biblioteques/cansumarro.aspx", "wheelchair": "yes", "wikidata": "Q17592142", "wikimedia_commons": "Category:Can Sumarro", "wikipedia": "ca:Can Sumarro"}}, {"type": "node", "id": 3005930147, "lat": 41.3848925, "lon": 2.1164904, "tags": {"amenity": "library", "check_date": "2024-03-05", "name": "Biblioteca de F\u00edsica i Qu\u00edmica"}}, {"type": "node", "id": 3005939829, "lat": 41.3845515, "lon": 2.120188, "tags": {"amenity": "library", "name": "Biblioteca de Geologia"}}, {"type": "node", "id": 3005942734, "lat": 41.3847698, "lon": 2.1213373, "tags": {"amenity": "library", "name": "Biblioteca de Farm\u00e0cia"}}, {"type": "node", "id": 3063271397, "lat": 41.3858675, "lon": 2.1197808, "tags": {"access": "yes", "addr:city": "Barcelona", "addr:floor": "-1", "addr:housenumber": "643", "addr:postcode": "08028", "addr:street": "Avinguda Diagonal", "air_conditioning": "yes", "amenity": "library", "automatic_door": "no", "fee": "no", "internet_access": "wlan", "internet_access:fee": "customers", "internet_access:ssid": "WifiUB, eduroam", "kids_area": "no", "library": "university", "name": "Centre de Documentaci\u00f3 de Medi Ambient", "operator": "Universitat de Barcelona;Departament de Territori i Sostenibilitat", "phone": "+34 93 409 87 58", "service:3dprint": "no", "service:computer": "yes", "service:copy": "yes", "service:gaming": "no", "service:print": "yes", "service:scan": "yes", "toilets:wheelchair": "yes", "wheelchair": "yes"}}, {"type": "node", "id": 3105500796, "lat": 41.3840345, "lon": 2.1769231}, {"type": "node", "id": 3105503692, "lat": 41.3841174, "lon": 2.1770008}, {"type": "node", "id": 3226614777, "lat": 41.3900492, "lon": 2.1889179}, {"type": "node", "id": 3226614778, "lat": 41.3900794, "lon": 2.1889585}, {"type": "node", "id": 3226614779, "lat": 41.3900826, "lon": 2.1889543}, {"type": "node", "id": 3226614780, "lat": 41.390083, "lon": 2.1888733}, {"type": "node", "id": 3226614781, "lat": 41.390086, "lon": 2.1888774}, {"type": "node", "id": 3226614783, "lat": 41.3904086, "lon": 2.1894011}, {"type": "node", "id": 3226614784, "lat": 41.3904103, "lon": 2.1884406}, {"type": "node", "id": 3226614785, "lat": 41.3904117, "lon": 2.1893971}, {"type": "node", "id": 3226614786, "lat": 41.3904135, "lon": 2.1884449}, {"type": "node", "id": 3226614788, "lat": 41.3904413, "lon": 2.1894452}, {"type": "node", "id": 3226614790, "lat": 41.3904444, "lon": 2.1883937}, {"type": "node", "id": 3226614791, "lat": 41.3904725, "lon": 2.189404}, {"type": "node", "id": 3226614792, "lat": 41.390474, "lon": 2.1884424}, {"type": "node", "id": 3226614793, "lat": 41.3904773, "lon": 2.1884381}, {"type": "node", "id": 3226614795, "lat": 41.3907994, "lon": 2.1889634}, {"type": "node", "id": 3226614796, "lat": 41.3908024, "lon": 2.1889674}, {"type": "node", "id": 3226614797, "lat": 41.3908046, "lon": 2.1888781}, {"type": "node", "id": 3226614798, "lat": 41.390837, "lon": 2.1889217}, {"type": "node", "id": 3387999410, "lat": 41.3747835, "lon": 2.148081}, {"type": "node", "id": 3387999446, "lat": 41.375061, "lon": 2.1479525}, {"type": "node", "id": 3387999489, "lat": 41.3746734, "lon": 2.1479315}, {"type": "node", "id": 3387999598, "lat": 41.37497, "lon": 2.1480732}, {"type": "node", "id": 3683073393, "lat": 41.3765297, "lon": 2.0814347}, {"type": "node", "id": 3683073394, "lat": 41.3763252, "lon": 2.0816241}, {"type": "node", "id": 3868361448, "lat": 41.3844461, "lon": 2.1657034}, {"type": "node", "id": 3889234325, "lat": 41.4267589, "lon": 2.1760912}, {"type": "node", "id": 3889234329, "lat": 41.4267887, "lon": 2.1762364}, {"type": "node", "id": 3889234333, "lat": 41.4268129, "lon": 2.1762277}, {"type": "node", "id": 3889234340, "lat": 41.426839, "lon": 2.1764538}, {"type": "node", "id": 3889234344, "lat": 41.4270529, "lon": 2.1761444}, {"type": "node", "id": 3889234345, "lat": 41.4270612, "lon": 2.1759846}, {"type": "node", "id": 3889234348, "lat": 41.427076, "lon": 2.1762401}, {"type": "node", "id": 3889234349, "lat": 41.4270891, "lon": 2.1761309}, {"type": "node", "id": 3889234352, "lat": 41.4271682, "lon": 2.1762146}, {"type": "node", "id": 3889234356, "lat": 41.4272407, "lon": 2.1763567}, {"type": "node", "id": 3980613150, "lat": 41.3999788, "lon": 2.1295554}, {"type": "node", "id": 4207680926, "lat": 41.3839812, "lon": 2.1771485}, {"type": "node", "id": 4207680927, "lat": 41.3840438, "lon": 2.1772258}, {"type": "node", "id": 4248823898, "lat": 41.402354, "lon": 2.1880746, "tags": {"amenity": "library", "name": "Biblioteca p\u00fablica del Clot, Josep Benet", "wheelchair": "yes"}}, {"type": "node", "id": 4249967565, "lat": 41.3791976, "lon": 2.1888197, "tags": {"amenity": "library", "name": "Biblioteca Barceloneta La Fraternitat", "wikidata": "Q85692758", "wikimedia_commons": "Category:Biblioteca Barceloneta-La Fraternitat"}}, {"type": "node", "id": 4249992060, "lat": 41.4349406, "lon": 2.2046536}, {"type": "node", "id": 4249994344, "lat": 41.4349521, "lon": 2.2048258}, {"type": "node", "id": 4255001744, "lat": 41.4160931, "lon": 2.1817312}, {"type": "node", "id": 4255001745, "lat": 41.416222, "lon": 2.1819162}, {"type": "node", "id": 4255001746, "lat": 41.4158365, "lon": 2.1824026}, {"type": "node", "id": 4255001747, "lat": 41.4157178, "lon": 2.1822365}, {"type": "node", "id": 4288485810, "lat": 41.4256128, "lon": 2.1937425, "tags": {"access": "yes", "addr:housenumber": "1-3", "addr:street": "Carrer del Camp del Ferro", "amenity": "library", "check_date": "2023-12-26", "name": "Biblioteca de la Sagrera-Marina Clotet", "note": "Gestiona: Diputaci\u00f3 de Barcelona - Consorci de Biblioteques de Barcelona", "opening_hours": "Mo 15:30-20:00; Tu-Fr 09:30-13:30,15:30-20:00; Sa 10:00-14:00; Su off", "operator": "Diputaci\u00f3 de Barcelona", "wheelchair": "yes", "wikidata": "Q85693367"}}, {"type": "node", "id": 4345963156, "lat": 41.3691102, "lon": 2.1370468, "tags": {"addr:city": "Barcelona", "addr:housenumber": "19", "addr:postcode": "08014", "addr:street": "Carrer de la Constituci\u00f3", "amenity": "library", "facebook": "https://www.facebook.com/Biblioteca-Popular-Josep-Pons-Can-Batll%C3%B3-124196734400047/", "name": "Biblioteca Popular Josep Pons", "opening_hours": "Mo,Th 10:00-13:00,17:00-20:00; Tu 17:00-20:00; Fr 10:00-13:00,18:00-21:15; Sa 10:00-13:00", "operator": "Can Batll\u00f3", "website": "https://bibliotecacanbatllo.wordpress.com/"}}, {"type": "node", "id": 4374333747, "lat": 41.4013992, "lon": 2.2044349, "tags": {"amenity": "library", "name": "Biblioteca Poblenou - Manuel Arranz", "name:ca": "Biblioteca Poblenou - Manuel Arranz", "operator": "Consorci de Biblioteques de Barcelona", "wheelchair": "yes", "wikidata": "Q11911815", "wikipedia": "ca:Biblioteca Poblenou-Manuel Arranz"}}, {"type": "node", "id": 4392221308, "lat": 41.4157894, "lon": 2.1821031}, {"type": "node", "id": 4392354371, "lat": 41.386556, "lon": 2.1761718, "tags": {"amenity": "library", "name": "Biblioteca Francesca Bonnemaison", "opening_hours": "Mo,Th 15:00-20:00+; Tu,Fr 09:30-13:30,15:00-20:00+; We 09:30-20:00+; Sa 10:00-14:00+; PH,Su off", "wheelchair": "no", "wikidata": "Q85693333", "wikimedia_commons": "Category:Biblioteca Francesca Bonnemaison"}}, {"type": "node", "id": 4392392329, "lat": 41.4454064, "lon": 2.1772907}, {"type": "node", "id": 4392392330, "lat": 41.4455469, "lon": 2.1768712}, {"type": "node", "id": 4392392331, "lat": 41.4456335, "lon": 2.1771686}, {"type": "node", "id": 4392392332, "lat": 41.4453245, "lon": 2.1769929}, {"type": "node", "id": 4392405275, "lat": 41.429301, "lon": 2.1418565}, {"type": "node", "id": 4392405276, "lat": 41.4297125, "lon": 2.1420472}, {"type": "node", "id": 4392405277, "lat": 41.4292308, "lon": 2.1420975}, {"type": "node", "id": 4392405278, "lat": 41.4296436, "lon": 2.1422877}, {"type": "node", "id": 4393318572, "lat": 41.416532, "lon": 2.2118157, "tags": {"amenity": "library", "name": "Biblioteca Bes\u00f3s, Ramon d'Al\u00f3s Moner", "wheelchair": "yes"}}, {"type": "node", "id": 4402744808, "lat": 41.4058124, "lon": 2.135836}, {"type": "node", "id": 4402744809, "lat": 41.4056857, "lon": 2.1361847}, {"type": "node", "id": 4402744810, "lat": 41.4059462, "lon": 2.1357395}, {"type": "node", "id": 4402744811, "lat": 41.4057913, "lon": 2.1360895}, {"type": "node", "id": 4402744812, "lat": 41.405747, "lon": 2.1362585}, {"type": "node", "id": 4402744813, "lat": 41.4058044, "lon": 2.1358213}, {"type": "node", "id": 4402744814, "lat": 41.4059563, "lon": 2.1357435}, {"type": "node", "id": 4402744815, "lat": 41.4057971, "lon": 2.1360245}, {"type": "node", "id": 4402744816, "lat": 41.4057843, "lon": 2.1362625}, {"type": "node", "id": 4402744817, "lat": 41.4059402, "lon": 2.1357556}, {"type": "node", "id": 4402744818, "lat": 41.4058336, "lon": 2.1361338}, {"type": "node", "id": 4402744819, "lat": 41.4059673, "lon": 2.1357864}, {"type": "node", "id": 4402744820, "lat": 41.4058406, "lon": 2.1357945}, {"type": "node", "id": 4402744821, "lat": 41.4058978, "lon": 2.1360117}, {"type": "node", "id": 4402744822, "lat": 41.4058054, "lon": 2.1359795}, {"type": "node", "id": 4402744823, "lat": 41.4058507, "lon": 2.1357998}, {"type": "node", "id": 4402744824, "lat": 41.4059724, "lon": 2.1356939}, {"type": "node", "id": 4402744825, "lat": 41.4058295, "lon": 2.1357717}, {"type": "node", "id": 4402744826, "lat": 41.4057058, "lon": 2.1361405}, {"type": "node", "id": 4402744827, "lat": 41.4056233, "lon": 2.1360855}, {"type": "node", "id": 4402744828, "lat": 41.4059311, "lon": 2.1358535}, {"type": "node", "id": 4402744829, "lat": 41.4057521, "lon": 2.1359567}, {"type": "node", "id": 4402744830, "lat": 41.4056545, "lon": 2.1359862}, {"type": "node", "id": 4402744831, "lat": 41.4058808, "lon": 2.1356845}, {"type": "node", "id": 4402744832, "lat": 41.4058708, "lon": 2.1358334}, {"type": "node", "id": 4402744833, "lat": 41.405912, "lon": 2.1359339}, {"type": "node", "id": 4402744834, "lat": 41.4058979, "lon": 2.1355329}, {"type": "node", "id": 4402744835, "lat": 41.4059905, "lon": 2.1356228}, {"type": "node", "id": 4402744836, "lat": 41.4058106, "lon": 2.1359828}, {"type": "node", "id": 4402744837, "lat": 41.4057893, "lon": 2.1358186}, {"type": "node", "id": 4402776163, "lat": 41.4494684, "lon": 2.1908317}, {"type": "node", "id": 4402776164, "lat": 41.4494594, "lon": 2.1908866}, {"type": "node", "id": 4402776165, "lat": 41.4491207, "lon": 2.1906584}, {"type": "node", "id": 4402776166, "lat": 41.4489953, "lon": 2.1909739}, {"type": "node", "id": 4402776167, "lat": 41.4491929, "lon": 2.1906922}, {"type": "node", "id": 4408271000, "lat": 41.4339638, "lon": 2.1909835}, {"type": "node", "id": 4408271001, "lat": 41.4340022, "lon": 2.1912299}, {"type": "node", "id": 4461595655, "lat": 41.4073274, "lon": 2.1490788}, {"type": "node", "id": 4668707563, "lat": 41.3903804, "lon": 2.189355}, {"type": "node", "id": 4698055096, "lat": 41.4195799, "lon": 2.2190601}, {"type": "node", "id": 4698055097, "lat": 41.4193071, "lon": 2.2186992}, {"type": "node", "id": 4707063538, "lat": 41.3856687, "lon": 2.1744138, "tags": {"amenity": "library", "name": "Biblioteca Balmes", "wikidata": "Q17405599", "wikipedia": "ca:Biblioteca Balmes"}}, {"type": "node", "id": 4914495879, "lat": 41.3843964, "lon": 2.1718605, "tags": {"amenity": "library", "opening_hours": "Mo-Sa 09:00-21:30; Su 10:00-21:30", "operator": "Ateneu Barcelon\u00e8s"}}, {"type": "node", "id": 5165050301, "lat": 41.3746372, "lon": 2.1479757}, {"type": "node", "id": 5165050304, "lat": 41.3748583, "lon": 2.1482476}, {"type": "node", "id": 5165050305, "lat": 41.3748351, "lon": 2.1482405}, {"type": "node", "id": 5165051744, "lat": 41.375061, "lon": 2.1479998}, {"type": "node", "id": 5165051747, "lat": 41.374889, "lon": 2.1482335}, {"type": "node", "id": 5165051749, "lat": 41.3748079, "lon": 2.1482077}, {"type": "node", "id": 5165051750, "lat": 41.3746567, "lon": 2.1480055}, {"type": "node", "id": 5182120246, "lat": 41.4387281, "lon": 2.1441534, "tags": {"amenity": "library", "name": "CRAI Biblioteca del Campus de Mundet", "opening_hours": "Mo-Fr 08:30-20:30; Sa,Su 09:30-20:30", "operator": "Universitat de Barcelona", "website": "https://crai.ub.edu/ca/coneix-el-crai/biblioteques/biblioteca-campus-mundet"}}, {"type": "node", "id": 5260414657, "lat": 41.3728297, "lon": 2.1009218}, {"type": "node", "id": 5260414668, "lat": 41.3729671, "lon": 2.1013836}, {"type": "node", "id": 5370184168, "lat": 41.3840082, "lon": 2.113146}, {"type": "node", "id": 5476656744, "lat": 41.4340935, "lon": 2.1913066}, {"type": "node", "id": 5476656745, "lat": 41.4339241, "lon": 2.191205}, {"type": "node", "id": 5484158325, "lat": 41.3916487, "lon": 2.1758183, "tags": {"amenity": "library", "name": "Biblioteca Escola Administracio Publica"}}, {"type": "node", "id": 5741365556, "lat": 41.3834581, "lon": 2.1158099, "tags": {"addr:city": "Barcelona", "addr:housenumber": "14", "addr:postcode": "08028", "addr:street": "Carrer de Pau Gargallo", "amenity": "library", "internet_access": "wlan", "internet_access:fee": "no", "internet_access:ssid": "eduroam", "name": "Biblioteca de la FME", "opening_hours": "Mo-Th 09:00-20:00; Fr 09:00-14:00", "website": "https://bibliotecnica.upc.edu/biblioteca/biblioteca-facultat-matematiques-i-estadistica", "wikidata": "Q85692999"}}, {"type": "node", "id": 5899070481, "lat": 41.4294918, "lon": 2.1421019}, {"type": "node", "id": 5899070482, "lat": 41.4296162, "lon": 2.14216}, {"type": "node", "id": 5899070483, "lat": 41.4295893, "lon": 2.1422623}, {"type": "node", "id": 5899070484, "lat": 41.4296655, "lon": 2.1422043}, {"type": "node", "id": 5899070585, "lat": 41.4297086, "lon": 2.1422245}, {"type": "node", "id": 5899070586, "lat": 41.4297307, "lon": 2.1421403}, {"type": "node", "id": 5899070587, "lat": 41.4296927, "lon": 2.1421225}, {"type": "node", "id": 5899070588, "lat": 41.4294633, "lon": 2.1422074}, {"type": "node", "id": 5899070589, "lat": 41.4296521, "lon": 2.1420189}, {"type": "node", "id": 5899070590, "lat": 41.4296339, "lon": 2.1420881}, {"type": "node", "id": 5899070591, "lat": 41.4295108, "lon": 2.1420305}, {"type": "node", "id": 5899070592, "lat": 41.4295286, "lon": 2.1419629}, {"type": "node", "id": 5983157731, "lat": 41.4209389, "lon": 2.1551509}, {"type": "node", "id": 5983157732, "lat": 41.4208964, "lon": 2.1551984}, {"type": "node", "id": 5983157737, "lat": 41.4210674, "lon": 2.1550073}, {"type": "node", "id": 5983157738, "lat": 41.4208703, "lon": 2.1552275}, {"type": "node", "id": 6032507331, "lat": 41.4192834, "lon": 2.219456}, {"type": "node", "id": 6049954656, "lat": 41.3878143, "lon": 2.112685}, {"type": "node", "id": 6049954857, "lat": 41.3875355, "lon": 2.112421}, {"type": "node", "id": 6049954900, "lat": 41.3879255, "lon": 2.1127903}, {"type": "node", "id": 6053180202, "lat": 41.3840983, "lon": 2.1769998, "tags": {"addr:housenumber": "2", "addr:postcode": "08002", "addr:street": "Pla\u00e7a de Sant Iu", "entrance": "yes"}}, {"type": "node", "id": 6053180203, "lat": 41.3839042, "lon": 2.1773156, "tags": {"addr:housenumber": "1-3", "addr:postcode": "08002", "addr:street": "Baixada de Santa Clara"}}, {"type": "node", "id": 6053180204, "lat": 41.3840273, "lon": 2.1773993, "tags": {"addr:housenumber": "15", "addr:postcode": "08002", "addr:street": "Carrer del Veguer", "entrance": "yes"}}, {"type": "node", "id": 6053180205, "lat": 41.384204, "lon": 2.1771897, "tags": {"entrance": "yes"}}, {"type": "node", "id": 6053180206, "lat": 41.3839808, "lon": 2.1774088}, {"type": "node", "id": 6059923694, "lat": 41.38374, "lon": 2.1132648}, {"type": "node", "id": 6059923695, "lat": 41.3840011, "lon": 2.1134594}, {"type": "node", "id": 6059923696, "lat": 41.3840783, "lon": 2.1134253}, {"type": "node", "id": 6059923697, "lat": 41.3838101, "lon": 2.1132337}, {"type": "node", "id": 6059923698, "lat": 41.383821, "lon": 2.1135222}, {"type": "node", "id": 6059923702, "lat": 41.3839973, "lon": 2.1134442}, {"type": "node", "id": 6059923703, "lat": 41.3837537, "lon": 2.1133196}, {"type": "node", "id": 6059923704, "lat": 41.3837685, "lon": 2.1133131}, {"type": "node", "id": 6059923705, "lat": 41.3840455, "lon": 2.1132949}, {"type": "node", "id": 6061167961, "lat": 41.388014, "lon": 2.1126495, "tags": {"entrance": "main"}}, {"type": "node", "id": 6061168199, "lat": 41.3875836, "lon": 2.112352}, {"type": "node", "id": 6064680146, "lat": 41.434944, "lon": 2.2047058, "tags": {"addr:housenumber": "6-2", "addr:postcode": "08030", "addr:street": "Carrer de la Mare Eterna", "entrance": "yes"}}, {"type": "node", "id": 6064680149, "lat": 41.4351725, "lon": 2.2046876, "tags": {"addr:housenumber": "62-64", "addr:postcode": "08030", "addr:street": "Carrer d'Estadella", "entrance": "yes"}}, {"type": "node", "id": 6085793047, "lat": 41.3808382, "lon": 2.1775147}, {"type": "node", "id": 6085793075, "lat": 41.3809986, "lon": 2.1777317}, {"type": "node", "id": 6085793076, "lat": 41.3810056, "lon": 2.1777365}, {"type": "node", "id": 6085793078, "lat": 41.3810113, "lon": 2.1777392}, {"type": "node", "id": 6085793079, "lat": 41.3810305, "lon": 2.1776812}, {"type": "node", "id": 6085793080, "lat": 41.3810571, "lon": 2.1776951}, {"type": "node", "id": 6085793081, "lat": 41.3810731, "lon": 2.177651}, {"type": "node", "id": 6085793082, "lat": 41.3810379, "lon": 2.177617}, {"type": "node", "id": 6085793083, "lat": 41.3809253, "lon": 2.1775663}, {"type": "node", "id": 6085793084, "lat": 41.3808419, "lon": 2.1779062}, {"type": "node", "id": 6085793958, "lat": 41.380941, "lon": 2.1774654}, {"type": "node", "id": 6085793966, "lat": 41.3809458, "lon": 2.1774478}, {"type": "node", "id": 6085794305, "lat": 41.3809131, "lon": 2.1774312, "tags": {"addr:housename": "El Bros\u00ed", "addr:housenumber": "2", "addr:postcode": "08002", "addr:street": "Pla\u00e7a de la Ver\u00f2nica", "entrance": "main"}}, {"type": "node", "id": 6085794306, "lat": 41.380748, "lon": 2.1777715, "tags": {"addr:housenumber": "23", "addr:postcode": "08002", "addr:street": "Carrer d'Aviny\u00f3", "entrance": "yes"}}, {"type": "node", "id": 6085794343, "lat": 41.380919, "lon": 2.1778634}, {"type": "node", "id": 6085794344, "lat": 41.3810788, "lon": 2.1776354}, {"type": "node", "id": 6085794345, "lat": 41.3808928, "lon": 2.1779416}, {"type": "node", "id": 6085794498, "lat": 41.3809477, "lon": 2.1778802}, {"type": "node", "id": 6085794513, "lat": 41.3809447, "lon": 2.1774709}, {"type": "node", "id": 6085794514, "lat": 41.3809446, "lon": 2.177467}, {"type": "node", "id": 6085794516, "lat": 41.380871, "lon": 2.177432}, {"type": "node", "id": 6085794518, "lat": 41.3808669, "lon": 2.1774299}, {"type": "node", "id": 6085794520, "lat": 41.380841, "lon": 2.1775167}, {"type": "node", "id": 6085794521, "lat": 41.3808184, "lon": 2.1775816}, {"type": "node", "id": 6085794523, "lat": 41.3807804, "lon": 2.177691}, {"type": "node", "id": 6085794524, "lat": 41.380734, "lon": 2.1778117}, {"type": "node", "id": 6085794525, "lat": 41.3807377, "lon": 2.1778137}, {"type": "node", "id": 6085794527, "lat": 41.3809037, "lon": 2.1779099}, {"type": "node", "id": 6085794528, "lat": 41.380914, "lon": 2.1778797}, {"type": "node", "id": 6165767814, "lat": 41.4005781, "lon": 2.1470994, "tags": {"addr:city": "Barcelona", "addr:country": "ES", "addr:housenumber": "79", "addr:postcode": "08006", "addr:street": "Carrer d'Alfons XII", "amenity": "library", "email": "arxiujoanmaragall@bnc.cat", "name": "Arxiu Maragall", "name:ca": "Arxiu Maragall", "phone": "+34 93 200 14 16", "website": "http://www.joanmaragall.cat", "wikidata": "Q94200", "wikipedia": "ca:Arxiu Joan Maragall"}}, {"type": "node", "id": 6171665287, "lat": 41.4611341, "lon": 2.1802095}, {"type": "node", "id": 6171665288, "lat": 41.4609462, "lon": 2.1801344}, {"type": "node", "id": 6171665289, "lat": 41.4610829, "lon": 2.180298}, {"type": "node", "id": 6171665290, "lat": 41.461002, "lon": 2.1797588}, {"type": "node", "id": 6171665291, "lat": 41.4609266, "lon": 2.1796797}, {"type": "node", "id": 6171665292, "lat": 41.4609708, "lon": 2.1795268}, {"type": "node", "id": 6171665293, "lat": 41.4611105, "lon": 2.1796341}, {"type": "node", "id": 6171665327, "lat": 41.4611431, "lon": 2.1801305}, {"type": "node", "id": 6171665367, "lat": 41.4610386, "lon": 2.1799264}, {"type": "node", "id": 6171665404, "lat": 41.4610003, "lon": 2.1801044}, {"type": "node", "id": 6233679257, "lat": 41.4346129, "lon": 2.1913432}, {"type": "node", "id": 6233679261, "lat": 41.4339964, "lon": 2.1912597}, {"type": "node", "id": 6233679264, "lat": 41.4345122, "lon": 2.1913924}, {"type": "node", "id": 6233692193, "lat": 41.4345536, "lon": 2.1914039}, {"type": "node", "id": 6233692196, "lat": 41.4343437, "lon": 2.1910994}, {"type": "node", "id": 6233692199, "lat": 41.4346487, "lon": 2.1911381}, {"type": "node", "id": 6233692219, "lat": 41.4345672, "lon": 2.1913284}, {"type": "node", "id": 6233692230, "lat": 41.4343182, "lon": 2.1910912}, {"type": "node", "id": 6233692238, "lat": 41.4345621, "lon": 2.1911111}, {"type": "node", "id": 6233692256, "lat": 41.4343475, "lon": 2.1910705}, {"type": "node", "id": 6233692261, "lat": 41.4343231, "lon": 2.1910632}, {"type": "node", "id": 6233692263, "lat": 41.4340168, "lon": 2.1912823}, {"type": "node", "id": 6233692266, "lat": 41.4345529, "lon": 2.1911662}, {"type": "node", "id": 6233692287, "lat": 41.4345126, "lon": 2.19139}, {"type": "node", "id": 6356669493, "lat": 41.4058936, "lon": 2.1359158}, {"type": "node", "id": 6356669494, "lat": 41.4059074, "lon": 2.1358456}, {"type": "node", "id": 6365149752, "lat": 41.4141895, "lon": 2.165755}, {"type": "node", "id": 6365149761, "lat": 41.4141036, "lon": 2.1652549}, {"type": "node", "id": 6365149775, "lat": 41.4141067, "lon": 2.1652249}, {"type": "node", "id": 6365149885, "lat": 41.4141391, "lon": 2.1656161}, {"type": "node", "id": 6365149898, "lat": 41.4142503, "lon": 2.1652072, "tags": {"addr:housenumber": "74-76", "addr:postcode": "08024", "addr:street": "Carrer de les Cam\u00e8lies", "entrance": "main"}}, {"type": "node", "id": 6365149902, "lat": 41.4143704, "lon": 2.1656466}, {"type": "node", "id": 6479069576, "lat": 41.378711, "lon": 2.149087, "tags": {"addr:housenumber": "61", "addr:street": "Carrer de Vilamar\u00ed", "entrance": "yes"}}, {"type": "node", "id": 6480641599, "lat": 41.4292634, "lon": 2.1419734, "tags": {"access": "private", "addr:housenumber": "8", "addr:postcode": "08035", "addr:street": "Carrer de l'Arquitectura", "entrance": "main", "wheelchair": "yes"}}, {"type": "node", "id": 6480641617, "lat": 41.4296828, "lon": 2.1422124}, {"type": "node", "id": 6480641627, "lat": 41.4294834, "lon": 2.1421331}, {"type": "node", "id": 6480641631, "lat": 41.4296453, "lon": 2.142045}, {"type": "node", "id": 6480641632, "lat": 41.4295373, "lon": 2.1420429}, {"type": "node", "id": 6480641636, "lat": 41.429296, "lon": 2.1418756}, {"type": "node", "id": 6480641637, "lat": 41.4292899, "lon": 2.1418728}, {"type": "node", "id": 6516250454, "lat": 41.3841013, "lon": 2.1669402, "tags": {"amenity": "library", "name": "CRAI Biblioteca de Filosofia, Geografia i Hist\u00f2ria", "opening_hours": "Mo-Fr 08:30-20:30; Sa,Su 09:30-20:30", "wheelchair": "yes"}}, {"type": "node", "id": 6584346846, "lat": 41.3750387, "lon": 2.1480301, "tags": {"addr:city": "Barcelona", "addr:housenumber": "5", "addr:street": "Pla\u00e7a d'Espanya", "entrance": "yes"}}, {"type": "node", "id": 6595888585, "lat": 41.4198894, "lon": 2.1394637}, {"type": "node", "id": 6595888586, "lat": 41.419898, "lon": 2.1394684}, {"type": "node", "id": 6595888587, "lat": 41.4199392, "lon": 2.1394463}, {"type": "node", "id": 6595888588, "lat": 41.4199558, "lon": 2.1394938}, {"type": "node", "id": 6595888589, "lat": 41.4199589, "lon": 2.1394815}, {"type": "node", "id": 6595888590, "lat": 41.4200901, "lon": 2.1395434}, {"type": "node", "id": 6595888591, "lat": 41.4200879, "lon": 2.139556}, {"type": "node", "id": 6595888592, "lat": 41.419864, "lon": 2.1394039}, {"type": "node", "id": 6616696742, "lat": 41.4344457, "lon": 2.191369}, {"type": "node", "id": 6635495767, "lat": 41.4307107, "lon": 2.1510897}, {"type": "node", "id": 6635495768, "lat": 41.4306539, "lon": 2.1511381}, {"type": "node", "id": 6635497421, "lat": 41.4305795, "lon": 2.1513}, {"type": "node", "id": 6635497424, "lat": 41.4305664, "lon": 2.1512728}, {"type": "node", "id": 6635497425, "lat": 41.430571, "lon": 2.1512087}, {"type": "node", "id": 6635497456, "lat": 41.4307419, "lon": 2.1510631}, {"type": "node", "id": 6635497462, "lat": 41.4308253, "lon": 2.151431}, {"type": "node", "id": 6635497463, "lat": 41.4308055, "lon": 2.1514547}, {"type": "node", "id": 6635497464, "lat": 41.4308162, "lon": 2.1514449}, {"type": "node", "id": 6635497465, "lat": 41.4307384, "lon": 2.1512247}, {"type": "node", "id": 6635497466, "lat": 41.4308232, "lon": 2.1511526}, {"type": "node", "id": 6659540056, "lat": 41.3666145, "lon": 2.1153649, "tags": {"entrance": "main"}}, {"type": "node", "id": 6661202558, "lat": 41.3671015, "lon": 2.1156102}, {"type": "node", "id": 6661202559, "lat": 41.3671966, "lon": 2.1157692}, {"type": "node", "id": 6661202560, "lat": 41.3671066, "lon": 2.1156052}, {"type": "node", "id": 6661202561, "lat": 41.3669357, "lon": 2.116019}, {"type": "node", "id": 6661202562, "lat": 41.3669057, "lon": 2.1158424}, {"type": "node", "id": 6661202563, "lat": 41.3668631, "lon": 2.1158865}, {"type": "node", "id": 6661206621, "lat": 41.3668904, "lon": 2.1158146}, {"type": "node", "id": 6661206624, "lat": 41.3670673, "lon": 2.115893}, {"type": "node", "id": 6661206625, "lat": 41.3670441, "lon": 2.1159152}, {"type": "node", "id": 7110443458, "lat": 41.3831999, "lon": 2.1255051, "tags": {"addr:city": "Barcelona", "addr:postcode": "08028", "addr:street": "Carrer de Mej\u00eda Lequerica", "air_conditioning": "yes", "amenity": "library", "name": "Arxiu Hist\u00f2ric de la Diputaci\u00f3 de Barcelona", "name:ca": "Arxiu Hist\u00f2ric de la Diputaci\u00f3 de Barcelona", "opening_hours": "Mo-Fr 10:00-14:00", "operator": "Diputaci\u00f3 de Barcelona", "operator:type": "public", "phone": "+34 93 402 26 65", "website": "https://www.diba.cat/ca/web/arxiu", "wheelchair": "yes", "wikidata": "Q17152377", "wikimedia_commons": "Category:Arxiu General de la Diputaci\u00f3 de Barcelona", "wikipedia": "ca:Arxiu General de la Diputaci\u00f3 de Barcelona"}}, {"type": "node", "id": 7124875504, "lat": 41.3586338, "lon": 2.1126635}, {"type": "node", "id": 7124875506, "lat": 41.3585334, "lon": 2.1123324}, {"type": "node", "id": 7124875509, "lat": 41.3583949, "lon": 2.1124413}, {"type": "node", "id": 7124875512, "lat": 41.3583426, "lon": 2.1129019}, {"type": "node", "id": 7124875513, "lat": 41.3582287, "lon": 2.1125705}, {"type": "node", "id": 7124875515, "lat": 41.3588832, "lon": 2.1124594}, {"type": "node", "id": 7124875516, "lat": 41.3584896, "lon": 2.1127811}, {"type": "node", "id": 7124875518, "lat": 41.3587344, "lon": 2.1122246}, {"type": "node", "id": 7124875520, "lat": 41.3585515, "lon": 2.1127315}, {"type": "node", "id": 7124875522, "lat": 41.3582072, "lon": 2.1125871}, {"type": "node", "id": 7124875523, "lat": 41.3588516, "lon": 2.1124856}, {"type": "node", "id": 7124875525, "lat": 41.358268, "lon": 2.112541}, {"type": "node", "id": 7124875527, "lat": 41.3588091, "lon": 2.1125207}, {"type": "node", "id": 7124875529, "lat": 41.358478, "lon": 2.1127912}, {"type": "node", "id": 7124875530, "lat": 41.3587131, "lon": 2.112599}, {"type": "node", "id": 7124875531, "lat": 41.3586208, "lon": 2.1122636}, {"type": "node", "id": 7124875533, "lat": 41.3584822, "lon": 2.1123726}, {"type": "node", "id": 7124875535, "lat": 41.3583438, "lon": 2.1124814}, {"type": "node", "id": 7124875537, "lat": 41.35851, "lon": 2.1127645}, {"type": "node", "id": 7124875539, "lat": 41.3587793, "lon": 2.112189}, {"type": "node", "id": 7124875541, "lat": 41.3586181, "lon": 2.1126765}, {"type": "node", "id": 7124875543, "lat": 41.3587178, "lon": 2.1121874}, {"type": "node", "id": 7124875544, "lat": 41.3587926, "lon": 2.1125344}, {"type": "node", "id": 7124875545, "lat": 41.3588184, "lon": 2.112513}, {"type": "node", "id": 7124875546, "lat": 41.3583886, "lon": 2.1128634}, {"type": "node", "id": 7124875548, "lat": 41.358777, "lon": 2.112547}, {"type": "node", "id": 7229011357, "lat": 41.4210926, "lon": 2.1550475}, {"type": "node", "id": 7229011365, "lat": 41.4210142, "lon": 2.155352}, {"type": "node", "id": 7229011366, "lat": 41.4209125, "lon": 2.1551804, "tags": {"entrance": "yes"}}, {"type": "node", "id": 7238718048, "lat": 41.3775518, "lon": 2.1628928}, {"type": "node", "id": 7238718373, "lat": 41.3773655, "lon": 2.1629505}, {"type": "node", "id": 7450398676, "lat": 41.3696748, "lon": 2.1073278, "tags": {"addr:city": "l'Hospitalet de Llobregat", "addr:housenumber": "40", "addr:postcode": "08905", "addr:street": "Avinguda del Masnou", "amenity": "library", "email": "biblaflorida@l-h.cat", "internet_access": "wlan", "name": "Biblioteca la Florida", "opening_hours": "Mo-Tu 10:00-13:30, 15:30-20:30; We-Fr 15:30-20:30; Sa 10:00-13:00, 15:30-20:30", "operator": "Ajuntament de l'Hospitalet de Llobregat", "operator:type": "public", "phone": "+34 93 403 25 80", "website": "http://www.bibliotequeslh.cat/858013_1.aspx?id=1", "wheelchair": "yes", "wikidata": "Q53476760"}}, {"type": "node", "id": 7648558607, "lat": 41.3842839, "lon": 2.1659133}, {"type": "node", "id": 7648558608, "lat": 41.384229, "lon": 2.1658499}, {"type": "node", "id": 7648558611, "lat": 41.3842686, "lon": 2.1659198}, {"type": "node", "id": 7648558613, "lat": 41.3842635, "lon": 2.1659241}, {"type": "node", "id": 7648558620, "lat": 41.3842876, "lon": 2.1659103}, {"type": "node", "id": 7648558629, "lat": 41.3843706, "lon": 2.1655859}, {"type": "node", "id": 7648558631, "lat": 41.3844542, "lon": 2.1657742}, {"type": "node", "id": 7648558632, "lat": 41.3843874, "lon": 2.1658287}, {"type": "node", "id": 7648558640, "lat": 41.3844119, "lon": 2.1658088}, {"type": "node", "id": 7648558644, "lat": 41.3842705, "lon": 2.1659242}, {"type": "node", "id": 7648558645, "lat": 41.3844331, "lon": 2.1657142}, {"type": "node", "id": 7648558653, "lat": 41.3844524, "lon": 2.1657703}, {"type": "node", "id": 7648558656, "lat": 41.3843514, "lon": 2.1656018}, {"type": "node", "id": 7648558662, "lat": 41.3844574, "lon": 2.1657661}, {"type": "node", "id": 7648558667, "lat": 41.3841519, "lon": 2.1657676}, {"type": "node", "id": 7648558676, "lat": 41.3841556, "lon": 2.1657758}, {"type": "node", "id": 7648597787, "lat": 41.3841838, "lon": 2.1657531}, {"type": "node", "id": 7648597805, "lat": 41.3843902, "lon": 2.165584}, {"type": "node", "id": 8049731605, "lat": 41.404448, "lon": 2.1984465, "tags": {"amenity": "library", "name": "Lectorium Rosicrucianum"}}, {"type": "node", "id": 8380290551, "lat": 41.3999684, "lon": 2.1295341}, {"type": "node", "id": 8496984555, "lat": 41.4209594, "lon": 2.1553693}, {"type": "node", "id": 8968672401, "lat": 41.372909, "lon": 2.1010645, "tags": {"entrance": "yes"}}, {"type": "node", "id": 8968672406, "lat": 41.3728845, "lon": 2.1009978, "tags": {"entrance": "main"}}, {"type": "node", "id": 9357738787, "lat": 41.4059366, "lon": 2.2123332, "tags": {"amenity": "library", "name": "Arxiu Historic del Poblenou", "website": "https://www.arxiuhistoricpoblenou.cat/"}}, {"type": "node", "id": 9565974338, "lat": 41.3858811, "lon": 2.1140444, "tags": {"addr:city": "Barcelona", "addr:housenumber": "690", "addr:postcode": "08034", "addr:street": "Avinguda Diagonal", "amenity": "library", "name": "CRAI Biblioteca d'Economia i Empresa Recerca Universitat de Barcelona UB"}}, {"type": "node", "id": 9597039417, "lat": 41.4046584, "lon": 2.1512103, "tags": {"amenity": "library", "name": "Ona Llibres", "name:ca": "Ona Llibres"}}, {"type": "node", "id": 9605247674, "lat": 41.4157578, "lon": 2.1821619, "tags": {"entrance": "yes"}}, {"type": "node", "id": 9769235791, "lat": 41.4171301, "lon": 2.2001167, "tags": {"entrance": "main"}}, {"type": "node", "id": 9769235792, "lat": 41.4169353, "lon": 2.1999222}, {"type": "node", "id": 9769235793, "lat": 41.4170804, "lon": 2.2001178}, {"type": "node", "id": 9769235794, "lat": 41.417179, "lon": 2.2001124}, {"type": "node", "id": 9769235795, "lat": 41.4173429, "lon": 2.1998895}, {"type": "node", "id": 9769235796, "lat": 41.4171476, "lon": 2.1996387}, {"type": "node", "id": 9867822150, "lat": 41.3820491, "lon": 2.177336, "tags": {"amenity": "library", "name": "SEDAC Biblioteca de l'Ajuntament de Barcelona", "operator": "Ajuntament de Barcelona"}}, {"type": "node", "id": 9913422148, "lat": 41.3595387, "lon": 2.1227114, "tags": {"amenity": "library", "name": "Biblioteca Pla\u00e7a d'Europa"}}, {"type": "node", "id": 10001438875, "lat": 41.4140915, "lon": 2.165386, "tags": {"entrance": "yes"}}, {"type": "node", "id": 10312658213, "lat": 41.4260695, "lon": 2.1545269, "tags": {"amenity": "library", "name": "Lllibreria papereria Grama"}}, {"type": "node", "id": 10543386752, "lat": 41.3898059, "lon": 2.1903015}, {"type": "node", "id": 10543386753, "lat": 41.3898889, "lon": 2.190414}, {"type": "node", "id": 10543386754, "lat": 41.38998, "lon": 2.1902946}, {"type": "node", "id": 10543386755, "lat": 41.389897, "lon": 2.1901821}, {"type": "node", "id": 10724332781, "lat": 41.3929374, "lon": 2.1785643, "tags": {"addr:city": "Barcelona", "addr:housenumber": "26", "addr:postcode": "08010", "addr:street": "Passeig de Sant Joan", "amenity": "library", "contact:email": "activitatsaep@gmail.com", "contact:phone": "+34933635154", "contact:website": "http://ateneuenciclopedicpopular.org/", "name": "Ateneu Enciclop\u00e8dic Popular (Centre de documentaci\u00f3)"}}, {"type": "node", "id": 11139125534, "lat": 41.4057951, "lon": 2.1360558, "tags": {"entrance": "yes"}}, {"type": "node", "id": 11205299253, "lat": 41.445437, "lon": 2.1769313, "tags": {"addr:housenumber": "288B", "addr:street": "Via Fav\u00e8ncia", "entrance": "yes"}}, {"type": "node", "id": 11205299255, "lat": 41.4456223, "lon": 2.1772304}, {"type": "node", "id": 11205299256, "lat": 41.4456381, "lon": 2.1772225}, {"type": "node", "id": 11205299257, "lat": 41.4454584, "lon": 2.1772637}, {"type": "node", "id": 11205299258, "lat": 41.4454046, "lon": 2.1773382}, {"type": "node", "id": 11205299259, "lat": 41.4454703, "lon": 2.1773009}, {"type": "node", "id": 11205299260, "lat": 41.4454341, "lon": 2.1774626}, {"type": "node", "id": 11205299261, "lat": 41.4456075, "lon": 2.1771769}, {"type": "node", "id": 11205299262, "lat": 41.4456735, "lon": 2.1773478}, {"type": "node", "id": 11210229346, "lat": 41.449322, "lon": 2.1909124, "tags": {"entrance": "yes"}}, {"type": "node", "id": 11348636969, "lat": 41.4024154, "lon": 2.1880443, "tags": {"amenity": "library", "name": "Centre de Documentaci\u00f3 del Museu"}}, {"type": "node", "id": 11545745569, "lat": 41.3686529, "lon": 2.1601416, "tags": {"amenity": "library", "name": "Biblioteca Jacques Dupin"}}, {"type": "node", "id": 11805736222, "lat": 41.3604051, "lon": 2.096744, "tags": {"addr:city": "l'Hospitalet de Llobregat", "addr:housenumber": "2", "addr:postcode": "08901", "addr:street": "Carrer de la Riera de l'Escorxador", "amenity": "library", "email": "bibcansumarro@l-h.cat", "heritage": "4", "heritage:operator": "BCIN", "name": "Biblioteca Can Sumarro. Infantil", "name:ca": "Biblioteca Can Sumarro. Infantil", "phone": "+3493 337 20 82", "ref:BCIN": "RI-51-0004191", "source": "http://www.l-h.cat/biblioteques/cansumarro.aspx", "website": "http://www.l-h.cat/biblioteques/cansumarro.aspx", "wheelchair": "yes", "wikidata": "Q17592142", "wikimedia_commons": "Category:Can Sumarro", "wikipedia": "ca:Can Sumarro"}}, {"type": "node", "id": 11887748528, "lat": 41.3746758, "lon": 2.1216805}, {"type": "node", "id": 11887748529, "lat": 41.3745759, "lon": 2.1217852}, {"type": "node", "id": 11887748530, "lat": 41.3744908, "lon": 2.1216411}, {"type": "node", "id": 11887748531, "lat": 41.3745296, "lon": 2.1216004}, {"type": "node", "id": 11887748532, "lat": 41.3745114, "lon": 2.1215696}, {"type": "node", "id": 11887748534, "lat": 41.3745726, "lon": 2.1215055}, {"type": "node", "id": 11973867516, "lat": 41.4612288, "lon": 2.1799168}, {"type": "node", "id": 12122717153, "lat": 41.3767179, "lon": 2.1344011}, {"type": "node", "id": 12122717184, "lat": 41.3768843, "lon": 2.1343346}, {"type": "node", "id": 12183576601, "lat": 41.413697, "lon": 2.1768527, "tags": {"amenity": "library", "name": "Josep Laporte"}}, {"type": "way", "id": 43709444, "nodes": [553098850, 2294063483, 2294063482, 553098853, 12122717153, 553098854, 553098855, 12122717184, 553098850], "tags": {"access": "yes", "addr:city": "Barcelona", "addr:postcode": "08028", "addr:street": "Passatge del Vapor Vell", "amenity": "library", "building": "Public_Library", "building:levels": "6", "internet_access": "wlan", "internet_access:fee": "no", "name": "Biblioteca Vapor Vell", "nohousenumber": "yes", "opening_hours": "Mo,We,Th,Sa 10:00-14:00,16:00-21:00; Tu,Fr 10:00-21:00", "operator": "Diputaci\u00f3 de Barcelona", "wikidata": "Q85693446"}}, {"type": "way", "id": 64738318, "nodes": [794340197, 794340199, 794340184, 794340192]}, {"type": "way", "id": 82863031, "nodes": [964260385, 6661202558, 6661202560, 6661202559, 6661206624, 6661206625, 6661202561, 6661202563, 6661202562, 6661206621, 964260404, 964260408, 964260410, 964260414, 6659540056, 964260420, 964260423, 964260427, 964260385], "tags": {"addr:city": "l'Hospitalet de Llobregat", "addr:housenumber": "44", "addr:postcode": "08901", "addr:street": "Avinguda de Josep Tarradellas i Joan", "amenity": "library", "building": "yes", "name": "Biblioteca Tecla Sala", "operator": "Ajuntament de l'Hospitalet de Llobregat", "wikidata": "Q53476264"}}, {"type": "way", "id": 103348968, "nodes": [1193524945, 1193524869, 423541265, 6479069576, 1193524909, 1193524945], "tags": {"access": "yes", "addr:housenumber": "61", "addr:postcode": "08015", "addr:street": "Carrer de Vilamar\u00ed", "amenity": "library", "building": "public", "building:levels": "1", "email": "b.barcelona.jm@diba.cat", "name": "Biblioteca Joan Mir\u00f3", "name:etymology:wikidata": "Q152384", "name:etymology:wikipedia": "ca:Joan Mir\u00f3 i Ferr\u00e0", "opening_hours": "Mo 10:00-20:30; Tu-Th 10:00-14:00,16:00-20:30; Fr 16:00-20:30; Sep 25-Jun 24: Sa 10:00-14:00; Jun 24,Sep 11,Aug: off", "operator": "Diputaci\u00f3 de Barcelona", "phone": "+34934263532", "roof:levels": "1", "roof:shape": "skillion", "website": "https://ajuntament.barcelona.cat/biblioteques/bibjoanmiro", "wikidata": "Q85693355", "wikimedia_commons": "Category:Biblioteca Joan Mir\u00f3", "wikipedia": "ca:Biblioteca Joan Mir\u00f3"}}, {"type": "way", "id": 115308174, "nodes": [6233692230, 6233692261, 6233692256, 6233692196, 6233692266, 6233692238, 6233692199, 6233679257, 6233692219, 6233692193, 6233679264, 6233692287, 6616696742, 1303363182, 5476656744, 6233692263, 2301909858, 6233679261, 4408271001, 5476656745, 4408271000, 1303363186, 1303363184, 6233692230], "tags": {"access": "yes", "addr:housenumber": "24-32", "addr:postcode": "08030", "addr:street": "Carrer del Segre", "alt_name": "Can Fabra", "amenity": "library", "building": "civic", "building:levels": "4", "building:use": "public", "name": "Biblioteca Ignasi Igl\u00e9sias - Can Fabra", "note": "bib. pub. Districte", "old_name": "Can Fabra", "operator": "Diputaci\u00f3 de Barcelona, Consorci de Biblioteques de Barcelona", "toilets:wheelchair": "yes", "wheelchair": "yes", "wikidata": "Q28466612", "wikimedia_commons": "Category:Biblioteca Ignasi Igl\u00e9sias-Can Fabra", "wikipedia": "ca:Biblioteca Ignasi Igl\u00e9sias-Can Fabra"}}, {"type": "way", "id": 118930668, "nodes": [1336877953, 1336877900, 1336877945, 1336878013, 6595888592, 6595888585, 6595888586, 6595888587, 6595888588, 6595888589, 6595888590, 6595888591, 1336877953], "tags": {"addr:housenumber": "65,67,69", "addr:street": "Passeig de la Vall d'Hebron", "amenity": "library", "building": "yes", "name": "Biblioteca Vallcarca i els Penitents. M. Antonieta Cot", "website": "https://www.barcelona.cat/bibpenitents", "wheelchair": "yes", "wikidata": "Q85693441"}}, {"type": "way", "id": 123197983, "nodes": [1374630286, 7238718373, 1349448991, 1349449250, 1349798815, 1349798814, 1374630447, 7238718048, 1374630339, 1349449218, 1374630286], "tags": {"access": "yes", "addr:housenumber": "44-46", "addr:postcode": "08015", "addr:street": "Carrer del Comte Borrell", "amenity": "library", "architect": "RCR", "building": "public", "building:levels": "3", "name": "Biblioteca Sant Antoni - Joan Oliver", "name:ca": "Biblioteca Sant Antoni - Joan Oliver", "opening_hours": "Mo,Fr 16:00-20:30; Tu,Th 10:00-14:00,16:00-22:45; We 10:00-20:30; Sa 10:00-14:00; Jun 25-Sep 24: Sa closed; Aug: closed", "operator": "Consorci de Biblioteques de Barcelona", "website": "https://ajuntament.barcelona.cat/biblioteques/bibjoanoliver", "wheelchair": "yes", "wikidata": "Q85693417", "wikimedia_commons": "Category:Biblioteca Sant Antoni-Joan Oliver"}}, {"type": "way", "id": 163689483, "nodes": [1753694416, 6635497456, 6635495767, 6635495768, 6635497425, 1753694403, 6635497424, 6635497421, 1753694404, 1753694406, 1753694410, 1753694408, 1753694409, 1753694413, 1753694415, 1753694418, 1753694417, 6635497463, 6635497464, 6635497462, 1753694422, 6635497465, 6635497466, 1753694416], "tags": {"amenity": "library", "name": "Pavell\u00f3 de la Rep\u00fablica", "name:ca": "Pavell\u00f3 de la Rep\u00fablica", "website": "https://crai.ub.edu/ca/coneix-el-crai/biblioteques/biblioteca-pavello-republica", "wikidata": "Q16003642", "wikimedia_commons": "Category:Biblioteca del Pavell\u00f3 de la Rep\u00fablica", "wikipedia": "ca:Biblioteca del Pavell\u00f3 de la Rep\u00fablica"}}, {"type": "way", "id": 169824971, "nodes": [1809828834, 1809828837, 8380290551, 3980613150, 1809828842, 1809828840, 1809828833, 1809828831, 1809828802, 1809828778, 1809828782, 1809828834], "tags": {"amenity": "library", "contact:email": "b.barcelona.cl@diba.cat", "name": "Biblioteca Clar\u00e0", "opening_hours": "Mo-Tu 15:30-20:30; We-Th 10:00-14:00, 15:30-20:30; Fr 15:30-20:30; Sa 10:00-14:00", "phone": "+34932801547", "website": "https://www.barcelona.cat/bibclara", "wikidata": "Q85692775", "wikimedia_commons": "Category:Biblioteca Clar\u00e0"}}, {"type": "way", "id": 177895796, "nodes": [847723430, 6365149752, 6365149885, 1882963808, 10001438875, 1882963815, 6365149761, 1882963813, 6365149775, 1882963811, 6365149898, 1882963832, 6365149902, 847723430], "tags": {"access": "yes", "amenity": "library", "building": "public", "layer": "1", "name": "Biblioteca Guinard\u00f3 - Merc\u00e8 Rodoreda", "operator": "Diputaci\u00f3 de Barcelona", "website": "https://www.bcn.cat/bibmercerodoreda", "wikidata": "Q85693340", "wikimedia_commons": "Category:Biblioteca Guinard\u00f3-Merc\u00e8 Rodoreda"}}, {"type": "way", "id": 198342720, "nodes": [2084830436, 2084830345, 2084830444, 2084830330, 2084830436], "tags": {"amenity": "library", "building:part": "yes", "name": "Biblioteca Xavier Benguerel", "wikidata": "Q85693454", "wikimedia_commons": "Category:Biblioteca Xavier Benguerel"}}, {"type": "way", "id": 217132059, "nodes": [2264354582, 4207680927, 2264354579, 2264354570, 4207680926, 2264354576, 2264354582]}, {"type": "way", "id": 217167360, "nodes": [2264613947, 2264613945, 2264613948, 2264613946, 2264613953, 2264613952, 2264613949, 2264613958, 2264613955, 2264613956, 2264613954, 2264613951, 2264613947], "tags": {"amenity": "library", "building": "public", "building:levels": "4", "name": "Arxiu de la Corona d'Arag\u00f3", "name:ca": "Arxiu de la Corona d'Arag\u00f3", "name:es": "Archivo de la Corona de Arag\u00f3n", "website": "https://www.mecd.gob.es/archivos-aca/portada.html", "wikidata": "Q3571546", "wikimedia_commons": "Category:General Archive of the Crown of Aragon", "wikipedia": "ca:Arxiu de la Corona d'Arag\u00f3"}}, {"type": "way", "id": 244848501, "nodes": [2521182810, 2521182824, 2521182801, 2521182786, 2521182810], "tags": {"amenity": "library", "building": "yes", "name": "Biblioteca Sant Ildefons"}}, {"type": "way", "id": 245374730, "nodes": [2264399429, 6085793084, 6085794345, 6085794527, 6085794528, 6085794343, 6085794498, 6085793075, 6085793076, 6085793078, 6085793079, 6085793080, 6085793081, 6085794344, 6085793082, 6085793083, 6085794513, 6085794514, 6085793958, 6085793966, 6085794305, 2525826605, 6085794516, 6085794518, 6085793047, 6085794520, 6085794521, 6085794523, 2525826603, 2525826604, 6085794306, 6085794524, 6085794525, 2525826602, 2264399416, 2264399429], "tags": {"amenity": "library", "building": "office", "building:levels": "5"}}, {"type": "way", "id": 247585485, "nodes": [2544790045, 6053180202, 2208253458, 3105500796, 2544790047, 2264354560, 6053180203, 6053180206, 2264354575, 6053180204, 2544790052, 2544790040, 6053180205, 437528364, 2544790042, 2544790044, 3105503692, 2544790045]}, {"type": "way", "id": 249403497, "nodes": [7648597805, 3868361448, 7648558645, 7648558662, 7648558653, 7648558631, 7648558640, 7648558632, 7648558620, 7648558607, 7648558644, 7648558611, 7648558613, 7648558608, 7648597787, 7648558676, 7648558667, 2560086870, 7648558656, 7648558629, 2560087140, 7648597805], "tags": {"access": "private", "amenity": "library", "building": "university", "building:levels": "4", "building:levels:underground": "3", "name": "Biblioteca de La Facultat de Comunicaci\u00f3 i Relacions Internacionals Blanquerna", "operator": "Blanquerna - Universitat Ramon Llull", "operator:type": "university", "source": "Ajuntament de Barcelona - CartoBCN (@2013-11-10);local knowledge"}}, {"type": "way", "id": 254689519, "nodes": [907524798, 907524799, 4461595655, 907524802, 2604943914, 907524792, 2604943913, 2604943911, 907524798], "tags": {"addr:city": "Barcelona", "addr:housename": "Biblioteca Jaume Fuster", "addr:housenumber": "20-22", "addr:postcode": "08023", "addr:street": "Pla\u00e7a de Lesseps", "amenity": "library", "architect": "Josep Llin\u00e0s", "building": "public", "internet_access": "terminal", "internet_access:fee": "no", "name": "Biblioteca Jaume Fuster", "name:etymology:wikidata": "Q9011113", "operator": "Xarxa de Biblioteques Municipals", "start_date": "2005", "wheelchair": "yes", "wikidata": "Q116689663", "wikimedia_commons": "Category:Biblioteca Jaume Fuster", "wikipedia": "ca:Biblioteca Jaume Fuster"}}, {"type": "way", "id": 254689522, "nodes": [2604943937, 2604943925, 2604943933, 2604943935, 2604943937], "tags": {"access": "yes", "alt_name": "Vila de Gr\u00e0cia \u2013 Rosa M. Arquimbau", "amenity": "library", "building": "yes", "check_date": "2023-03-18", "name": "Biblioteca Vila de Gr\u00e0cia", "opening_hours": "Mo,Th 15:00-20:00; Tu,Fr 09:30-13:30,15:00-20:00; We 09:30-20:00; Sa 10:00-14:00; Jun-Aug Sa off", "operator": "Xarxa de Bibliotecas Municipals", "operator:type": "public", "toilets:wheelchair": "yes", "wheelchair": "yes", "wikidata": "Q85693448", "wikimedia_commons": "Category:Biblioteca Vila de Gr\u00e0cia"}}, {"type": "way", "id": 263234047, "nodes": [5983157738, 5983157732, 7229011366, 5983157731, 5983157737, 7229011357, 2688583042, 7229011365, 2688583044, 8496984555]}, {"type": "way", "id": 265300906, "nodes": [2709693122, 5260414668, 2709693127, 2709693131, 5260414657, 2709693136, 8968672406, 8968672401, 2709693122], "tags": {"amenity": "library", "building": "yes", "name": "Biblioteca La B\u00f2bila", "wikidata": "Q53468818", "wikimedia_commons": "Category:Biblioteca La B\u00f2bila", "wikipedia": "ca:Biblioteca La B\u00f2bila"}}, {"type": "way", "id": 271480164, "nodes": [1867973641, 2764476457, 1867973677, 2764476453, 2764476455, 1867973641], "tags": {"amenity": "library", "building": "yes", "name": "Biblioteca Sofia Barat", "operator": "Diputaci\u00f3 de Barcelona", "wikidata": "Q85693434"}}, {"type": "way", "id": 303065271, "nodes": [1567597516, 1567597705, 3683073393, 3683073394, 1567597635, 1567597541, 1567597516], "tags": {"amenity": "library", "building": "yes", "name": "Pare Miquel d'Esplugues"}}, {"type": "way", "id": 316538443, "nodes": [3226614792, 3226614793, 3226614790, 3226614784, 3226614786, 3226614781, 3226614780, 3226614777, 3226614778, 3226614779, 4668707563, 3226614785, 3226614783, 3226614788, 3226614791, 1867973665, 3226614795, 3226614796, 3226614798, 3226614797, 1867973760, 3226614792], "tags": {"amenity": "library", "building": "library", "building:levels": "3", "building:material": "brick", "internet_access": "wlan", "name": "Dip\u00f2sit de les Aig\u00fces", "name:ca": "Dip\u00f2sit de les Aig\u00fces", "operator": "Universitat Pompeu Fabra", "wikidata": "Q20105639", "wikimedia_commons": "Category:Dip\u00f2sit de les Aig\u00fces", "wikipedia": "ca:Dip\u00f2sit de les Aig\u00fces del Parc de la Ciutadella"}}, {"type": "way", "id": 385585349, "nodes": [3889234340, 3889234356, 3889234352, 3889234348, 3889234344, 3889234349, 3889234345, 3889234325, 3889234329, 3889234333, 3889234340], "tags": {"amenity": "library", "building:levels": "1", "name": "Biblioteca Vilapicina i la Torre Llobeta", "wikidata": "Q86463960", "wikimedia_commons": "Category:Biblioteca Vilapicina i la Torre Llobeta"}}, {"type": "way", "id": 425706810, "nodes": [1381889425, 6064680149, 1381889439, 4249994344, 6064680146, 4249992060, 1381889425], "tags": {"addr:postcode": "08030", "amenity": "library", "building": "public", "name": "Biblioteca Bon Pastor", "opening_hours": "Mo,Fr 15:00-20:00; We 09:30-20:00; Tu,Th 09:30-13:30,15:00-20:00; Sa 10:00-14:00; Jun 23-Sep 27 Sa off; Aug off; PH off", "wikidata": "Q85692760"}}, {"type": "way", "id": 426198156, "nodes": [4255001744, 4255001745, 4255001746, 4255001747, 9605247674, 4392221308, 4255001744], "tags": {"amenity": "library", "building": "yes", "name": "Biblioteca Caterina Albert", "name:ca": "Biblioteca Camp de l'Arpa\u2013Caterina Albert", "name:es": "Biblioteca Camp de l'Arpa\u2013Caterina Albert", "opening_hours": "Mo-Fr 16:00-20:30", "panoramax": "a5756a89-625e-4c92-9c56-97c3ebe62f65", "panoramax:0": "f1ac1d64-c9e7-4dd5-b206-4c34e118f442", "phone": "+34934 50 86 46", "wheelchair": "yes", "wikidata": "Q85692764", "wikimedia_commons": "Category:Biblioteca Camp de l'Arpa-Caterina Albert"}}, {"type": "way", "id": 441495882, "nodes": [4392392331, 11205299261, 11205299255, 11205299256, 11205299262, 11205299260, 11205299258, 11205299259, 11205299257, 4392392329, 4392392332, 11205299253, 4392392330, 4392392331], "tags": {"amenity": "library", "building": "public", "building:levels": "1", "building:levels:underground": "1", "layer": "1", "name": "Biblioteca Les Roquetes Rafa Juncadella", "wheelchair": "yes", "wikidata": "Q85693378"}}, {"type": "way", "id": 441496645, "nodes": [4392405275, 5899070592, 5899070591, 6480641632, 5899070590, 6480641631, 5899070589, 4392405276, 5899070587, 5899070586, 5899070585, 6480641617, 5899070484, 4392405278, 5899070483, 5899070482, 5899070481, 6480641627, 5899070588, 4392405277, 6480641599, 6480641637, 6480641636, 4392405275], "tags": {"amenity": "library", "building": "yes", "name": "Biblioteca Montbau - Albert P\u00e9rez Bar\u00f3", "wikidata": "Q16177713", "wikipedia": "ca:Biblioteca Montbau-Albert P\u00e9rez Bar\u00f3"}}, {"type": "way", "id": 442598355, "nodes": [4402744836, 4402744822, 4402744829, 4402744837, 4402744813, 4402744820, 4402744825, 4402744831, 4402744834, 4402744835, 4402744824, 4402744814, 4402744810, 4402744817, 4402744819, 4402744828, 6356669494, 4402744832, 4402744823, 4402744808, 6356669493, 4402744833, 4402744821, 4402744836], "tags": {"alt_name": "Biblioteca Sant Gervasi", "amenity": "library", "building": "public", "contact:email": "b.barcelona.jmg@diba.cat", "location": "underground", "name": "Biblioteca Sant Gervasi - Joan Maragall", "opening_hours": "Mo 10:00-14:00, 16:00-20:30; Tu 10:00-20:30; We 10:00-14:00, 16:00-20:30; Th 10:00-20:30; Fr 10:00-14:00, 16:00-20:30; Sa 10:00-14:00", "phone": "+34934178347", "short_name": "Biblioteca Joan Maragall", "website": "https://www.barcelona.cat/bibsantgervasi", "wheelchair": "yes"}}, {"type": "way", "id": 442602279, "nodes": [4402776167, 4402776163, 4402776164, 11210229346, 4402776166, 4402776165, 4402776167], "tags": {"amenity": "library", "building": "public", "email": "b.barcelona.tv@diba.cat", "facebook": "https://www.facebook.com/bibtrinitatvella", "name": "Biblioteca Trinitat Vella. Jos\u00e9 Barbero", "opening_hours": "Mo,Fr 16:00-20:30; Tu-Th 10:00-14:00,16:00-20:30; Sa 10:00-14:00", "operator": "Ajuntament de Barcelona", "phone": "+34 936762968", "twitter": "http://twitter.com/bibliotequesbcn", "website": "https://www.barcelona.cat/bibtrinitatvella", "wheelchair": "yes"}}, {"type": "way", "id": 476159491, "nodes": [1621858787, 4698055097, 4698055096, 6032507331, 1621858787], "tags": {"amenity": "library", "building": "public", "building:levels": "2", "name": "biblioteca font de la mina. Centre Cultural"}}, {"type": "way", "id": 499388601, "nodes": [794340192, 794340197]}, {"type": "way", "id": 532214345, "nodes": [3387999446, 5165051744, 6584346846, 5165051747, 5165050304, 5165050305, 5165051749, 5165051750, 5165050301, 3387999489, 3387999410, 3387999598, 3387999446], "tags": {"amenity": "library", "building": "library", "name": "Biblioteca Artur Martorell", "wikidata": "Q85692740"}}, {"type": "way", "id": 556737930, "nodes": [6059923705, 6059923696, 6059923695, 6059923702, 6059923698, 6059923704, 6059923703, 6059923694, 6059923697, 5370184168, 6059923705], "tags": {"amenity": "library", "building": "public", "building:levels": "2", "building:levels:underground": "1", "name": "Biblioteca Oriol Bohigas", "opening_hours": "Mo-Fr 08:30-20:30,08:30-20:00", "operator": "ETSAB", "phone": "+34 934017471", "website": "https://bibliotecnica.upc.edu/biblioteca/biblioteca-oriol-bohigas-etsab"}}, {"type": "way", "id": 642719980, "nodes": [6049954656, 6049954857, 6061168199, 59846054, 59846057, 6061167961, 6049954900, 6049954656], "tags": {"amenity": "library", "building": "university", "building:colour": "#e5ddd3", "building:levels": "4", "building:levels:underground": "1", "internet_access": "wlan", "internet_access:fee": "no", "internet_access:ssid": "eduroam, UPC Guest", "name": "Biblioteca Rector Gabriel Ferrat\u00e9", "opening_hours": "Mo-Fr 08:30-21:00", "operator": "Universitat Politecnica de Catalunya", "website": "https://bibliotecnica.upc.edu/biblioteca/biblioteca-rector-gabriel-ferrate", "wikidata": "Q79043087", "wikimedia_commons": "Category:Biblioteca Rector Gabriel Ferrat\u00e9", "wikipedia": "ca:Biblioteca Rector Gabriel Ferrat\u00e9"}}, {"type": "way", "id": 659184913, "nodes": [6171665404, 6171665367, 6171665290, 6171665291, 6171665292, 6171665293, 1340026247, 11973867516, 6171665327, 6171665287, 6171665289, 6171665288, 6171665404], "tags": {"access": "yes", "amenity": "library", "building": "public", "building:levels:underground": "1", "name": "Biblioteca Zona Nord M\u00e0ria S\u00e0nchez", "operator": "Diputaci\u00f3 de Barcelona", "wikidata": "Q85693469"}}, {"type": "way", "id": 678894148, "nodes": [4402744811, 4402744818, 4402744816, 4402744812, 4402744809, 4402744826, 4402744827, 4402744830, 4402744815, 11139125534, 4402744811], "tags": {"alt_name": "Biblioteca Sant Gervasi", "amenity": "library", "building": "public", "contact:email": "b.barcelona.jmg@diba.cat", "location": "underground", "name": "Biblioteca Sant Gervasi - Joan Maragall", "opening_hours": "Mo 10:00-14:00, 16:00-20:30; Tu 10:00-20:30; We 10:00-14:00, 16:00-20:30; Th 10:00-20:30; Fr 10:00-14:00, 16:00-20:30; Sa 10:00-14:00", "phone": "+34934178347", "short_name": "Biblioteca Joan Maragall", "website": "https://www.barcelona.cat/bibsantgervasi", "wheelchair": "yes"}}, {"type": "way", "id": 762531424, "nodes": [7124875512, 7124875546, 7124875529, 7124875516, 7124875537, 7124875520, 7124875541, 7124875504, 7124875530, 7124875548, 7124875544, 7124875527, 7124875545, 7124875523, 7124875515, 7124875539, 7124875518, 7124875543, 7124875531, 7124875506, 7124875533, 7124875509, 7124875535, 7124875525, 7124875513, 7124875522, 7124875512], "tags": {"addr:city": "l'Hospitalet de Llobregat", "addr:housenumber": "40", "addr:postcode": "08901", "addr:street": "Carretera del Mig", "alt_name": "CePSE", "amenity": "library", "building": "public", "email": "cprestec.cultura@gencat.cat", "name": "Central de Pr\u00e9stec i Serveis Especials", "opening_hours": "Mo-Fr 08:00-15:00", "operator": "Departament de Cultura de la Generalitat de Catalunya", "phone": "+34 93 553 82 72", "website": "https://cultura.gencat.cat/cepse"}}, {"type": "way", "id": 914698938, "nodes": [8496984555, 5983157738]}, {"type": "way", "id": 1063551567, "nodes": [9769235796, 9769235795, 9769235794, 9769235791, 9769235793, 9769235792, 9769235796], "tags": {"addr:housenumber": "1", "addr:postcode": "08020", "addr:street": "Pla\u00e7a de Carmen Balcells Segal\u00e0", "air_conditioning": "yes", "amenity": "library", "architect": "SUMA Arquitectura", "building": "public", "building:levels": "4", "building:levels:underground": "1", "building:material": "wood", "check_date": "2024-06-10", "email": "b.barcelona.ggm@diba.cat", "image": "https://i.imgur.com/JNt1ys0.jpg", "image:0": "https://i.imgur.com/niCEUTF.jpg", "image:1": "https://i.imgur.com/lnk18Pa.jpg", "image:2": "https://i.imgur.com/H31Z4Wt.jpg", "internet_access": "wlan", "internet_access:fee": "no", "name": "Biblioteca Gabriel Garc\u00eda M\u00e1rquez", "name:ca": "Biblioteca Gabriel Garc\u00eda M\u00e1rquez", "name:es": "Biblioteca Gabriel Garc\u00eda M\u00e1rquez", "opening_hours": "Mo, We, Fr 09:30-13:30, 15:30-20:30; Tu, Th 09:30-20:30; Sa 10:00-14:00, 16:00-20:00", "operator": "Consorci Biblioteques Barcelona", "operator:type": "public", "phone": "+34 93 002 65 12", "start_date": "2022-05-28", "website": "https://www.barcelona.cat/bibgarciamarquez", "wheelchair": "yes", "wikidata": "Q112194663", "wikimedia_commons": "Category:Biblioteca Gabriel Garc\u00eda M\u00e1rquez (Barcelona)", "wikipedia": "ca:Biblioteca Gabriel Garc\u00eda M\u00e1rquez"}}, {"type": "way", "id": 1131201330, "nodes": [10543386752, 10543386753, 10543386754, 10543386755, 10543386752], "tags": {"amenity": "library", "building": "yes", "name": "Torre", "name:ca": "Torre"}}, {"type": "way", "id": 1280722722, "nodes": [11887748534, 11887748532, 11887748531, 11887748530, 11887748529, 11887748528, 11887748534], "tags": {"addr:city": "L'Hospitalet de Llobregat", "addr:housenumber": "33", "addr:postcode": "08094", "addr:street": "Carrer del Doctor Mart\u00ed i Juli\u00e0", "amenity": "library", "building": "yes", "name": "Biblioteca Josep Jan\u00e9s", "name:ca": "Biblioteca Josep Jan\u00e9s", "operator": "Ajuntament de L'Hospitalet de Llobregat", "website": "http://www.l-h.cat/biblioteques/josepjanes.aspx", "wikidata": "Q53476564", "wikipedia": "ca:Biblioteca Josep Jan\u00e9s"}}, {"type": "relation", "id": 3338150, "members": [{"type": "way", "ref": 247585485, "role": "outer"}, {"type": "way", "ref": 217132059, "role": "inner"}], "tags": {"addr:housename": "Palau del Lloctinent", "alt_name": "Palau del Lloctinent", "amenity": "library", "building": "palace", "building:levels": "9", "building:levels:underground": "1", "castle_type": "palace", "historic": "castle", "name": "Arxiu de la Corona d'Arag\u00f3", "name:ca": "Arxiu de la Corona d'Arag\u00f3", "office": "government", "old_name": "Arxiu Reial de Barcelona", "tourism": "attraction", "type": "multipolygon", "website": "https://patrimoni.gencat.cat/ca/coleccio/arxiu-de-la-corona-darago", "wikidata": "Q3571546", "wikipedia": "ca:Arxiu de la Corona d'Arag\u00f3"}}, {"type": "relation", "id": 7323122, "members": [{"type": "way", "ref": 64738318, "role": "outer"}, {"type": "way", "ref": 499388601, "role": "outer"}], "tags": {"amenity": "library", "building": "industrial", "building:levels": "4", "building:levels:underground": "1", "building:material": "brick", "building:use": "library", "internet_access": "wlan", "internet_access:ssid": "eduroam", "name": "La F\u00e0brica", "name:ca": "La F\u00e0brica", "old_name": "Ca l'Arany\u00f3", "opening_hours": "Mo-Fr 08:00-21:00", "operator": "Universitat Pompeu Fabra", "roof:material": "roof_tiles", "roof:orientation": "along", "roof:shape": "gabled", "type": "multipolygon", "wheelchair": "yes"}}, {"type": "relation", "id": 12415348, "members": [{"type": "way", "ref": 263234047, "role": "outer"}, {"type": "way", "ref": 914698938, "role": "outer"}], "tags": {"access": "yes", "addr:city": "Barcelona", "addr:country": "ES", "addr:housenumber": "135-145", "addr:street": "Carrer de la Murtra", "amenity": "library", "building": "yes", "name": "Biblioteca El Carmel - Juan Mars\u00e9", "name:ca": "Biblioteca El Carmel - Juan Mars\u00e9", "operator": "Diputaci\u00f3 de Barcelona", "type": "multipolygon", "wikidata": "Q85693316"}}]}