{"version": 0.6, "generator": "Overpass API 0.7.62.4 2390de5a", "osm3s": {"timestamp_osm_base": "2025-01-20T23:16:29Z", "copyright": "The data included in this document is from www.openstreetmap.org. The data is made available under ODbL."}, "elements": [{"type": "node", "id": 251154465, "lat": 52.3762463, "lon": 4.9081983, "tags": {"addr:city": "Amsterdam", "addr:housenumber": "143", "addr:postcode": "1011DL", "addr:street": "Oosterdokskade", "air_conditioning": "yes", "amenity": "library", "email": "klantenservice@oba.nl", "internet_access": "wlan", "internet_access:fee": "no", "name": "OBA Oosterdok", "name:en": "Amsterdam Public Library Oosterdok", "opening_hours": "Mo-Fr 08:00-22:00; Sa-Su 10:00-20:00; Jan 1,Sep 23,Dec 25 off", "operator": "OBA", "operator:type": "public", "operator:wikidata": "Q2105660", "phone": "+31 20 523 0900", "ref:isil": "NL-0800070000", "source": "BAG", "source:date": "2014-03-24", "toilets": "yes", "website": "https://www.oba.nl/openingstijden/detail.199270.html/oba-oosterdok/", "wheelchair": "yes", "wikidata": "Q50413436", "wikimedia_commons": "Category:Openbare Bibliotheek Amsterdam - Centrale bibliotheek"}}, {"type": "node", "id": 279185367, "lat": 52.3452848, "lon": 4.8558875, "tags": {"addr:city": "Amsterdam", "addr:country": "NL", "addr:housenumber": "18", "addr:postcode": "1076DN", "addr:street": "Laan der Hesperiden", "amenity": "library", "email": "klantenservice@oba.nl", "name": "OBA Olympisch Kwartier", "operator": "OBA", "operator:type": "public", "operator:wikidata": "Q2105660", "phone": "+31 20 523 0900", "source": "BAG", "source:date": "2014-03-24", "website": "https://www.oba.nl/openingstijden/detail.199280.html/oba-olympisch-kwartier/", "wheelchair": "yes", "wikidata": "Q60290418"}}, {"type": "node", "id": 324817976, "lat": 52.3526099, "lon": 4.8826015, "tags": {"addr:city": "Amsterdam", "addr:country": "NL", "addr:housenumber": "430", "addr:postcode": "1071TT", "addr:street": "Roelof Hartplein", "amenity": "library", "email": "klantenservice@oba.nl", "name": "OBA Roelof Hartplein", "operator": "OBA", "operator:type": "public", "operator:wikidata": "Q2105660", "phone": "+31 20 523 0900", "source": "BAG", "source:date": "2014-03-24", "website": "https://www.oba.nl/openingstijden/detail.199284.html/oba-roelof-hartplein/", "wheelchair": "yes", "wikidata": "Q60290426"}}, {"type": "node", "id": 412161775, "lat": 52.3326071, "lon": 4.8759451, "tags": {"addr:city": "Amsterdam", "addr:country": "NL", "addr:housenumber": "5", "addr:postcode": "1082LT", "addr:street": "Willem van Weldammelaan", "amenity": "library", "email": "klantenservice@oba.nl", "name": "OBA Buitenveldert", "operator": "OBA", "operator:type": "public", "operator:wikidata": "Q2105660", "phone": "+31 20 523 0900", "source": "BAG", "source:date": "2014-03-24", "website": "https://www.oba.nl/openingstijden/detail.1442047.html/oba-buitenveldert/", "wheelchair": "yes", "wikidata": "Q60290387"}}, {"type": "node", "id": 432855895, "lat": 52.3635334, "lon": 4.9114441, "tags": {"access": "private", "alt_name": "Library Learning Centre", "amenity": "library", "name": "LLC", "old_name": "Pierson-R\u00e9v\u00e9sz-bibliotheek", "operator": "UvA", "website": "https://uba.uva.nl/locaties/library-learning-centre-roeterseilandcampus.html"}}, {"type": "node", "id": 432862179, "lat": 52.3676855, "lon": 4.8897127, "tags": {"addr:city": "Amsterdam", "addr:housenumber": "425", "addr:postcode": "1012WP", "addr:street": "Singel", "alt_name:en": "University of Amsterdam Library", "amenity": "library", "name": "Universiteitsbibliotheek", "name:en": "Amsterdam University Library", "operator": "Universiteit van Amsterdam", "operator:wikidata": "Q214341", "phone": "+31 20 525 1405", "source": "BAG", "source:date": "2014-02-11", "website": "https://uba.uva.nl/", "wheelchair": "yes", "wikidata": "Q2017571", "wikimedia_commons": "Category:Bibliotheek Universiteit van Amsterdam", "wikipedia": "nl:Universiteitsbibliotheek van Amsterdam"}}, {"type": "node", "id": 1278624660, "lat": 52.3641458, "lon": 4.9388798, "tags": {"addr:city": "Amsterdam", "addr:housenumber": "2", "addr:postcode": "1094HW", "addr:street": "Javaplein", "amenity": "library", "email": "javaplein@oba.nl", "name": "OBA Javaplein", "old_name": "Bibliotheek Indische Buurt", "operator": "OBA", "operator:type": "public", "operator:wikidata": "Q2105660", "phone": "+31 20 523 0900", "source": "BAG", "source:date": "2014-03-24", "website": "https://www.oba.nl/openingstijden/detail.1442052.html", "wheelchair": "yes", "wikidata": "Q60290416"}}, {"type": "node", "id": 1386072785, "lat": 52.3690197, "lon": 4.939193, "tags": {"addr:city": "Amsterdam", "addr:country": "NL", "addr:housenumber": "31", "addr:postcode": "1019AT", "addr:street": "Cruquiusweg", "amenity": "library", "name": "Internationaal Instituut voor Sociale Geschiedenis", "source": "local knowledge", "website": "https://www.socialhistory.org", "wheelchair": "yes"}}, {"type": "node", "id": 2081487344, "lat": 52.3589218, "lon": 4.8068695, "tags": {"addr:city": "Amsterdam", "addr:housenumber": "16", "addr:postcode": "1068EL", "addr:street": "Osdorpplein", "amenity": "library", "email": "klantenservice@oba.nl", "fax": "+31 20 610 0991", "name": "OBA Osdorp", "opening_hours": "Mo 14:00-17:30; Tu-We, Fr 09:30-17:30; Sa 11:00-17:00; Th 09:30-20:00", "operator": "OBA", "operator:type": "public", "operator:wikidata": "Q2105660", "phone": "+31 20 523 0900", "website": "https://www.oba.nl/vestigingen/oba-osdorp.html", "wheelchair": "yes", "wikidata": "Q60290393"}}, {"type": "node", "id": 2297220025, "lat": 52.3324721, "lon": 4.9385384, "tags": {"addr:city": "Duivendrecht", "addr:housenumber": "60", "addr:postcode": "1115CX", "addr:street": "Dorpsplein", "amenity": "library", "email": "klantenservice@oba.nl", "name": "OBA Duivendrecht", "operator": "OBA", "operator:type": "public", "operator:wikidata": "Q2105660", "phone": "+31 20 523 0900", "source": "BAG", "source:date": "2014-03-24", "website": "https://www.oba.nl/openingstijden/detail.199296.html", "wheelchair": "yes", "wikidata": "Q60290412"}}, {"type": "node", "id": 2321844596, "lat": 52.3796714, "lon": 4.8720423, "tags": {"addr:city": "Amsterdam", "addr:housenumber": "615", "addr:postcode": "1051HE", "addr:street": "Van Hallstraat", "amenity": "library", "email": "klantenservice@oba.nl", "name": "OBA Staatsliedenbuurt", "opening_hours": "Tu-Fr 09:30-17:30; Sa 11:00-17:00", "operator": "OBA", "operator:type": "public", "operator:wikidata": "Q2105660", "phone": "+31 20 523 0900", "source": "BAG", "source:date": "2014-03-24", "website": "https://www.oba.nl/openingstijden/detail.1442061.html/oba-staatsliedenbuurt/", "wheelchair": "yes", "wikidata": "Q60290431"}}, {"type": "node", "id": 2678712018, "lat": 52.3693887, "lon": 4.8502319, "tags": {"addr:city": "Amsterdam", "addr:country": "NL", "addr:housenumber": "103", "addr:postcode": "1057CA", "addr:street": "Mercatorplein", "amenity": "library", "check_date": "2024-08-24", "email": "klantenservice@oba.nl", "name": "OBA Mercatorplein", "opening_hours": "Tu-Fr 09:30-17:30; Sa 11:00-17:00", "operator": "OBA", "operator:type": "public", "operator:wikidata": "Q2105660", "phone": "+31 20 523 0900", "source": "BAG", "source:date": "2014-03-24", "website": "https://www.oba.nl/openingstijden/detail.199277.html", "wheelchair": "yes", "wikidata": "Q60290398"}}, {"type": "node", "id": 2722023232, "lat": 52.3680936, "lon": 4.8863164, "tags": {"addr:city": "Amsterdam", "addr:housenumber": "380", "addr:postcode": "1016CJ", "addr:street": "Herengracht", "amenity": "library", "name": "NIOD Instituut voor Oorlogs-, Holocaust- en Genocidestudies.", "short_name": "NIOD", "short_name:en": "NIOD", "source": "BAG", "source:date": "2014-02-11", "toilets:wheelchair": "yes", "wheelchair": "yes"}}, {"type": "node", "id": 2742996051, "lat": 52.3655771, "lon": 4.9147693, "tags": {"addr:city": "Amsterdam", "addr:housenumber": "45", "addr:postcode": "1018DC", "addr:street": "Plantage Middenlaan", "amenity": "library", "name": "Artis Bibliotheek", "source": "BAG", "source:date": "2014-03-24", "wikidata": "Q17298534", "wikimedia_commons": "Category:Artis Bibliotheek", "wikipedia": "nl:Artis Bibliotheek"}}, {"type": "node", "id": 2772298378, "lat": 52.366904, "lon": 4.8688921, "tags": {"addr:city": "Amsterdam", "addr:country": "NL", "addr:housenumber": "10", "addr:postcode": "1053RT", "addr:street": "Hannie Dankbaarpassage", "amenity": "library", "email": "klantenservice@oba.nl", "internet_access": "wlan", "name": "OBA De Hallen", "old_name": "Bibliotheek Kinkerbuurt", "opening_hours": "Mo-Th 09:30-17:30; Fr 09:30-20:00; Sa 11:00-17:00; Su 13:00-16:30", "operator": "OBA", "operator:type": "public", "operator:wikidata": "Q2105660", "phone": "+31 20 523 0900", "website": "https://www.oba.nl/openingstijden/detail.1442053.html", "wikidata": "Q60290390"}}, {"type": "node", "id": 2788129544, "lat": 52.3889092, "lon": 4.8799997, "tags": {"addr:city": "Amsterdam", "addr:housenumber": "490", "addr:postcode": "1013SZ", "addr:street": "Spaarndammerstraat", "air_conditioning": "yes", "amenity": "library", "check_date": "2024-11-15", "email": "klantenservice@oba.nl", "internet_access": "wlan", "name": "OBA Spaarndammerbuurt", "opening_hours": "Mo 14:00-17:30; Tu-Fr 09:30-17:30; Sa 11:00-17:00", "operator": "OBA", "operator:type": "public", "operator:wikidata": "Q2105660", "phone": "+31 20 523 0900", "source": "BAG", "source:date": "2014-03-24", "website": "https://www.oba.nl/vestigingen/oba-spaarndammerbuurt.html", "wheelchair": "yes", "wikidata": "Q60290410"}}, {"type": "node", "id": 2793322501, "lat": 52.3786962, "lon": 4.8199166, "tags": {"addr:city": "Amsterdam", "addr:housenumber": "103", "addr:postcode": "1063JN", "addr:street": "Slotermeerlaan", "amenity": "library", "email": "klantenservice@oba.nl", "name": "OBA Slotermeer", "operator": "OBA", "operator:type": "public", "operator:wikidata": "Q2105660", "phone": "+31 20 523 0900", "source": "BAG", "source:date": "2014-03-24", "website": "https://www.oba.nl/openingstijden/detail.1442059.html/oba-slotermeer/", "wikidata": "Q60290394"}}, {"type": "node", "id": 2793473647, "lat": 52.3780277, "lon": 4.8025806, "tags": {"addr:city": "Amsterdam", "addr:housenumber": "3", "addr:postcode": "1067DD", "addr:street": "Albardakade", "amenity": "library", "email": "klantenservice@oba.nl", "name": "OBA Geuzenveld", "operator": "OBA", "operator:type": "public", "operator:wikidata": "Q2105660", "phone": "+31 20 523 0900", "source": "BAG", "source:date": "2014-03-24", "website": "https://www.oba.nl/openingstijden/detail.1442051.html/oba-geuzenveld/", "wikidata": "Q60290388"}}, {"type": "node", "id": 2808743217, "lat": 52.3787701, "lon": 4.8512273, "tags": {"addr:city": "Amsterdam", "addr:housenumber": "233", "addr:postcode": "1055DV", "addr:street": "Bos en Lommerweg", "amenity": "library", "email": "klantenservice@oba.nl", "name": "OBA Bos en Lommer", "note": "new address since 2016.", "operator": "OBA", "operator:type": "public", "operator:wikidata": "Q2105660", "phone": "+31 20 523 0900", "source": "BAG", "source:date": "2014-03-24", "website": "https://www.oba.nl/openingstijden/detail.1442046.html", "wheelchair": "yes", "wikidata": "Q60290415"}}, {"type": "node", "id": 2826146001, "lat": 52.358075, "lon": 4.9262497, "tags": {"addr:city": "Amsterdam", "addr:housenumber": "44", "addr:postcode": "1092CL", "addr:street": "Linnaeusstraat", "amenity": "library", "email": "linnaeus@oba.nl", "name": "OBA Linnaeus", "opening_hours": "Mo 14:00-17:30; Tu,We,Fr,Sa 09:30-17:30; Th 09:30-20:00", "operator": "OBA", "operator:type": "public", "operator:wikidata": "Q2105660", "phone": "+31 20 523 0900", "source": "BAG", "source:date": "2014-03-24", "toilets:wheelchair": "yes", "website": "https://www.oba.nl/openingstijden/detail.199271.html/oba-linnaeus/", "wheelchair": "yes", "wikidata": "Q60290392"}}, {"type": "node", "id": 2827405230, "lat": 52.2953275, "lon": 4.9075754, "tags": {"addr:city": "Ouderkerk aan de Amstel", "addr:housenumber": "15", "addr:postcode": "1191CD", "addr:street": "Koningin Julianalaan", "amenity": "library", "email": "klantenservice@oba.nl", "name": "OBA Ouderkerk", "operator": "OBA", "operator:type": "public", "operator:wikidata": "Q2105660", "phone": "+31 20 523 0900", "source": "BAG", "source:date": "2014-03-24", "website": "https://www.oba.nl/openingstijden/detail.199297.html/oba-ouderkerk/", "wikidata": "Q60290432"}}, {"type": "node", "id": 2839358053, "lat": 52.3399339, "lon": 4.9432748, "tags": {"amenity": "library", "name": "Openbare Leeszaal en Bibliotheek", "name:en": "Amsterdam Public Library"}}, {"type": "node", "id": 2842394971, "lat": 52.3566548, "lon": 4.996847, "tags": {"addr:city": "Amsterdam", "addr:housenumber": "79", "addr:postcode": "1087GN", "addr:street": "Diemerparklaan", "amenity": "library", "email": "klantenservice@oba.nl", "name": "OBA IJburg", "opening_hours": "We-Fr 09:30-17:30; Mo-Tu 14:00-17:30; Sa 11:30-17:30", "operator": "OBA", "operator:type": "public", "operator:wikidata": "Q2105660", "phone": "+31 20 523 0900", "source": "BAG", "source:date": "2014-05-07", "website": "https://www.oba.nl/openingstijden/detail.1442062.html/oba-ijburg/", "wheelchair": "yes", "wikidata": "Q60290430"}}, {"type": "node", "id": 2846666788, "lat": 52.4178054, "lon": 4.8929718, "tags": {"addr:city": "Amsterdam", "addr:housenumber": "21", "addr:postcode": "1035EG", "addr:street": "Molenwijk", "amenity": "library", "email": "klantenservice@oba.nl", "name": "OBA Molenwijk", "operator": "OBA", "operator:type": "public", "operator:wikidata": "Q2105660", "phone": "+31 20 523 0900", "source": "BAG", "source:date": "2014-05-07", "toilets:wheelchair": "yes", "website": "https://www.oba.nl/openingstijden/detail.199278.html", "wheelchair": "yes", "wikidata": "Q60290407"}}, {"type": "node", "id": 2847285456, "lat": 52.4080958, "lon": 4.9168938, "tags": {"addr:city": "Amsterdam", "addr:housenumber": "249", "addr:postcode": "1034CR", "addr:street": "Bezaanjachtplein", "amenity": "library", "email": "klantenservice@oba.nl", "name": "OBA Banne", "operator": "OBA", "operator:type": "public", "operator:wikidata": "Q2105660", "phone": "+31 20 523 0900", "source": "BAG", "source:date": "2014-05-07", "website": "https://www.oba.nl/openingstijden/detail.1442045.html/oba-banne/", "wikidata": "Q60290428"}}, {"type": "node", "id": 2862327848, "lat": 52.2962871, "lon": 4.9764586, "tags": {"addr:city": "Amsterdam", "addr:housenumber": "1", "addr:postcode": "1106AX", "addr:street": "Rossumplein", "alt_name": "Bibliotheek Reigersbos", "amenity": "library", "email": "klantenservice@oba.nl", "internet_access": "wlan", "name": "OBA Reigersbos", "opening_hours": "Mo 14:00-17:30; Tu 09:30-20:00; We-Fr 09:30-17:30; Sa 11:00-17:00", "operator": "OBA", "operator:type": "public", "operator:wikidata": "Q2105660", "phone": "+31 20 523 0900", "source": "BAG", "source:date": "2014-05-07", "website": "https://www.oba.nl/openingstijden/detail.1442058.html/oba-reigersbos/", "wheelchair": "yes", "wikidata": "Q60290425"}}, {"type": "node", "id": 2862834835, "lat": 52.3153892, "lon": 4.9535813, "tags": {"addr:city": "Amsterdam", "addr:housenumber": "393", "addr:postcode": "1102DK", "addr:street": "Bijlmerplein", "amenity": "library", "email": "klantenservice@oba.nl", "internet_access": "wlan", "name": "OBA Bijlmerplein", "opening_hours": "Tu-Sa 11:00-17:00; Tu-Fr 09:30-11:00; Mo-Fr 17:00-17:30; Th 17:30-20:00", "operator": "OBA", "operator:type": "public", "operator:wikidata": "Q2105660", "phone": "+31 20 523 0900", "source": "BAG", "source:date": "2014-05-07", "website": "https://www.oba.nl/openingstijden/detail.1442048.html/oba-bijlmerplein/", "wikidata": "Q60290413"}}, {"type": "node", "id": 3170699902, "lat": 52.3362914, "lon": 4.8364824, "tags": {"access": "private", "amenity": "library", "name": "Bieb", "website": "https://www.ons-buiten.nl/leden/bieb/bieb.html"}}, {"type": "node", "id": 3951558425, "lat": 52.3931152, "lon": 4.9548315, "tags": {"addr:city": "Amsterdam", "addr:housenumber": "302", "addr:postcode": "1024NB", "addr:street": "Waterlandplein", "amenity": "library", "ele": "0.68", "email": "klantenservice@oba.nl", "name": "OBA Waterlandplein", "opening_hours": "Mo 14:00-17:30; Tu-We,Fr 09:30-17:30; Th 09:30-20:00; Sa 11:00-17:00; PH closed", "operator": "OBA", "operator:type": "public", "operator:wikidata": "Q2105660", "phone": "+31 20 523 0900", "ref:isil": "NL-0800071012", "source": "BAG", "source:date": "2014-05-07", "toilets:wheelchair": "designated", "website": "https://www.oba.nl/openingstijden/detail.1442054.html/oba-waterlandplein/", "wheelchair": "yes", "wikidata": "Q60290408"}}, {"type": "node", "id": 4249153858, "lat": 52.3909375, "lon": 4.9117961, "tags": {"addr:city": "Amsterdam", "addr:housenumber": "1", "addr:postcode": "1031AE", "addr:street": "Gentiaanstraat", "amenity": "library", "email": "klantenservice@oba.nl", "name": "OBA Van der Pek", "operator": "OBA", "operator:type": "public", "operator:wikidata": "Q2105660", "phone": "+31 20 523 0900", "source": "BAG", "source:date": "2016-06-17", "website": "https://www.oba.nl/openingstijden/detail.199275.html/oba-van-der-pek/", "wikidata": "Q60290396"}}, {"type": "node", "id": 4906785858, "lat": 52.364284, "lon": 4.8350577, "tags": {"addr:city": "Amsterdam", "addr:housenumber": "340", "addr:postcode": "1061AX", "addr:street": "Postjesweg", "amenity": "library", "email": "klantenservice@oba.nl", "name": "OBA Postjesweg", "operator": "OBA", "operator:type": "public", "operator:wikidata": "Q2105660", "phone": "+31 20 523 0900", "source": "BAG", "source:date": "2017-06-10", "website": "https://www.oba.nl/openingstijden/detail.1442060.html/oba-postjesweg/"}}, {"type": "node", "id": 7961221651, "lat": 52.3757167, "lon": 4.7461977, "tags": {"addr:city": "Zwanenburg", "addr:housenumber": "133A", "addr:postcode": "1161CN", "addr:street": "Dennenlaan", "amenity": "library", "name": "C. Bibliotheek Zwanenburg", "operator": "C.", "operator:wikidata": "Q57591817", "phone": "+31 20 497 4415", "source": "BAG", "source:date": "2020-10-01", "website": "https://www.cpunt.nl/praktisch/c-bibliotheek-zwanenburg", "wikidata": "Q63385163"}}, {"type": "node", "id": 8400903618, "lat": 52.3226314, "lon": 4.9758992, "tags": {"amenity": "library", "email": "klantenservice@oba.nl", "fixme": "OBA Ganzenhoef wordt niet weergegeven op de website van OBA. Bestaat deze nog?", "name": "OBA Ganzenhoef", "operator": "OBA", "operator:type": "public", "operator:wikidata": "Q2105660", "phone": "+31 20 523 0900"}}, {"type": "node", "id": 9139791976, "lat": 52.353355, "lon": 4.9063659, "tags": {"addr:city": "Amsterdam", "addr:housenumber": "1", "addr:postcode": "1074JN", "addr:street": "Cullinanplein", "amenity": "library", "email": "klantenservice@oba.nl", "name": "OBA CC Amstel", "operator": "OBA", "operator:type": "public", "operator:wikidata": "Q2105660", "phone": "+31 20 523 0900", "website": "https://www.oba.nl/openingstijden/detail.1442049.html/oba-cc-amstel/", "wikidata": "Q60290434"}}, {"type": "node", "id": 11099355065, "lat": 52.3419009, "lon": 4.9652318, "tags": {"addr:city": "Diemen", "addr:housenumber": "104", "addr:postcode": "1111HL", "addr:street": "Ouddiemerlaan", "amenity": "library", "email": "diemen@oba.nl", "internet_access": "wlan", "name": "OBA Diemen", "opening_hours": "Tu-Th 09:30-17:30; Mo 14:00-17:30; Sa 11:00-17:00; Fr 09:30-20:00", "operator": "OBA", "operator:type": "public", "operator:wikidata": "Q2105660", "phone": "+31 20 523 0900", "website": "https://www.oba.nl/openingstijden/detail.199295.html/oba-diemen/", "wikidata": "Q60290411"}}, {"type": "node", "id": 11143573847, "lat": 52.3783003, "lon": 4.8432192, "tags": {"amenity": "library", "name": "Minibieb Villy little library"}}, {"type": "node", "id": 11150165173, "lat": 52.3701745, "lon": 4.8695074, "tags": {"amenity": "library", "name": "Little Free library"}}, {"type": "node", "id": 11200091946, "lat": 52.362323, "lon": 4.9114461, "tags": {"amenity": "library", "internet_access": "yes", "level": "5", "name": "CEDLA Library", "name:en": "Centre for Latin American Research and Documentation Library", "opening_hours": "Mo 11:00-17:00; Tu-Fr 10:00-17:00", "website": "https://uba.uva.nl/en/contact/locations-and-opening-hours/roeterseiland-campus/cedla-latin-american-research-and-documentation-centre.html", "wikidata": "Q122675082"}}, {"type": "node", "id": 11528232772, "lat": 52.3345557, "lon": 4.8674917, "tags": {"addr:city": "Amsterdam", "addr:housenumber": "1105", "addr:postcode": "1081HV", "addr:street": "De Boelelaan / VU", "amenity": "library", "internet_access": "yes", "internet_access:fee": "no", "name": "Universiteitsbibliotheek", "opening_hours": "Mo-Fr 08:30-22:00; Sa-Su 10:00-18:00", "operator": "Vrije Universiteit Amsterdam", "operator:type": "public"}}, {"type": "node", "id": 11591914914, "lat": 52.3570482, "lon": 4.9942815, "tags": {"addr:city": "Amsterdam", "addr:housenumber": "46", "addr:postcode": "1087EM", "addr:street": "Talbotstraat", "amenity": "library", "full_name": "FlexBieb IJburg", "name": "FlexBieb", "operator:type": "community", "website": "https://www.flexbieb.nl", "wikidata": "Q124438026"}}]}