{"version": 0.6, "generator": "Overpass API 0.7.62.4 2390de5a", "osm3s": {"timestamp_osm_base": "2025-01-20T22:58:10Z", "copyright": "The data included in this document is from www.openstreetmap.org. The data is made available under ODbL."}, "elements": [{"type": "node", "id": 257535578, "lat": 42.3088801, "lon": -71.0561422, "tags": {"addr:city": "Dorchester", "addr:housenumber": "1216", "addr:postcode": "02125", "addr:state": "MA", "addr:street": "Dorchester Avenue", "amenity": "library", "attribution": "Office of Geographic and Environmental Information (MassGIS)", "name": "Campbell Resource Center Library", "office": "Boston Public Schools", "region": "Boston", "source_url": "http://mass.gov/mgis/libraries.htm", "type": "School"}}, {"type": "node", "id": 257535610, "lat": 42.3368236, "lon": -71.098744, "tags": {"addr:city": "Boston", "addr:housenumber": "621", "addr:state": "MA", "addr:street": "Huntington Avenue", "amenity": "library", "attribution": "Office of Geographic and Environmental Information (MassGIS)", "name": "Morton R. Godine Library", "operator": "Massachusetts College Of Art and Design", "region": "Boston", "source:url": "http://mass.gov/mgis/libraries.htm", "type": "Academic"}}, {"type": "node", "id": 257535635, "lat": 42.3508011, "lon": -71.0665318, "tags": {"addr:city": "Boston", "addr:housenumber": "154", "addr:state": "MA", "addr:street": "Stuart Street", "amenity": "library", "attribution": "Office of Geographic and Environmental Information (MassGIS)", "name": "New England School of Law Library", "office": "New England School Of Law", "region": "Boston", "source:url": "http://mass.gov/mgis/libraries.htm", "type": "Academic"}}, {"type": "node", "id": 257535636, "lat": 42.3570746, "lon": -71.148036, "tags": {"addr:city": "Boston", "addr:housenumber": "1", "addr:postcode": "02135", "addr:state": "MA", "addr:street": "Guest Street", "amenity": "library", "gnis:feature_id": "2345022", "library": "special", "name": "WGBH Media Library and Archives", "operator": "WGBH Educational Foundation", "website": "https://openvault.wgbh.org/visiting-the-archives"}}, {"type": "node", "id": 257535644, "lat": 42.3627265, "lon": -71.0674149, "tags": {"addr:city": "Boston", "addr:housenumber": "55", "addr:state": "MA", "addr:street": "Fruit Street", "amenity": "library", "attribution": "Office of Geographic and Environmental Information (MassGIS)", "name": "Treadwell Library", "office": "Massachusetts General Hospital", "region": "Boston", "source:url": "http://mass.gov/mgis/libraries.htm", "type": "Special"}}, {"type": "node", "id": 257535672, "lat": 42.3517086, "lon": -71.0674336, "tags": {"addr:city": "Boston", "addr:housenumber": "10", "addr:postcode": "02116", "addr:state": "MA", "addr:street": "Park Plaza", "amenity": "library", "attribution": "Office of Geographic and Environmental Information (MassGIS)", "ele": "5", "gnis:feature_id": "2341462", "name": "Massachusetts State Transportation Library", "office": "State Transportation Library", "region": "Boston", "source": "USGS Geonames", "source:url": "http://mass.gov/mgis/libraries.htm", "type": "Special"}}, {"type": "node", "id": 257535676, "lat": 42.3388012, "lon": -71.0967338, "tags": {"addr:city": "Boston", "addr:housenumber": "230", "addr:postcode": "02115", "addr:state": "MA", "addr:street": "Fenway", "amenity": "library", "attribution": "Office of Geographic and Environmental Information (MassGIS)", "name": "W. Van Alan Clark, Jr. Library", "office": "School Of The Museum Of Fine Arts", "region": "Boston", "type": "Academic"}}, {"type": "node", "id": 257535693, "lat": 42.3812739, "lon": -71.0608723, "tags": {"addr:city": "Charlestown", "addr:housenumber": "240", "addr:postcode": "02129", "addr:state": "MA", "addr:street": "Medford Street", "amenity": "library", "attribution": "Office of Geographic and Environmental Information (MassGIS)", "name": "Charlestown High School Library", "office": "Charlestown High School", "region": "Boston", "source_url": "http://mass.gov/mgis/libraries.htm", "type": "School"}}, {"type": "node", "id": 257535701, "lat": 42.3167344, "lon": -71.0456409, "tags": {"addr:city": "Dorchester", "addr:housenumber": "150", "addr:postcode": "02125", "addr:state": "MA", "addr:street": "William T. Morrissey Boulevard", "amenity": "library", "attribution": "Office of Geographic and Environmental Information (MassGIS)", "name": "Corcoran Library", "office": "Boston College High School", "region": "Boston", "source_url": "http://mass.gov/mgis/libraries.htm", "type": "School"}}, {"type": "node", "id": 257535792, "lat": 42.329771, "lon": -71.1068275, "tags": {"addr:city": "Boston", "addr:housenumber": "125", "addr:state": "MA", "addr:street": "Parker Hill Avenue", "amenity": "library", "attribution": "Office of Geographic and Environmental Information (MassGIS)", "name": "Paul E. Woodard Health Sciences Library", "operator": "New England Baptist Hospital", "region": "Boston", "source:url": "http://mass.gov/mgis/libraries.htm", "type": "Special"}}, {"type": "node", "id": 257535794, "lat": 42.3410229, "lon": -71.1075466, "tags": {"addr:city": "Boston", "addr:postcode": "02215", "addr:state": "MA", "addr:street": "Pilgrim Road", "amenity": "library", "attribution": "Office of Geographic and Environmental Information (MassGIS)", "name": "Winsor School Library", "operator": "Winsor School", "region": "Boston", "source:url": "http://mass.gov/mgis/libraries.htm", "type": "School"}}, {"type": "node", "id": 257535860, "lat": 42.3589785, "lon": -71.061772, "tags": {"addr:city": "Boston", "addr:housenumber": "8", "addr:postcode": "02133", "addr:street": "Ashburton Place", "amenity": "library", "attribution": "Office of Geographic and Environmental Information (MassGIS)", "name": "Mildred F. Sawyer Library", "office": "Suffolk University", "region": "Boston", "source:url": "http://mass.gov/mgis/libraries.htm", "type": "Academic", "website": "https://www.suffolk.edu/sawlib/", "wheelchair": "yes"}}, {"type": "node", "id": 257535918, "lat": 42.3114342, "lon": -71.0733773, "tags": {"addr:city": "Dorchester", "addr:housenumber": "206", "addr:state": "MA", "addr:street": "Magnolia Street", "amenity": "library", "attribution": "Office of Geographic and Environmental Information (MassGIS)", "name": "Quincy Dickerman Elementary School Library", "office": "Quincy Dickerman Elementary School", "region": "Boston", "source:url": "http://mass.gov/mgis/libraries.htm", "type": "School"}}, {"type": "node", "id": 257535981, "lat": 42.3524539, "lon": -71.143259, "tags": {"addr:city": "Brighton", "addr:housenumber": "617", "addr:postcode": "02135", "addr:state": "MA", "addr:street": "Cambridge Street", "amenity": "library", "name": "Mount Saint Joseph Academy Library", "office": "Mt. St. Joseph Academy", "region": "Boston", "source": "USGS Geonames", "source:url": "http://mass.gov/mgis/libraries.htm", "type": "School"}}, {"type": "node", "id": 257536133, "lat": 42.3454876, "lon": -71.0903462, "tags": {"addr:city": "Boston", "addr:housenumber": "8", "addr:postcode": "02215", "addr:state": "MA", "addr:street": "Fenway", "amenity": "library", "attribution": "Office of Geographic and Environmental Information (MassGIS)", "name": "Albert Alphin Library", "office": "The Boston Conservatory", "region": "Boston", "source:url": "http://mass.gov/mgis/libraries.htm", "type": "Academic"}}, {"type": "node", "id": 257536149, "lat": 42.3522439, "lon": -71.0655492, "tags": {"addr:city": "Boston", "addr:housenumber": "120", "addr:postcode": "02116", "addr:state": "MA", "addr:street": "Boylston Street", "amenity": "library", "attribution": "Office of Geographic and Environmental Information (MassGIS)", "check_date": "2023-09-26", "name": "Emerson College Library", "region": "Boston", "source:url": "http://mass.gov/mgis/libraries.htm", "type": "Academic"}}, {"type": "node", "id": 257536173, "lat": 42.3083577, "lon": -71.0609723, "tags": {"addr:city": "Dorchester", "addr:housenumber": "1", "addr:postcode": "02122", "addr:state": "MA", "addr:street": "Parish Street", "amenity": "library", "attribution": "Office of Geographic and Environmental Information (MassGIS)", "name": "Mather Elementary School Library", "office": "Mather Elementary School", "region": "Boston", "source_url": "http://mass.gov/mgis/libraries.htm", "type": "School"}}, {"type": "node", "id": 257536220, "lat": 42.34609, "lon": -71.06345, "tags": {"addr:city": "Boston", "addr:housenumber": "321", "addr:postcode": "02118", "addr:state": "MA", "addr:street": "Harrison Avenue", "amenity": "library", "attribution": "Office of Geographic and Environmental Information (MassGIS)", "name": "Sylvan Engineering Information Center", "office": "Teradyne, Inc.", "region": "Boston", "source:url": "http://mass.gov/mgis/libraries.htm", "type": "Special"}}, {"type": "node", "id": 257536224, "lat": 42.3520334, "lon": -71.1203123, "tags": {"addr:city": "Boston", "addr:housenumber": "989", "addr:postcode": "02215", "addr:state": "MA", "addr:street": "Commonwealth Avenue", "amenity": "library", "attribution": "Office of Geographic and Environmental Information (MassGIS)", "name": "Adult Literacy Resource Center", "office": "Alri/Sabes Boston Regional Support Center", "region": "Boston", "source_url": "http://mass.gov/mgis/libraries.htm", "type": "Special-Institutional"}}, {"type": "node", "id": 257536231, "lat": 42.28995, "lon": -71.07146, "tags": {"addr:city": "Dorchester", "addr:housenumber": "622", "addr:postcode": "02124", "addr:state": "MA", "addr:street": "Washington Street", "amenity": "library", "attribution": "Office of Geographic and Environmental Information (MassGIS)", "name": "Greater Boston Center For Healthy Communities Resource Library", "office": "Greater Boston Center For Healthy Communities", "region": "Boston", "source_url": "http://mass.gov/mgis/libraries.htm", "type": "Special"}}, {"type": "node", "id": 257536260, "lat": 42.3384719, "lon": -71.0875505, "tags": {"addr:state": "MA", "alt_name": "The Globe Collections", "amenity": "library", "attribution": "Office of Geographic and Environmental Information (MassGIS)", "name": "The Boston Globe Library", "operator": "Northeastern University", "region": "Boston", "source_url": "http://mass.gov/mgis/libraries.htm", "type": "Special", "website": "https://globe.library.northeastern.edu/"}}, {"type": "node", "id": 257536373, "lat": 42.3578104, "lon": -71.0577759, "tags": {"addr:city": "Boston", "addr:housenumber": "250", "addr:postcode": "02108", "addr:state": "MA", "addr:street": "Washington Street", "amenity": "library", "attribution": "Office of Geographic and Environmental Information (MassGIS)", "name": "Massachusetts Department of Public Health Central Library", "office": "Massachusetts Department Of Public Health", "region": "Boston", "source:url": "http://mass.gov/mgis/libraries.htm", "type": "Special"}}, {"type": "node", "id": 257536397, "lat": 42.3520191, "lon": -71.0629688, "tags": {"addr:city": "Boston", "addr:housenumber": "178", "addr:state": "MA", "addr:street": "Tremont Street", "amenity": "library", "attribution": "Office of Geographic and Environmental Information (MassGIS)", "name": "Urban College of Boston Learning Resource Center", "office": "Urban College Of Boston", "region": "Boston", "source:url": "http://mass.gov/mgis/libraries.htm", "type": "Academic"}}, {"type": "node", "id": 257536456, "lat": 42.3163726, "lon": -71.0851334, "tags": {"addr:city": "Boston", "addr:housenumber": "205", "addr:state": "MA", "addr:street": "Townsend Street", "amenity": "library", "attribution": "Office of Geographic and Environmental Information (MassGIS)", "name": "Boston Latin Academy Library", "office": "Boston Latin Academy", "region": "Boston", "source_url": "http://mass.gov/mgis/libraries.htm", "type": "School"}}, {"type": "node", "id": 257536473, "lat": 42.3578627, "lon": -71.0624482, "tags": {"addr:city": "Boston", "addr:housenumber": "14", "addr:state": "MA", "addr:street": "Beacon Street", "amenity": "library", "attribution": "Office of Geographic and Environmental Information (MassGIS)", "name": "Congregational Library and Archives", "region": "Boston", "source:url": "http://mass.gov/mgis/libraries.htm", "type": "Special", "website": "https://www.congregationallibrary.org/"}}, {"type": "node", "id": 257536475, "lat": 42.3586922, "lon": -71.0575878, "tags": {"addr:city": "Boston", "addr:housenumber": "206", "addr:state": "MA", "addr:street": "Washington Street", "amenity": "library", "attribution": "Office of Geographic and Environmental Information (MassGIS)", "name": "The Bostonian Society Library and Special Collections", "office": "The Bostonian Society", "region": "Boston", "source:url": "http://mass.gov/mgis/libraries.htm", "type": "Special-Institutional"}}, {"type": "node", "id": 257536482, "lat": 42.3633915, "lon": -71.0694278, "tags": {"addr:city": "Boston", "addr:housenumber": "243", "addr:postcode": "02114", "addr:state": "MA", "addr:street": "Charles Street", "amenity": "library", "attribution": "Office of Geographic and Environmental Information (MassGIS)", "name": "The Libraries", "office": "Massachusetts Eye And Ear Infirmary", "region": "Boston", "source:url": "http://mass.gov/mgis/libraries.htm", "type": "Special-Medical"}}, {"type": "node", "id": 257536490, "lat": 42.3514733, "lon": -71.0486803, "tags": {"addr:city": "Boston", "addr:housenumber": "44", "addr:state": "MA", "addr:street": "Farnsworth Street", "amenity": "library", "attribution": "Office of Geographic and Environmental Information (MassGIS)", "name": "Research And Training Institute Library", "office": "John Snow, Inc.", "region": "Boston", "source:url": "http://mass.gov/mgis/libraries.htm", "type": "Special"}}, {"type": "node", "id": 257536494, "lat": 42.3462039, "lon": -71.0702198, "tags": {"addr:city": "Boston", "addr:housenumber": "41", "addr:postcode": "02116", "addr:state": "MA", "addr:street": "Berkeley Street", "amenity": "library", "attribution": "Office of Geographic and Environmental Information (MassGIS)", "ele": "3", "gnis:feature_id": "2341396", "name": "Lufkin Library", "office": "Benjamin Franklin Institute Of Technology", "region": "Boston", "source": "USGS Geonames", "source:url": "http://mass.gov/mgis/libraries.htm", "type": "Academic"}}, {"type": "node", "id": 257536519, "lat": 42.3589283, "lon": -71.0553015, "tags": {"addr:housenumber": "75", "addr:street": "State Street", "addr:unit": "701", "amenity": "library", "attribution": "Office of Geographic and Environmental Information (MassGIS)", "name": "Herman G. Dresser Library", "note": "In 2015 Camp, Dresser & McKee (now CDM Smith) has moved to 75 State St, suite 701", "office": "Camp, Dresser And Mckee", "region": "Metrowest", "source:url": "http://mass.gov/mgis/libraries.htm", "type": "Special"}}, {"type": "node", "id": 257536648, "lat": 42.301215, "lon": -71.1282428, "tags": {"addr:city": "Boston", "addr:housenumber": "1153", "addr:postcode": "02130", "addr:state": "MA", "addr:street": "Centre Street", "amenity": "library", "attribution": "Office of Geographic and Environmental Information (MassGIS)", "check_date": "2023-08-19", "name": "Medical Library", "office": "Faulkner Hospital", "region": "Boston", "source_url": "http://mass.gov/mgis/libraries.htm", "type": "Special-Medical"}}, {"type": "node", "id": 257536665, "lat": 42.3329215, "lon": -71.0709394, "tags": {"addr:city": "Boston", "addr:housenumber": "20", "addr:postcode": "02118", "addr:state": "MA", "addr:street": "Bradston Street", "amenity": "library", "attribution": "Office of Geographic and Environmental Information (MassGIS)", "name": "Suffolk County House of Corrections Library", "office": "Suffolk County House Of Corrections", "region": "Boston", "source_url": "http://mass.gov/mgis/libraries.htm", "type": "Special"}}, {"type": "node", "id": 257536736, "lat": 42.2991367, "lon": -71.1015014, "tags": {"addr:city": "Jamaica Plain", "addr:housenumber": "170", "addr:postcode": "02130", "addr:state": "MA", "addr:street": "Morton Street", "alt_name": "Lemuel Shattuck Hospital Medical Library", "amenity": "library", "attribution": "Office of Geographic and Environmental Information (MassGIS)", "ele": "15", "gnis:feature_id": "1973004", "name": "Bettencourt Medical Library", "office": "Lemuel Shattuck Hospital", "region": "Boston", "source": "USGS Geonames", "source_url": "http://mass.gov/mgis/libraries.htm", "type": "Special"}}, {"type": "node", "id": 257536752, "lat": 42.3569831, "lon": -71.0568523, "tags": {"addr:city": "Boston", "addr:housenumber": "5", "addr:postcode": "02109", "addr:state": "MA", "addr:street": "Post Office Square", "addr:unit": "Suite 100", "amenity": "library", "name": "EPA Region 1 Library", "phone": "+1 617 918 1990", "region": "Boston", "type": "Special", "website": "https://www.epa.gov/libraries/region-1-library-services"}}, {"type": "node", "id": 257536901, "lat": 42.3515705, "lon": -71.0485784, "tags": {"addr:city": "Boston", "addr:housenumber": "44", "addr:state": "MA", "addr:street": "Farnsworth Street", "amenity": "library", "attribution": "Office of Geographic and Environmental Information (MassGIS)", "name": "Resource Center", "office": "World Education/Sabes", "region": "Boston", "source:url": "http://mass.gov/mgis/libraries.htm", "type": "Special"}}, {"type": "node", "id": 257537001, "lat": 42.35559, "lon": -71.06053, "tags": {"addr:city": "Boston", "addr:housenumber": "1", "addr:state": "MA", "addr:street": "Winter Street", "amenity": "library", "attribution": "Office of Geographic and Environmental Information (MassGIS)", "name": "Massachusetts Environmental Library", "office": "Massachusetts Environmental", "region": "Boston", "source:url": "http://mass.gov/mgis/libraries.htm", "toilets": "yes", "type": "Special"}}, {"type": "node", "id": 257537005, "lat": 42.33834, "lon": -71.08225, "tags": {"addr:city": "Boston", "addr:housenumber": "801", "addr:state": "MA", "addr:street": "Tremont Street", "amenity": "library", "attribution": "Office of Geographic and Environmental Information (MassGIS)", "name": "Wayne S. Wright Community Resource Cent", "office": "The Multicultrual Aids Coalition, Inc.", "region": "Boston", "source_url": "http://mass.gov/mgis/libraries.htm", "type": "Special"}}, {"type": "node", "id": 257537023, "lat": 42.275538, "lon": -71.1721988, "tags": {"addr:city": "West Roxbury", "addr:housenumber": "1400", "addr:postcode": "02132", "addr:state": "MA", "addr:street": "VFW Parkway", "amenity": "library", "attribution": "Office of Geographic and Environmental Information (MassGIS)", "name": "Medical Library Veterans Administration Medical Center", "office": "V.A. Medical Center", "region": "Boston", "source_url": "http://mass.gov/mgis/libraries.htm", "type": "Special"}}, {"type": "node", "id": 257537033, "lat": 42.336164, "lon": -71.1069506, "tags": {"addr:city": "Boston", "addr:housenumber": "75", "addr:postcode": "02115", "addr:state": "MA", "addr:street": "Francis Street", "amenity": "library", "attribution": "Office of Geographic and Environmental Information (MassGIS)", "ele": "12", "gnis:feature_id": "2342024", "name": "Brigham and Women's Medical Library", "operator": "Brigham And Women's", "region": "Boston", "source": "USGS Geonames", "source:url": "http://mass.gov/mgis/libraries.htm", "type": "Special-Medical"}}, {"type": "node", "id": 257537155, "lat": 42.2776923, "lon": -71.1657802, "tags": {"addr:city": "West Roxbury", "addr:housenumber": "235", "addr:postcode": "02132", "addr:state": "MA", "addr:street": "Baker Street", "amenity": "library", "attribution": "Office of Geographic and Environmental Information (MassGIS)", "name": "Catholic Memorial High & Lower School Library", "office": "Catholic Memorial High & Lower School", "region": "Boston", "source_url": "http://mass.gov/mgis/libraries.htm", "type": "School"}}, {"type": "node", "id": 257537184, "lat": 42.358874, "lon": -71.0611127, "tags": {"addr:city": "Boston", "addr:housenumber": "1", "addr:place": "Pemberton Square", "addr:postcode": "02108", "addr:state": "MA", "addr:street": "Pemberton Square", "addr:unit": "4100", "amenity": "library", "attribution": "Office of Geographic and Environmental Information (MassGIS)", "name": "Social Law Library", "office": "Social Law Library", "phone": "+1-617-226-1500", "region": "Boston", "source:url": "http://mass.gov/mgis/libraries.htm", "type": "Special-Law", "website": "https://www.socialaw.com/", "wikidata": "Q7550701"}}, {"type": "node", "id": 257537188, "lat": 42.3413628, "lon": -71.0861271, "tags": {"addr:city": "Boston", "addr:housenumber": "33", "addr:postcode": "02115", "addr:state": "MA", "addr:street": "Gainsborough Street", "amenity": "library", "attribution": "Office of Geographic and Environmental Information (MassGIS)", "name": "Harriet M. Spaulding Library", "operator": "New England Conservatory Of Music", "region": "Boston", "source:url": "http://mass.gov/mgis/libraries.htm", "type": "Academic"}}, {"type": "node", "id": 257537239, "lat": 42.3432777, "lon": -71.0851429, "tags": {"addr:city": "Boston", "addr:housenumber": "300", "addr:street": "Massachusetts Avenue", "amenity": "library", "email": "libstaff@mfa.org", "name": "William Morris Hunt Memorial Library", "office": "Museum Of Fine Arts", "region": "Boston", "type": "Special", "website": "https://www.mfa.org/collections/libraries-and-archives"}}, {"type": "node", "id": 257537264, "lat": 42.3363949, "lon": -71.107225, "tags": {"addr:city": "Boston", "addr:housenumber": "75", "addr:postcode": "02115", "addr:state": "MA", "addr:street": "Francis Street", "amenity": "library", "attribution": "Office of Geographic and Environmental Information (MassGIS)", "ele": "11", "gnis:feature_id": "2341330", "name": "Kessler Health Education Library", "operator": "Brigham And Women's Hospital Bretholtz Center For Patient", "region": "Boston", "source": "USGS Geonames", "source:url": "http://mass.gov/mgis/libraries.htm", "type": "Special-Medical"}}, {"type": "node", "id": 257537362, "lat": 42.3501823, "lon": -71.0690611, "tags": {"addr:city": "Boston", "addr:housenumber": "250", "addr:postcode": "02116", "addr:state": "MA", "addr:street": "Stuart Street", "amenity": "library", "attribution": "Office of Geographic and Environmental Information (MassGIS)", "ele": "4", "gnis:feature_id": "2342003", "name": "Boston Renaissance Charter School Media Center", "office": "Boston Renaissance Charter School", "region": "Boston", "source": "USGS Geonames", "source:url": "http://mass.gov/mgis/libraries.htm", "type": "School"}}, {"type": "node", "id": 257537368, "lat": 42.357855, "lon": -71.062057}, {"type": "node", "id": 257537377, "lat": 42.3500662, "lon": -71.0622921, "tags": {"addr:city": "Boston", "addr:housenumber": "145", "addr:postcode": "02111", "addr:state": "MA", "addr:street": "Harrison Avenue", "amenity": "library", "attribution": "Office of Geographic and Environmental Information (MassGIS)", "ele": "5", "gnis:feature_id": "2344937", "name": "Tufts University Hirsh Health Sciences Library", "office": "Tufts University Health Sciences", "region": "Boston", "source": "USGS Geonames", "source:url": "http://mass.gov/mgis/libraries.htm", "type": "Academic"}}, {"type": "node", "id": 257537408, "lat": 42.3759427, "lon": -71.0702095, "tags": {"addr:city": "Boston", "addr:housenumber": "250", "addr:state": "MA", "addr:street": "New Rutherford Avenue", "amenity": "library", "attribution": "Office of Geographic and Environmental Information (MassGIS)", "ele": "5", "gnis:feature_id": "1971054", "name": "Bunker Hill Community College Library", "region": "Boston", "source": "USGS Geonames", "source:url": "http://mass.gov/mgis/libraries.htm", "type": "Academic"}}, {"type": "node", "id": 257537454, "lat": 42.2821815, "lon": -71.1745376, "tags": {"addr:city": "West Roxbury", "addr:housenumber": "1205", "addr:postcode": "02132", "addr:state": "MA", "addr:street": "Veterans of Foreign Wars Parkway", "amenity": "library", "attribution": "Office of Geographic and Environmental Information (MassGIS)", "name": "West Roxbury High School Library", "office": "West Roxbury High School", "region": "Boston", "source:url": "http://mass.gov/mgis/libraries.htm", "type": "School"}}, {"type": "node", "id": 257537465, "lat": 42.3469034, "lon": -71.0871464}, {"type": "node", "id": 257537517, "lat": 42.354081, "lon": -71.0747674}, {"type": "node", "id": 257537584, "lat": 42.2857024, "lon": -71.0758634, "tags": {"addr:city": "Dorchester", "addr:housenumber": "9", "addr:postcode": "02124", "addr:state": "MA", "addr:street": "Peacevale Road", "amenity": "library", "attribution": "Office of Geographic and Environmental Information (MassGIS)", "name": "Dorchester High School Library", "office": "Dorchester High School", "region": "Boston", "source_url": "http://mass.gov/mgis/libraries.htm", "type": "School"}}, {"type": "node", "id": 257537589, "lat": 42.34973, "lon": -71.14805, "tags": {"addr:city": "Brighton", "addr:housenumber": "736", "addr:postcode": "02135", "addr:state": "MA", "addr:street": "Cambridge Street", "amenity": "library", "attribution": "Office of Geographic and Environmental Information (MassGIS)", "fixme": "Cannot locate this library via streetview. Can a local please verify if this library still exists?", "name": "Stohlman Library", "office": "St. Elizabeth's Medical Center", "region": "Boston", "source:url": "http://mass.gov/mgis/libraries.htm", "type": "Special"}}, {"type": "node", "id": 257537598, "lat": 42.3592441, "lon": -71.0638705, "tags": {"addr:city": "Boston", "addr:postcode": "02133", "addr:state": "MA", "amenity": "library", "attribution": "Office of Geographic and Environmental Information (MassGIS)", "name": "State Library Of Massachusetts", "phone": "+1 617 727 2590", "region": "Boston", "source:url": "http://mass.gov/mgis/libraries.htm", "type": "Special", "website": "https://www.mass.gov/orgs/state-library-of-massachusetts", "wikidata": "Q7603401", "wikipedia": "en:State Library of Massachusetts"}}, {"type": "node", "id": 257537599, "lat": 42.3505737, "lon": -71.0779829, "tags": {"addr:city": "Boston", "addr:housenumber": "150", "addr:postcode": "02116", "addr:state": "MA", "addr:street": "Newbury Street", "amenity": "library", "attribution": "Office of Geographic and Environmental Information (MassGIS)", "gnis:feature_id": "2343431", "name": "Snowden International School Library", "operator": "Snowden International School", "ref:isil": "OCLC-SNWIS", "region": "Boston", "source": "USGS Geonames", "source:url": "http://mass.gov/mgis/libraries.htm", "type": "School", "wikidata": "Q7548578"}}, {"type": "node", "id": 257537637, "lat": 42.3582426, "lon": -71.0721306, "tags": {"addr:city": "Boston", "addr:housenumber": "17", "addr:postcode": "02108", "addr:state": "MA", "addr:street": "Brimmer Street", "amenity": "library", "attribution": "Office of Geographic and Environmental Information (MassGIS)", "name": "Advent School Library", "office": "Advent School", "region": "Boston", "source:url": "http://mass.gov/mgis/libraries.htm", "type": "School"}}, {"type": "node", "id": 257537654, "lat": 42.3629815, "lon": -71.0685994, "tags": {"addr:city": "Boston", "addr:housenumber": "55", "addr:state": "MA", "addr:street": "Fruit Street", "amenity": "library", "attribution": "Office of Geographic and Environmental Information (MassGIS)", "name": "Patient And Family Learning Center", "office": "Massachusetts General Hospital", "region": "Boston", "source:url": "http://mass.gov/mgis/libraries.htm", "type": "Special"}}, {"type": "node", "id": 257537682, "lat": 42.367256, "lon": -71.070508, "tags": {"addr:city": "Boston", "addr:state": "MA", "addr:street": "Science Park", "amenity": "library", "attribution": "Office of Geographic and Environmental Information (MassGIS)", "ele": "4", "gnis:feature_id": "2342406", "name": "Harrison Lyman Library", "office": "Museum Of Science", "region": "Boston", "source": "USGS Geonames", "source:url": "http://mass.gov/mgis/libraries.htm", "type": "Special"}}, {"type": "node", "id": 257537721, "lat": 42.34128, "lon": -71.10468, "tags": {"addr:city": "Boston", "addr:housenumber": "330", "addr:postcode": "02215", "addr:state": "MA", "addr:street": "Brookline Avenue", "amenity": "library", "attribution": "Office of Geographic and Environmental Information (MassGIS)", "name": "The Learning Center", "office": "Beth Israel Deaconess Medical Center", "region": "Boston", "source_url": "http://mass.gov/mgis/libraries.htm", "type": "Special"}}, {"type": "node", "id": 257537750, "lat": 42.3356047, "lon": -71.0955638, "tags": {"addr:city": "Boston", "addr:housenumber": "550", "addr:state": "MA", "addr:street": "Huntington Avenue", "amenity": "library", "attribution": "Office of Geographic and Environmental Information (MassGIS)", "name": "Alumni Library", "operator": "Wentworth Institute Of Technology", "region": "Boston", "source:url": "http://mass.gov/mgis/libraries.htm", "type": "Academic"}}, {"type": "node", "id": 257537803, "lat": 42.3568568, "lon": -71.0609706, "tags": {"addr:city": "Boston", "addr:housenumber": "120", "addr:postcode": "02108", "addr:state": "MA", "addr:street": "Tremont Street", "amenity": "library", "attribution": "Office of Geographic and Environmental Information (MassGIS)", "name": "Moakley Law Library", "office": "Suffolk University Law School", "opening_hours": "Mo-Fr 08:00-23:00; Sa,Su 09:00-23:00", "region": "Boston", "source:url": "http://mass.gov/mgis/libraries.htm", "type": "Academic"}}, {"type": "node", "id": 325299994, "lat": 42.3385651, "lon": -71.0885238}, {"type": "node", "id": 325302857, "lat": 42.3496115, "lon": -71.0784743}, {"type": "node", "id": 325308184, "lat": 42.3495076, "lon": -71.0778713}, {"type": "node", "id": 325313931, "lat": 42.3282442, "lon": -71.0835227}, {"type": "node", "id": 325317464, "lat": 42.3490134, "lon": -71.0781965}, {"type": "node", "id": 325323338, "lat": 42.3381042, "lon": -71.0878024}, {"type": "node", "id": 325339567, "lat": 42.3385412, "lon": -71.0876705}, {"type": "node", "id": 325339726, "lat": 42.349188, "lon": -71.0779982}, {"type": "node", "id": 325344342, "lat": 42.3386099, "lon": -71.0875028}, {"type": "node", "id": 325346555, "lat": 42.3430069, "lon": -71.1047768}, {"type": "node", "id": 325346556, "lat": 42.3430532, "lon": -71.1047801}, {"type": "node", "id": 325346557, "lat": 42.3430516, "lon": -71.1048208}, {"type": "node", "id": 325346558, "lat": 42.3431986, "lon": -71.1048311}, {"type": "node", "id": 325346560, "lat": 42.3432105, "lon": -71.1045213}, {"type": "node", "id": 325346561, "lat": 42.3431247, "lon": -71.1045153}, {"type": "node", "id": 325346563, "lat": 42.3431221, "lon": -71.1045831}, {"type": "node", "id": 325346564, "lat": 42.3430858, "lon": -71.1045805}, {"type": "node", "id": 325346565, "lat": 42.3430822, "lon": -71.1046746}, {"type": "node", "id": 325346566, "lat": 42.343011, "lon": -71.1046696}, {"type": "node", "id": 325431370, "lat": 42.3283257, "lon": -71.0835462}, {"type": "node", "id": 325441825, "lat": 42.3282882, "lon": -71.0836943}, {"type": "node", "id": 325443193, "lat": 42.3493729, "lon": -71.0778012}, {"type": "node", "id": 325443960, "lat": 42.3278141, "lon": -71.0833593}, {"type": "node", "id": 325459540, "lat": 42.3206693, "lon": -71.1109622}, {"type": "node", "id": 325459693, "lat": 42.3401264, "lon": -71.1016996}, {"type": "node", "id": 325460225, "lat": 42.2571226, "lon": -71.1222534}, {"type": "node", "id": 325461076, "lat": 42.320548, "lon": -71.1110833}, {"type": "node", "id": 325461369, "lat": 42.3400848, "lon": -71.101651}, {"type": "node", "id": 325466772, "lat": 42.3401445, "lon": -71.1017146}, {"type": "node", "id": 325467150, "lat": 42.3205416, "lon": -71.1110703}, {"type": "node", "id": 325468216, "lat": 42.3400877, "lon": -71.1016553}, {"type": "node", "id": 325469727, "lat": 42.3206762, "lon": -71.1109763}, {"type": "node", "id": 325471537, "lat": 42.3205719, "lon": -71.1110434}, {"type": "node", "id": 325471775, "lat": 42.3401336, "lon": -71.1017058}, {"type": "node", "id": 325472182, "lat": 42.3400301, "lon": -71.1015209}, {"type": "node", "id": 325473525, "lat": 42.3400906, "lon": -71.1016594}, {"type": "node", "id": 325475536, "lat": 42.2571277, "lon": -71.1221999}, {"type": "node", "id": 325479669, "lat": 42.3401229, "lon": -71.1016963}, {"type": "node", "id": 325479965, "lat": 42.3400314, "lon": -71.1015264}, {"type": "node", "id": 325481447, "lat": 42.3400936, "lon": -71.1016634}, {"type": "node", "id": 325482013, "lat": 42.3205784, "lon": -71.1110568}, {"type": "node", "id": 325489789, "lat": 42.3401408, "lon": -71.1017117}, {"type": "node", "id": 325490611, "lat": 42.2567087, "lon": -71.1221175}, {"type": "node", "id": 325491611, "lat": 42.3400967, "lon": -71.1016673}, {"type": "node", "id": 325493640, "lat": 42.3207058, "lon": -71.1111459}, {"type": "node", "id": 325498679, "lat": 42.3207217, "lon": -71.1111787}, {"type": "node", "id": 325498978, "lat": 42.3406247, "lon": -71.101939}, {"type": "node", "id": 325499268, "lat": 42.256964, "lon": -71.1221612}, {"type": "node", "id": 325500981, "lat": 42.3400998, "lon": -71.1016712}, {"type": "node", "id": 325522394, "lat": 42.3283329, "lon": -71.0836903}, {"type": "node", "id": 325536151, "lat": 42.3381644, "lon": -71.0882262}, {"type": "node", "id": 325539344, "lat": 42.3495337, "lon": -71.0777796}, {"type": "node", "id": 325546917, "lat": 42.3280997, "lon": -71.0833334}, {"type": "node", "id": 325552107, "lat": 42.3495472, "lon": -71.0781852}, {"type": "node", "id": 325552846, "lat": 42.3378873, "lon": -71.088204}, {"type": "node", "id": 325553493, "lat": 42.3282451, "lon": -71.0835403}, {"type": "node", "id": 325575636, "lat": 42.3490572, "lon": -71.0782193}, {"type": "node", "id": 325581650, "lat": 42.338617, "lon": -71.0884059}, {"type": "node", "id": 325588691, "lat": 42.3496314, "lon": -71.0783974}, {"type": "node", "id": 325591003, "lat": 42.3492575, "lon": -71.0773093}, {"type": "node", "id": 325605904, "lat": 42.3383413, "lon": -71.088362}, {"type": "node", "id": 325607415, "lat": 42.3282103, "lon": -71.0835258}, {"type": "node", "id": 325613978, "lat": 42.3281079, "lon": -71.0834975}, {"type": "node", "id": 325616594, "lat": 42.3387875, "lon": -71.0878748}, {"type": "node", "id": 325617121, "lat": 42.3282098, "lon": -71.0835158}, {"type": "node", "id": 325617672, "lat": 42.3380205, "lon": -71.0879576}, {"type": "node", "id": 325620430, "lat": 42.3495704, "lon": -71.0784537}, {"type": "node", "id": 325621432, "lat": 42.3493989, "lon": -71.0777095}, {"type": "node", "id": 325621792, "lat": 42.3282648, "lon": -71.0838088}, {"type": "node", "id": 325624408, "lat": 42.328141, "lon": -71.083447}, {"type": "node", "id": 325626440, "lat": 42.3381257, "lon": -71.0878117}, {"type": "node", "id": 325626593, "lat": 42.3282841, "lon": -71.0835367}, {"type": "node", "id": 325628556, "lat": 42.3281434, "lon": -71.0834942}, {"type": "node", "id": 325629091, "lat": 42.3488003, "lon": -71.0789804}, {"type": "node", "id": 325631068, "lat": 42.3280165, "lon": -71.083872}, {"type": "node", "id": 325632791, "lat": 42.3496459, "lon": -71.077838}, {"type": "node", "id": 325635088, "lat": 42.3498471, "lon": -71.0775944}, {"type": "node", "id": 325636154, "lat": 42.3386223, "lon": -71.0884735}, {"type": "node", "id": 325638303, "lat": 42.3490876, "lon": -71.0781122}, {"type": "node", "id": 325639294, "lat": 42.3282621, "lon": -71.0837549}, {"type": "node", "id": 325643914, "lat": 42.3384377, "lon": -71.0873837}, {"type": "node", "id": 325646290, "lat": 42.3490399, "lon": -71.0780873}, {"type": "node", "id": 325653884, "lat": 42.328162, "lon": -71.0834451}, {"type": "node", "id": 325654603, "lat": 42.3282219, "lon": -71.0838535}, {"type": "node", "id": 325656735, "lat": 42.3282847, "lon": -71.0835498}, {"type": "node", "id": 325663067, "lat": 42.3281657, "lon": -71.0835198}, {"type": "node", "id": 325664018, "lat": 42.3280089, "lon": -71.0837202}, {"type": "node", "id": 325665453, "lat": 42.3495913, "lon": -71.0783773}, {"type": "node", "id": 325668210, "lat": 42.328291, "lon": -71.0837523}, {"type": "node", "id": 325670633, "lat": 42.3379939, "lon": -71.0879424}, {"type": "node", "id": 325676255, "lat": 42.3385945, "lon": -71.0884533}, {"type": "node", "id": 325679183, "lat": 42.349394, "lon": -71.0792691}, {"type": "node", "id": 325679631, "lat": 42.3278329, "lon": -71.0837361}, {"type": "node", "id": 325680946, "lat": 42.3386479, "lon": -71.0884614}, {"type": "node", "id": 325687083, "lat": 42.3282199, "lon": -71.0838128}, {"type": "node", "id": 325689802, "lat": 42.3492867, "lon": -71.0776511}, {"type": "node", "id": 325691845, "lat": 42.3382774, "lon": -71.088318}, {"type": "node", "id": 325729702, "lat": 42.3401513, "lon": -71.1017195}, {"type": "node", "id": 325730002, "lat": 42.3400355, "lon": -71.1015426}, {"type": "node", "id": 325733904, "lat": 42.3401029, "lon": -71.1016751}, {"type": "node", "id": 325739359, "lat": 42.3206449, "lon": -71.1109977}, {"type": "node", "id": 325740509, "lat": 42.256962, "lon": -71.1221816}, {"type": "node", "id": 325741494, "lat": 42.2570327, "lon": -71.1219268}, {"type": "node", "id": 325750496, "lat": 42.3401372, "lon": -71.1017088}, {"type": "node", "id": 325751064, "lat": 42.3400374, "lon": -71.1015494}, {"type": "node", "id": 325754844, "lat": 42.3401062, "lon": -71.1016788}, {"type": "node", "id": 325756614, "lat": 42.2570259, "lon": -71.1219981}, {"type": "node", "id": 325758633, "lat": 42.3206402, "lon": -71.110988}, {"type": "node", "id": 325784806, "lat": 42.3205912, "lon": -71.1112473}, {"type": "node", "id": 325785753, "lat": 42.340614, "lon": -71.1019582}, {"type": "node", "id": 325787582, "lat": 42.2567248, "lon": -71.1219466}, {"type": "node", "id": 325788442, "lat": 42.3400454, "lon": -71.1016523}, {"type": "node", "id": 325789398, "lat": 42.3401094, "lon": -71.1016824}, {"type": "node", "id": 325804599, "lat": 42.3407297, "lon": -71.101747}, {"type": "node", "id": 325812071, "lat": 42.2572336, "lon": -71.1222181}, {"type": "node", "id": 325820414, "lat": 42.3207015, "lon": -71.1109538}, {"type": "node", "id": 325822043, "lat": 42.3406555, "lon": -71.1019698}, {"type": "node", "id": 325826668, "lat": 42.3401161, "lon": -71.1016896}, {"type": "node", "id": 325830193, "lat": 42.2572489, "lon": -71.1220562}, {"type": "node", "id": 325841828, "lat": 42.3207684, "lon": -71.1110904}, {"type": "node", "id": 325842418, "lat": 42.340227, "lon": -71.1015709}, {"type": "node", "id": 325847204, "lat": 42.3401195, "lon": -71.1016929}, {"type": "node", "id": 325848916, "lat": 42.3400139, "lon": -71.1015648}, {"type": "node", "id": 325851480, "lat": 42.3400327, "lon": -71.1015318}, {"type": "node", "id": 325852485, "lat": 42.2571482, "lon": -71.1220389}, {"type": "node", "id": 325853188, "lat": 42.3400737, "lon": -71.1016338}, {"type": "node", "id": 325856846, "lat": 42.3206582, "lon": -71.1111878}, {"type": "node", "id": 325864349, "lat": 42.3407062, "lon": -71.1017897}, {"type": "node", "id": 325865085, "lat": 42.34013, "lon": -71.1017027}, {"type": "node", "id": 325866042, "lat": 42.340034, "lon": -71.1015373}, {"type": "node", "id": 325869921, "lat": 42.3400763, "lon": -71.1016381}, {"type": "node", "id": 325870963, "lat": 42.2571567, "lon": -71.121948}, {"type": "node", "id": 325879889, "lat": 42.3400792, "lon": -71.1016425}, {"type": "node", "id": 325879895, "lat": 42.3401128, "lon": -71.1016861}, {"type": "node", "id": 325885896, "lat": 42.257043, "lon": -71.1221955}, {"type": "node", "id": 325890269, "lat": 42.3403105, "lon": -71.1013275}, {"type": "node", "id": 325895198, "lat": 42.340082, "lon": -71.1016468}, {"type": "node", "id": 325895937, "lat": 42.2570389, "lon": -71.1222391}, {"type": "node", "id": 325896660, "lat": 42.3206743, "lon": -71.1112207}, {"type": "node", "id": 325907394, "lat": 42.3407374, "lon": -71.101821}, {"type": "node", "id": 325991879, "lat": 42.3139408, "lon": -71.0956649}, {"type": "node", "id": 326002332, "lat": 42.3141293, "lon": -71.0959431}, {"type": "node", "id": 326049811, "lat": 42.3142714, "lon": -71.0957682}, {"type": "node", "id": 326063691, "lat": 42.3140829, "lon": -71.0954902}, {"type": "node", "id": 326157626, "lat": 42.3662132, "lon": -71.1227297}, {"type": "node", "id": 326176219, "lat": 42.3666653, "lon": -71.123174}, {"type": "node", "id": 326181833, "lat": 42.3665974, "lon": -71.1225923}, {"type": "node", "id": 326189426, "lat": 42.3666073, "lon": -71.1228671}, {"type": "node", "id": 326189710, "lat": 42.3662277, "lon": -71.1227247}, {"type": "node", "id": 326201187, "lat": 42.366164, "lon": -71.1224252}, {"type": "node", "id": 326203565, "lat": 42.3663311, "lon": -71.1232829}, {"type": "node", "id": 326210745, "lat": 42.3666467, "lon": -71.1228535}, {"type": "node", "id": 326211143, "lat": 42.3665555, "lon": -71.1226068}, {"type": "node", "id": 326217384, "lat": 42.3664981, "lon": -71.1223028}, {"type": "node", "id": 326221028, "lat": 42.3662352, "lon": -71.1229371}, {"type": "node", "id": 326230516, "lat": 42.3662527, "lon": -71.1229311}, {"type": "node", "id": 326304249, "lat": 42.2860779, "lon": -71.054667}, {"type": "node", "id": 326304251, "lat": 42.2864423, "lon": -71.0545131}, {"type": "node", "id": 326304252, "lat": 42.286507, "lon": -71.0543152}, {"type": "node", "id": 326304253, "lat": 42.2866093, "lon": -71.0542576}, {"type": "node", "id": 326304255, "lat": 42.2864496, "lon": -71.0542355}, {"type": "node", "id": 326328701, "lat": 42.3464805, "lon": -71.0867219}, {"type": "node", "id": 326328702, "lat": 42.3465551, "lon": -71.0872118}, {"type": "node", "id": 326328707, "lat": 42.3470162, "lon": -71.0865815}, {"type": "node", "id": 326328714, "lat": 42.34697, "lon": -71.0869195}, {"type": "node", "id": 326328717, "lat": 42.3470702, "lon": -71.0867495}, {"type": "node", "id": 326328718, "lat": 42.3469483, "lon": -71.0871692}, {"type": "node", "id": 326329375, "lat": 42.3412521, "lon": -71.0770323}, {"type": "node", "id": 326329376, "lat": 42.3414035, "lon": -71.0771784}, {"type": "node", "id": 326329377, "lat": 42.3415528, "lon": -71.0768971}, {"type": "node", "id": 326329378, "lat": 42.3413954, "lon": -71.0767453}, {"type": "node", "id": 326511601, "lat": 42.3474486, "lon": -71.1529423}, {"type": "node", "id": 326511602, "lat": 42.3475373, "lon": -71.1528861}, {"type": "node", "id": 326511603, "lat": 42.3475283, "lon": -71.1528603}, {"type": "node", "id": 326511604, "lat": 42.3475807, "lon": -71.1528271}, {"type": "node", "id": 326511605, "lat": 42.347642, "lon": -71.1530029}, {"type": "node", "id": 326511606, "lat": 42.3477917, "lon": -71.152908}, {"type": "node", "id": 326511607, "lat": 42.347751, "lon": -71.1527913}, {"type": "node", "id": 326511608, "lat": 42.3476654, "lon": -71.1527613}, {"type": "node", "id": 326511609, "lat": 42.3476113, "lon": -71.1526062}, {"type": "node", "id": 326511610, "lat": 42.3476426, "lon": -71.1524755}, {"type": "node", "id": 326511611, "lat": 42.3476092, "lon": -71.1523799}, {"type": "node", "id": 326511612, "lat": 42.3474524, "lon": -71.1524793}, {"type": "node", "id": 326511613, "lat": 42.3475104, "lon": -71.1526456}, {"type": "node", "id": 326511614, "lat": 42.3474817, "lon": -71.1526638}, {"type": "node", "id": 326511615, "lat": 42.3474456, "lon": -71.1525604}, {"type": "node", "id": 326511616, "lat": 42.3473785, "lon": -71.1525344}, {"type": "node", "id": 326511617, "lat": 42.3473551, "lon": -71.1525492}, {"type": "node", "id": 327073340, "lat": 42.3462824, "lon": -71.0897313}, {"type": "node", "id": 327215025, "lat": 42.346527, "lon": -71.090051}, {"type": "node", "id": 327341886, "lat": 42.3513916, "lon": -71.1081656}, {"type": "node", "id": 327363362, "lat": 42.3511762, "lon": -71.108325}, {"type": "node", "id": 327510668, "lat": 42.3510934, "lon": -71.1083451}, {"type": "node", "id": 327513904, "lat": 42.3087231, "lon": -71.1148152}, {"type": "node", "id": 327518722, "lat": 42.3510793, "lon": -71.1082409}, {"type": "node", "id": 327524950, "lat": 42.3511623, "lon": -71.1082214}, {"type": "node", "id": 327533792, "lat": 42.3085806, "lon": -71.1148254}, {"type": "node", "id": 327541777, "lat": 42.3085855, "lon": -71.1151255}, {"type": "node", "id": 327543216, "lat": 42.3506048, "lon": -71.1081307}, {"type": "node", "id": 327553450, "lat": 42.3085891, "lon": -71.1149606}, {"type": "node", "id": 328028566, "lat": 42.3426363, "lon": -71.1634386}, {"type": "node", "id": 328028568, "lat": 42.342748, "lon": -71.1639847}, {"type": "node", "id": 328028570, "lat": 42.3431487, "lon": -71.1638357}, {"type": "node", "id": 328028573, "lat": 42.343037, "lon": -71.1632896}, {"type": "node", "id": 328089588, "lat": 42.3352193, "lon": -71.1033236}, {"type": "node", "id": 328100761, "lat": 42.3350571, "lon": -71.1040161}, {"type": "node", "id": 328105755, "lat": 42.3353961, "lon": -71.1037749}, {"type": "node", "id": 328193325, "lat": 42.3348804, "lon": -71.1035647}, {"type": "node", "id": 328290924, "lat": 42.3616583, "lon": -71.0651903}, {"type": "node", "id": 328301702, "lat": 42.3616407, "lon": -71.0650168}, {"type": "node", "id": 328306884, "lat": 42.3616613, "lon": -71.0650174}, {"type": "node", "id": 328316269, "lat": 42.3616629, "lon": -71.0649667}, {"type": "node", "id": 328327598, "lat": 42.3616036, "lon": -71.0648227}, {"type": "node", "id": 328400042, "lat": 42.3614838, "lon": -71.064818}, {"type": "node", "id": 328433850, "lat": 42.3540646, "lon": -71.0748322}, {"type": "node", "id": 328457936, "lat": 42.3541223, "lon": -71.074618}, {"type": "node", "id": 328525280, "lat": 42.3512212, "lon": -71.1679682}, {"type": "node", "id": 328525282, "lat": 42.3512902, "lon": -71.1680057}, {"type": "node", "id": 328525284, "lat": 42.3512974, "lon": -71.1679815}, {"type": "node", "id": 328525287, "lat": 42.3513598, "lon": -71.1680154}, {"type": "node", "id": 328525289, "lat": 42.3514086, "lon": -71.1678523}, {"type": "node", "id": 328525291, "lat": 42.35148, "lon": -71.1678617}, {"type": "node", "id": 328525293, "lat": 42.351487, "lon": -71.1677663}, {"type": "node", "id": 328525296, "lat": 42.3512894, "lon": -71.1677399}, {"type": "node", "id": 328598308, "lat": 42.350785, "lon": -71.1080868}, {"type": "node", "id": 328605119, "lat": 42.3085759, "lon": -71.1149597}, {"type": "node", "id": 328606080, "lat": 42.3087025, "lon": -71.1146949}, {"type": "node", "id": 328606285, "lat": 42.3508109, "lon": -71.1083062}, {"type": "node", "id": 328613711, "lat": 42.3086984, "lon": -71.1148137}, {"type": "node", "id": 328620533, "lat": 42.3507475, "lon": -71.107759}, {"type": "node", "id": 328629113, "lat": 42.3507245, "lon": -71.1083229}, {"type": "node", "id": 328629812, "lat": 42.3509094, "lon": -71.1077275}, {"type": "node", "id": 328631651, "lat": 42.3086892, "lon": -71.1151321}, {"type": "node", "id": 328635540, "lat": 42.3506335, "lon": -71.1083451}, {"type": "node", "id": 328636601, "lat": 42.351322, "lon": -71.1076558}, {"type": "node", "id": 329016400, "lat": 42.3602693, "lon": -71.1281299}, {"type": "node", "id": 329071878, "lat": 42.3601992, "lon": -71.1280433}, {"type": "node", "id": 329078660, "lat": 42.3603496, "lon": -71.1280092}, {"type": "node", "id": 329081845, "lat": 42.3600909, "lon": -71.127905}, {"type": "node", "id": 329090585, "lat": 42.3602396, "lon": -71.1283573}, {"type": "node", "id": 329090813, "lat": 42.3601744, "lon": -71.1277867}, {"type": "node", "id": 329098531, "lat": 42.3603347, "lon": -71.1282129}, {"type": "node", "id": 329697784, "lat": 42.3603748, "lon": -71.1280368}, {"type": "node", "id": 329701714, "lat": 42.3604508, "lon": -71.1279266}, {"type": "node", "id": 329702408, "lat": 42.360281, "lon": -71.1279201}, {"type": "node", "id": 329785494, "lat": 42.3600164, "lon": -71.1281346}, {"type": "node", "id": 329789061, "lat": 42.3600412, "lon": -71.1281026}, {"type": "node", "id": 329795193, "lat": 42.3598193, "lon": -71.1278586}, {"type": "node", "id": 329914667, "lat": 42.3158562, "lon": -71.0335893}, {"type": "node", "id": 329914668, "lat": 42.3158564, "lon": -71.0335961}, {"type": "node", "id": 329914669, "lat": 42.3158567, "lon": -71.0336028}, {"type": "node", "id": 329914670, "lat": 42.3158572, "lon": -71.0336096}, {"type": "node", "id": 329914671, "lat": 42.3158579, "lon": -71.0336162}, {"type": "node", "id": 329914672, "lat": 42.3158587, "lon": -71.0336228}, {"type": "node", "id": 329914673, "lat": 42.3158597, "lon": -71.0336294}, {"type": "node", "id": 329914674, "lat": 42.3158609, "lon": -71.033636}, {"type": "node", "id": 329914675, "lat": 42.3158622, "lon": -71.0336424}, {"type": "node", "id": 329914676, "lat": 42.3158638, "lon": -71.0336488}, {"type": "node", "id": 329914677, "lat": 42.3158655, "lon": -71.0336552}, {"type": "node", "id": 329914678, "lat": 42.3158673, "lon": -71.0336614}, {"type": "node", "id": 329914679, "lat": 42.3158693, "lon": -71.0336676}, {"type": "node", "id": 329914680, "lat": 42.3158715, "lon": -71.0336738}, {"type": "node", "id": 329914681, "lat": 42.3158738, "lon": -71.0336797}, {"type": "node", "id": 329914682, "lat": 42.3158763, "lon": -71.0336855}, {"type": "node", "id": 329914683, "lat": 42.315879, "lon": -71.0336913}, {"type": "node", "id": 329914684, "lat": 42.3158817, "lon": -71.0336969}, {"type": "node", "id": 329914685, "lat": 42.3158846, "lon": -71.0337023}, {"type": "node", "id": 329914686, "lat": 42.3158877, "lon": -71.0337076}, {"type": "node", "id": 329914687, "lat": 42.3158909, "lon": -71.0337128}, {"type": "node", "id": 329914688, "lat": 42.3158942, "lon": -71.0337179}, {"type": "node", "id": 329914689, "lat": 42.3158977, "lon": -71.0337227}, {"type": "node", "id": 329914690, "lat": 42.3159013, "lon": -71.0337274}, {"type": "node", "id": 329914691, "lat": 42.315905, "lon": -71.033732}, {"type": "node", "id": 329914692, "lat": 42.3159088, "lon": -71.0337363}, {"type": "node", "id": 329914693, "lat": 42.3159127, "lon": -71.0337405}, {"type": "node", "id": 329914694, "lat": 42.3159167, "lon": -71.0337445}, {"type": "node", "id": 329914695, "lat": 42.3159209, "lon": -71.0337482}, {"type": "node", "id": 329914696, "lat": 42.3159251, "lon": -71.0337518}, {"type": "node", "id": 329914697, "lat": 42.3159294, "lon": -71.0337552}, {"type": "node", "id": 329914698, "lat": 42.3159338, "lon": -71.0337585}, {"type": "node", "id": 329914699, "lat": 42.3159383, "lon": -71.0337615}, {"type": "node", "id": 329914700, "lat": 42.3159428, "lon": -71.0337642}, {"type": "node", "id": 329914701, "lat": 42.3159474, "lon": -71.0337667}, {"type": "node", "id": 329914702, "lat": 42.3159521, "lon": -71.0337691}, {"type": "node", "id": 329914703, "lat": 42.3159569, "lon": -71.0337711}, {"type": "node", "id": 329914704, "lat": 42.3159617, "lon": -71.033773}, {"type": "node", "id": 329914705, "lat": 42.3159666, "lon": -71.0337747}, {"type": "node", "id": 329914706, "lat": 42.3159714, "lon": -71.0337761}, {"type": "node", "id": 329914707, "lat": 42.3159764, "lon": -71.0337774}, {"type": "node", "id": 329914708, "lat": 42.3159813, "lon": -71.0337784}, {"type": "node", "id": 329914709, "lat": 42.3159863, "lon": -71.0337791}, {"type": "node", "id": 329914710, "lat": 42.3159912, "lon": -71.0337796}, {"type": "node", "id": 329914711, "lat": 42.3159963, "lon": -71.0337798}, {"type": "node", "id": 329914712, "lat": 42.3160012, "lon": -71.0337799}, {"type": "node", "id": 329914713, "lat": 42.3160063, "lon": -71.0337796}, {"type": "node", "id": 329914714, "lat": 42.3160112, "lon": -71.0337792}, {"type": "node", "id": 329914715, "lat": 42.3160163, "lon": -71.0337786}, {"type": "node", "id": 329914716, "lat": 42.3160212, "lon": -71.0337777}, {"type": "node", "id": 329914717, "lat": 42.3160261, "lon": -71.0337765}, {"type": "node", "id": 329914718, "lat": 42.316031, "lon": -71.0337751}, {"type": "node", "id": 329914719, "lat": 42.3160359, "lon": -71.0337736}, {"type": "node", "id": 329914720, "lat": 42.3160406, "lon": -71.0337717}, {"type": "node", "id": 329914721, "lat": 42.3160454, "lon": -71.0337696}, {"type": "node", "id": 329914722, "lat": 42.3160502, "lon": -71.0337674}, {"type": "node", "id": 329914723, "lat": 42.3160548, "lon": -71.0337648}, {"type": "node", "id": 329914724, "lat": 42.3160593, "lon": -71.0337621}, {"type": "node", "id": 329914725, "lat": 42.3160639, "lon": -71.0337593}, {"type": "node", "id": 329914726, "lat": 42.3160683, "lon": -71.0337561}, {"type": "node", "id": 329914727, "lat": 42.3160726, "lon": -71.0337528}, {"type": "node", "id": 329914728, "lat": 42.3160769, "lon": -71.0337493}, {"type": "node", "id": 329914729, "lat": 42.3160811, "lon": -71.0337455}, {"type": "node", "id": 329914730, "lat": 42.3160851, "lon": -71.0337416}, {"type": "node", "id": 329914736, "lat": 42.3160362, "lon": -71.0345525}, {"type": "node", "id": 329914737, "lat": 42.3161398, "lon": -71.0344351}, {"type": "node", "id": 329914738, "lat": 42.3161439, "lon": -71.0344405}, {"type": "node", "id": 329914739, "lat": 42.3161483, "lon": -71.0344457}, {"type": "node", "id": 329914740, "lat": 42.3161527, "lon": -71.0344508}, {"type": "node", "id": 329914741, "lat": 42.3161572, "lon": -71.0344556}, {"type": "node", "id": 329914742, "lat": 42.3161619, "lon": -71.0344602}, {"type": "node", "id": 329914743, "lat": 42.3161667, "lon": -71.0344646}, {"type": "node", "id": 329914744, "lat": 42.3161717, "lon": -71.0344687}, {"type": "node", "id": 329914745, "lat": 42.3161767, "lon": -71.0344727}, {"type": "node", "id": 329914746, "lat": 42.3161818, "lon": -71.0344764}, {"type": "node", "id": 329914747, "lat": 42.316187, "lon": -71.0344798}, {"type": "node", "id": 329914748, "lat": 42.3161923, "lon": -71.034483}, {"type": "node", "id": 329914749, "lat": 42.3161977, "lon": -71.034486}, {"type": "node", "id": 329914750, "lat": 42.3162031, "lon": -71.0344886}, {"type": "node", "id": 329914751, "lat": 42.3162087, "lon": -71.0344911}, {"type": "node", "id": 329914752, "lat": 42.3162142, "lon": -71.0344933}, {"type": "node", "id": 329914753, "lat": 42.3162199, "lon": -71.0344952}, {"type": "node", "id": 329914754, "lat": 42.3162255, "lon": -71.0344968}, {"type": "node", "id": 329914755, "lat": 42.3162312, "lon": -71.0344981}, {"type": "node", "id": 329914756, "lat": 42.316237, "lon": -71.0344993}, {"type": "node", "id": 329914757, "lat": 42.3162428, "lon": -71.0345001}, {"type": "node", "id": 329914758, "lat": 42.3162485, "lon": -71.0345007}, {"type": "node", "id": 329914759, "lat": 42.3162544, "lon": -71.034501}, {"type": "node", "id": 329914760, "lat": 42.3162601, "lon": -71.0345009}, {"type": "node", "id": 329914761, "lat": 42.316266, "lon": -71.0345007}, {"type": "node", "id": 329914762, "lat": 42.3162717, "lon": -71.0345001}, {"type": "node", "id": 329914763, "lat": 42.3162775, "lon": -71.0344994}, {"type": "node", "id": 329914764, "lat": 42.3162833, "lon": -71.0344983}, {"type": "node", "id": 329914765, "lat": 42.316289, "lon": -71.034497}, {"type": "node", "id": 329914766, "lat": 42.3162947, "lon": -71.0344953}, {"type": "node", "id": 329914767, "lat": 42.3163003, "lon": -71.0344935}, {"type": "node", "id": 329914768, "lat": 42.3163059, "lon": -71.0344913}, {"type": "node", "id": 329914769, "lat": 42.3163114, "lon": -71.0344889}, {"type": "node", "id": 329914770, "lat": 42.3163169, "lon": -71.0344862}, {"type": "node", "id": 329914771, "lat": 42.3163223, "lon": -71.0344834}, {"type": "node", "id": 329914772, "lat": 42.3163276, "lon": -71.0344802}, {"type": "node", "id": 329914773, "lat": 42.3163328, "lon": -71.0344767}, {"type": "node", "id": 329914774, "lat": 42.3163379, "lon": -71.0344731}, {"type": "node", "id": 329914775, "lat": 42.3163429, "lon": -71.0344692}, {"type": "node", "id": 329914776, "lat": 42.3163479, "lon": -71.0344651}, {"type": "node", "id": 329914777, "lat": 42.3163551, "lon": -71.0344584}, {"type": "node", "id": 329914779, "lat": 42.3165059, "lon": -71.0340961}, {"type": "node", "id": 329914780, "lat": 42.3164019, "lon": -71.0338951}, {"type": "node", "id": 329914781, "lat": 42.3164173, "lon": -71.0336419}, {"type": "node", "id": 329914800, "lat": 42.3161046, "lon": -71.0334559}, {"type": "node", "id": 329914801, "lat": 42.3161012, "lon": -71.033451}, {"type": "node", "id": 329914802, "lat": 42.3160977, "lon": -71.0334463}, {"type": "node", "id": 329914803, "lat": 42.316094, "lon": -71.0334418}, {"type": "node", "id": 329914804, "lat": 42.3160901, "lon": -71.0334374}, {"type": "node", "id": 329914805, "lat": 42.3160862, "lon": -71.0334333}, {"type": "node", "id": 329914806, "lat": 42.3160821, "lon": -71.0334293}, {"type": "node", "id": 329914807, "lat": 42.316078, "lon": -71.0334255}, {"type": "node", "id": 329914808, "lat": 42.3160738, "lon": -71.0334219}, {"type": "node", "id": 329914809, "lat": 42.3160695, "lon": -71.0334185}, {"type": "node", "id": 329914810, "lat": 42.316065, "lon": -71.0334153}, {"type": "node", "id": 329914811, "lat": 42.3160606, "lon": -71.0334124}, {"type": "node", "id": 329914812, "lat": 42.316056, "lon": -71.0334095}, {"type": "node", "id": 329914813, "lat": 42.3160514, "lon": -71.033407}, {"type": "node", "id": 329914814, "lat": 42.3160467, "lon": -71.0334047}, {"type": "node", "id": 329914815, "lat": 42.3160419, "lon": -71.0334026}, {"type": "node", "id": 329914816, "lat": 42.3160372, "lon": -71.0334007}, {"type": "node", "id": 329914817, "lat": 42.3160323, "lon": -71.033399}, {"type": "node", "id": 329914818, "lat": 42.3160274, "lon": -71.0333976}, {"type": "node", "id": 329914819, "lat": 42.3160226, "lon": -71.0333964}, {"type": "node", "id": 329914820, "lat": 42.3160176, "lon": -71.0333954}, {"type": "node", "id": 329914821, "lat": 42.3160126, "lon": -71.0333947}, {"type": "node", "id": 329914822, "lat": 42.3160076, "lon": -71.0333942}, {"type": "node", "id": 329914823, "lat": 42.3160026, "lon": -71.0333939}, {"type": "node", "id": 329914824, "lat": 42.3159976, "lon": -71.0333939}, {"type": "node", "id": 329914825, "lat": 42.3159927, "lon": -71.0333941}, {"type": "node", "id": 329914826, "lat": 42.3159876, "lon": -71.0333945}, {"type": "node", "id": 329914827, "lat": 42.3159827, "lon": -71.0333953}, {"type": "node", "id": 329914828, "lat": 42.3159777, "lon": -71.0333962}, {"type": "node", "id": 329914829, "lat": 42.3159728, "lon": -71.0333973}, {"type": "node", "id": 329914830, "lat": 42.3159679, "lon": -71.0333987}, {"type": "node", "id": 329914831, "lat": 42.315963, "lon": -71.0334003}, {"type": "node", "id": 329914832, "lat": 42.3159582, "lon": -71.033402}, {"type": "node", "id": 329914833, "lat": 42.3159534, "lon": -71.0334041}, {"type": "node", "id": 329914834, "lat": 42.3159488, "lon": -71.0334064}, {"type": "node", "id": 329914835, "lat": 42.3159441, "lon": -71.0334089}, {"type": "node", "id": 329914836, "lat": 42.3159395, "lon": -71.0334116}, {"type": "node", "id": 329914837, "lat": 42.315935, "lon": -71.0334145}, {"type": "node", "id": 329914838, "lat": 42.3159305, "lon": -71.0334176}, {"type": "node", "id": 329914839, "lat": 42.3159262, "lon": -71.033421}, {"type": "node", "id": 329914840, "lat": 42.315922, "lon": -71.0334246}, {"type": "node", "id": 329914841, "lat": 42.3159178, "lon": -71.0334283}, {"type": "node", "id": 329914842, "lat": 42.3159138, "lon": -71.0334322}, {"type": "node", "id": 329914843, "lat": 42.3159098, "lon": -71.0334363}, {"type": "node", "id": 329914844, "lat": 42.315906, "lon": -71.0334406}, {"type": "node", "id": 329914845, "lat": 42.3159022, "lon": -71.0334451}, {"type": "node", "id": 329914846, "lat": 42.3158986, "lon": -71.0334497}, {"type": "node", "id": 329914847, "lat": 42.3158951, "lon": -71.0334546}, {"type": "node", "id": 329914848, "lat": 42.3158918, "lon": -71.0334596}, {"type": "node", "id": 329914849, "lat": 42.3158885, "lon": -71.0334647}, {"type": "node", "id": 329914850, "lat": 42.3158855, "lon": -71.03347}, {"type": "node", "id": 329914851, "lat": 42.3158825, "lon": -71.0334755}, {"type": "node", "id": 329914852, "lat": 42.3158797, "lon": -71.0334811}, {"type": "node", "id": 329914853, "lat": 42.315877, "lon": -71.0334867}, {"type": "node", "id": 329914854, "lat": 42.3158745, "lon": -71.0334925}, {"type": "node", "id": 329914855, "lat": 42.3158721, "lon": -71.0334985}, {"type": "node", "id": 329914856, "lat": 42.3158699, "lon": -71.0335045}, {"type": "node", "id": 329914857, "lat": 42.3158678, "lon": -71.0335106}, {"type": "node", "id": 329914858, "lat": 42.3158659, "lon": -71.0335168}, {"type": "node", "id": 329914859, "lat": 42.3158643, "lon": -71.0335231}, {"type": "node", "id": 329914860, "lat": 42.3158627, "lon": -71.0335296}, {"type": "node", "id": 329914861, "lat": 42.3158612, "lon": -71.033536}, {"type": "node", "id": 329914862, "lat": 42.31586, "lon": -71.0335426}, {"type": "node", "id": 329914863, "lat": 42.315859, "lon": -71.0335491}, {"type": "node", "id": 329914864, "lat": 42.3158581, "lon": -71.0335558}, {"type": "node", "id": 329914865, "lat": 42.3158574, "lon": -71.0335625}, {"type": "node", "id": 329914866, "lat": 42.3158568, "lon": -71.0335692}, {"type": "node", "id": 329914867, "lat": 42.3158565, "lon": -71.0335759}, {"type": "node", "id": 329914868, "lat": 42.3158562, "lon": -71.0335826}, {"type": "node", "id": 367777481, "lat": 42.328983, "lon": -71.0956974, "tags": {"addr:state": "MA", "amenity": "library", "ele": "6", "name": "Roxbury Community College Learning Resources Center", "source": "USGS Geonames"}}, {"type": "node", "id": 367777954, "lat": 42.3485174, "lon": -71.0993601, "tags": {"addr:state": "MA", "amenity": "library", "ele": "6", "gnis:feature_id": "1970960", "name": "Art Institute of Boston Library", "source": "USGS Geonames"}}, {"type": "node", "id": 367777965, "lat": 42.3074545, "lon": -71.1209438, "tags": {"addr:state": "MA", "amenity": "library", "check_date": "2023-08-19", "ele": "40", "gnis:feature_id": "1970957", "name": "Arnold Arboretum Horticulture Library", "source": "USGS Geonames", "toilets:wheelchair": "yes", "wheelchair": "yes", "wheelchair:description": "very tight for wheelchairs. JUST makes codes"}}, {"type": "node", "id": 367778072, "lat": 42.362633, "lon": -71.070327, "tags": {"addr:state": "MA", "amenity": "library", "ele": "3", "gnis:feature_id": "1971504", "name": "Massachusetts Eye and Ear Infirmary Libraries", "source": "USGS Geonames"}}, {"type": "node", "id": 367778078, "lat": 42.3631529, "lon": -71.0694958, "tags": {"addr:state": "MA", "amenity": "library", "ele": "5", "gnis:feature_id": "1971632", "name": "Palmer-Davis Library", "source": "USGS Geonames"}}, {"type": "node", "id": 367778079, "lat": 42.364013, "lon": -71.054998, "tags": {"addr:housenumber": "25", "addr:state": "MA", "addr:street": "Parmenter Street", "amenity": "library", "ele": "9", "gnis:feature_id": "1971601", "name": "Boston Public Library North End Branch", "source": "USGS Geonames"}}, {"type": "node", "id": 367778081, "lat": 42.3664863, "lon": -71.0547732, "tags": {"addr:state": "MA", "amenity": "library", "ele": "11", "gnis:feature_id": "1971638", "name": "Paul Revere Pottery and Library Clubhouse", "source": "USGS Geonames"}}, {"type": "node", "id": 367778122, "lat": 42.3758355, "lon": -71.064401, "tags": {"addr:state": "MA", "amenity": "library", "ele": "5", "gnis:feature_id": "1972268", "name": "Charles Hayden Memorial Library", "source": "USGS Geonames"}}, {"type": "node", "id": 367778127, "lat": 42.2775987, "lon": -71.0653281, "tags": {"addr:city": "Dorchester", "addr:housenumber": "2100", "addr:state": "MA", "addr:street": "Dorchester Avenue", "amenity": "library", "attribution": "Office of Geographic and Environmental Information (MassGIS)", "ele": "14", "gnis:feature_id": "1972353", "name": "Colpoys Library (Closed)", "office": "Carney Hospital", "region": "Boston", "source": "USGS Geonames", "source_url": "http://mass.gov/mgis/libraries.htm", "type": "Special"}}, {"type": "node", "id": 367778801, "lat": 42.3593032, "lon": -71.0624351, "tags": {"addr:state": "MA", "amenity": "library", "ele": "22", "gnis:feature_id": "2341658", "name": "Office of the Attorney General of Massachusetts Law Library", "source": "USGS Geonames", "wheelchair": "yes"}}, {"type": "node", "id": 367778970, "lat": 42.3009101, "lon": -71.1173949, "tags": {"addr:state": "MA", "amenity": "library", "ele": "24", "gnis:feature_id": "2341461", "name": "Massachusetts State Laboratory Institute Medical Center Library", "source": "USGS Geonames"}}, {"type": "node", "id": 367779039, "lat": 42.2743234, "lon": -71.0667942, "tags": {"addr:city": "Dorchester", "addr:housenumber": "2214", "addr:postcode": "02124", "addr:state": "MA", "addr:street": "Dorchester Avenue", "amenity": "library", "attribution": "Office of Geographic and Environmental Information (MassGIS)", "ele": "15", "gnis:feature_id": "2341525", "name": "Monsignor Ryan Memorial High School Library", "office": "Elizabeth Seton Academy", "region": "Boston", "source": "USGS Geonames", "source:url": "http://mass.gov/mgis/libraries.htm", "type": "School"}}, {"type": "node", "id": 367779045, "lat": 42.3392519, "lon": -71.0908403, "tags": {"addr:state": "MA", "amenity": "library", "ele": "5", "gnis:feature_id": "2341638", "name": "Northeastern University School of Law Library", "source": "USGS Geonames"}}, {"type": "node", "id": 367779160, "lat": 42.3376504, "lon": -71.1010185, "tags": {"addr:city": "Boston", "addr:housenumber": "78", "addr:postcode": "02115", "addr:state": "MA", "addr:street": "Avenue Louis Pasteur", "amenity": "library", "attribution": "Office of Geographic and Environmental Information (MassGIS)", "ele": "5", "gnis:feature_id": "2341997", "name": "Boston Latin School Library", "office": "Boston Latin School", "operator": "Boston Public Schools", "region": "Boston", "source": "USGS Geonames", "source_url": "http://mass.gov/mgis/libraries.htm", "type": "School"}}, {"type": "node", "id": 367779162, "lat": 42.3505, "lon": -71.1072, "tags": {"addr:state": "MA", "amenity": "library", "ele": "5", "gnis:feature_id": "2342005", "name": "Boston University School of Theology Library", "source": "USGS Geonames"}}, {"type": "node", "id": 367779196, "lat": 42.3566, "lon": -71.059, "tags": {"addr:state": "MA", "amenity": "library", "ele": "10", "gnis:feature_id": "2342114", "name": "Children's Trust Fund Resource Library", "source": "USGS Geonames"}}, {"type": "node", "id": 367779222, "lat": 42.352203, "lon": -71.1206362, "tags": {"addr:state": "MA", "amenity": "library", "ele": "14", "gnis:feature_id": "2345040", "name": "William Howard Taft Middle School Library", "source": "USGS Geonames"}}, {"type": "node", "id": 367779426, "lat": 42.3540666, "lon": -71.0747696}, {"type": "node", "id": 367779430, "lat": 42.3451224, "lon": -71.0862018, "tags": {"access": "yes", "addr:state": "MA", "amenity": "library", "contact:facebook": "https://www.facebook.com/mbelibrary", "contact:instagram": "https://www.instagram.com/mbelibrary/", "contact:twitter": "https://twitter.com/MBELibrary", "ele": "4", "email": "librarymail@mbelibrary.org", "gnis:feature_id": "2344903", "internet_access": "yes", "name": "The Mary Baker Eddy Library for the Betterment of Humanity", "phone": "+1-617-450-7000", "source": "USGS Geonames", "website": "https://www.marybakereddylibrary.org/", "wikidata": "Q6778995", "wikipedia": "en:Mary Baker Eddy Library"}}, {"type": "node", "id": 367781132, "lat": 42.3515213, "lon": -71.049933, "tags": {"addr:state": "MA", "amenity": "library", "ele": "0", "gnis:feature_id": "2342111", "name": "Children's Museum Resource Center", "source": "USGS Geonames"}}, {"type": "node", "id": 666583188, "lat": 42.2988842, "lon": -71.0603971, "tags": {"addr:city": "Dorchester", "addr:housenumber": "1520", "addr:postcode": "02122", "addr:state": "MA", "addr:street": "Dorchester Avenue", "amenity": "library", "check_date": "2024-05-15", "contact:email": "fieldscorner@bpl.org", "contact:phone": "+1-617-436-2155", "email": "fieldscorner@bpl.org", "internet_access": "yes", "name": "Fields Corner Library", "opening_hours": "Mo, We-Th 10:00-18:00; Tu 12:00-20:00; Fr-Sa 09:00-17:00", "operator": "Boston Public Library", "operator:type": "public", "phone": "+1-617-436-2155", "website": "https://www.bpl.org/locations/fields-corner/", "wheelchair": "yes"}}, {"type": "node", "id": 1325838609, "lat": 42.3579729, "lon": -71.0617993}, {"type": "node", "id": 1325838647, "lat": 42.3580168, "lon": -71.0618094}, {"type": "node", "id": 1325838662, "lat": 42.3580027, "lon": -71.0618005}, {"type": "node", "id": 1325838664, "lat": 42.3580945, "lon": -71.0619183}, {"type": "node", "id": 1975213054, "lat": 42.3509676, "lon": -71.1072949, "tags": {"amenity": "library", "name": "School of Law Library"}}, {"type": "node", "id": 1976086727, "lat": 42.3503152, "lon": -71.0970259, "tags": {"amenity": "library", "name": "Shelton Hall 9th Floor Study Lounge"}}, {"type": "node", "id": 1977285694, "lat": 42.3496876, "lon": -71.1006718, "tags": {"amenity": "library", "designation": "Study Spot", "name": "Pickering Educational Resources Library", "source": "Kelsey Lynne Anderson"}}, {"type": "node", "id": 1977409948, "lat": 42.3496167, "lon": -71.0996764, "tags": {"amenity": "library", "name": "Frederick S Pardee Management Library"}}, {"type": "node", "id": 2267934764, "lat": 42.3164678, "lon": -71.0346259}, {"type": "node", "id": 2267942723, "lat": 42.3161951, "lon": -71.0336026}, {"type": "node", "id": 2295907759, "lat": 42.338086, "lon": -71.088224}, {"type": "node", "id": 2295907761, "lat": 42.3380503, "lon": -71.0883215}, {"type": "node", "id": 2295907763, "lat": 42.3381489, "lon": -71.0882656}, {"type": "node", "id": 2295907765, "lat": 42.3382145, "lon": -71.0876641}, {"type": "node", "id": 2295907768, "lat": 42.3382389, "lon": -71.087673}, {"type": "node", "id": 2295907770, "lat": 42.3383262, "lon": -71.0875219}, {"type": "node", "id": 2295907772, "lat": 42.3383495, "lon": -71.087536}, {"type": "node", "id": 2295907774, "lat": 42.3386426, "lon": -71.0884227}, {"type": "node", "id": 2295907776, "lat": 42.3386505, "lon": -71.0884563}, {"type": "node", "id": 2295907777, "lat": 42.3386887, "lon": -71.088112}, {"type": "node", "id": 2295907780, "lat": 42.3387939, "lon": -71.0878544}, {"type": "node", "id": 2295934090, "lat": 42.3384858, "lon": -71.087417}, {"type": "node", "id": 2295934096, "lat": 42.3385758, "lon": -71.0883715}, {"type": "node", "id": 2295943700, "lat": 42.3384081, "lon": -71.0874621}, {"type": "node", "id": 2295943701, "lat": 42.3383841, "lon": -71.0874441}, {"type": "node", "id": 2295943702, "lat": 42.3382895, "lon": -71.0876081}, {"type": "node", "id": 2295943703, "lat": 42.3382677, "lon": -71.0875973}, {"type": "node", "id": 2295943704, "lat": 42.3381843, "lon": -71.0877414}, {"type": "node", "id": 2295943705, "lat": 42.3381617, "lon": -71.0877198}, {"type": "node", "id": 2295943706, "lat": 42.3380725, "lon": -71.0878892}, {"type": "node", "id": 2295943707, "lat": 42.3380538, "lon": -71.087873}, {"type": "node", "id": 2295954752, "lat": 42.338773, "lon": -71.0878392}, {"type": "node", "id": 2375735312, "lat": 42.3349609, "lon": -71.1035074}, {"type": "node", "id": 2375735315, "lat": 42.3353551, "lon": -71.1038041}, {"type": "node", "id": 2375735949, "lat": 42.3352334, "lon": -71.1038906}, {"type": "node", "id": 2494962252, "lat": 42.3495497, "lon": -71.0774506, "tags": {"entrance": "main"}}, {"type": "node", "id": 2518634093, "lat": 42.3464809, "lon": -71.0868493}, {"type": "node", "id": 2518634094, "lat": 42.3464882, "lon": -71.0868976}, {"type": "node", "id": 2518634095, "lat": 42.3464953, "lon": -71.0868195}, {"type": "node", "id": 2518634096, "lat": 42.3465102, "lon": -71.0869172}, {"type": "node", "id": 2518634097, "lat": 42.3465111, "lon": -71.0870478}, {"type": "node", "id": 2518634098, "lat": 42.3465168, "lon": -71.0870853}, {"type": "node", "id": 2518634099, "lat": 42.3465256, "lon": -71.087018}, {"type": "node", "id": 2518634100, "lat": 42.3465388, "lon": -71.0871049}, {"type": "node", "id": 2518634101, "lat": 42.3468901, "lon": -71.0873734}, {"type": "node", "id": 2518634102, "lat": 42.3469399, "lon": -71.0867461}, {"type": "node", "id": 2518634103, "lat": 42.3470181, "lon": -71.0867241}, {"type": "node", "id": 2518634105, "lat": 42.3471069, "lon": -71.0866212}, {"type": "node", "id": 2577065807, "lat": 42.3085833, "lon": -71.1151253}, {"type": "node", "id": 2577065809, "lat": 42.3085952, "lon": -71.1148264}, {"type": "node", "id": 2577065811, "lat": 42.3086, "lon": -71.1146883}, {"type": "node", "id": 2577065816, "lat": 42.3086938, "lon": -71.1149988}, {"type": "node", "id": 2577065818, "lat": 42.3087167, "lon": -71.1150003}, {"type": "node", "id": 2631219122, "lat": 42.3465853, "lon": -71.0897736}, {"type": "node", "id": 2631219128, "lat": 42.3465124, "lon": -71.0897331}, {"type": "node", "id": 2631219130, "lat": 42.3463878, "lon": -71.0897734}, {"type": "node", "id": 2631219133, "lat": 42.3463756, "lon": -71.0897017}, {"type": "node", "id": 2948724747, "lat": 42.377804, "lon": -71.0283104}, {"type": "node", "id": 2948724748, "lat": 42.3778628, "lon": -71.0277096}, {"type": "node", "id": 2948724749, "lat": 42.3780569, "lon": -71.0280258}, {"type": "node", "id": 2948724751, "lat": 42.3775186, "lon": -71.0280241}, {"type": "node", "id": 2948724752, "lat": 42.3777589, "lon": -71.0284154}, {"type": "node", "id": 2948724754, "lat": 42.3778237, "lon": -71.0283425}, {"type": "node", "id": 2948724756, "lat": 42.377721, "lon": -71.0277964}, {"type": "node", "id": 2948724757, "lat": 42.3777474, "lon": -71.0278394}, {"type": "node", "id": 3519261979, "lat": 42.3598742, "lon": -71.1277789}, {"type": "node", "id": 3545381089, "lat": 42.3599174, "lon": -71.1278346}, {"type": "node", "id": 3545381090, "lat": 42.3599755, "lon": -71.1277489}, {"type": "node", "id": 3545381091, "lat": 42.3600118, "lon": -71.1278049}, {"type": "node", "id": 3545381092, "lat": 42.3600915, "lon": -71.1276814}, {"type": "node", "id": 3545396793, "lat": 42.36007, "lon": -71.1276559}, {"type": "node", "id": 3545396794, "lat": 42.360147, "lon": -71.127544}, {"type": "node", "id": 3687227164, "lat": 42.2769535, "lon": -71.0931301}, {"type": "node", "id": 3687227165, "lat": 42.2769671, "lon": -71.0928646}, {"type": "node", "id": 3687227166, "lat": 42.2769721, "lon": -71.0931295}, {"type": "node", "id": 3687227168, "lat": 42.2770309, "lon": -71.0932394}, {"type": "node", "id": 3687227170, "lat": 42.2770692, "lon": -71.0927903}, {"type": "node", "id": 3687227171, "lat": 42.2770705, "lon": -71.092861}, {"type": "node", "id": 3687227172, "lat": 42.2771568, "lon": -71.0928933}, {"type": "node", "id": 3687227173, "lat": 42.2771604, "lon": -71.0930828}, {"type": "node", "id": 3687227174, "lat": 42.2772472, "lon": -71.0928901}, {"type": "node", "id": 3687227175, "lat": 42.2772509, "lon": -71.0930796}, {"type": "node", "id": 3687227179, "lat": 42.2774391, "lon": -71.0927777}, {"type": "node", "id": 3687227180, "lat": 42.2774438, "lon": -71.0931504}, {"type": "node", "id": 3687227181, "lat": 42.2774448, "lon": -71.0930839}, {"type": "node", "id": 3687227182, "lat": 42.2774452, "lon": -71.0932252}, {"type": "node", "id": 3687227183, "lat": 42.2774593, "lon": -71.0931499}, {"type": "node", "id": 3687227184, "lat": 42.2774598, "lon": -71.0931768}, {"type": "node", "id": 3687227185, "lat": 42.2774985, "lon": -71.0931755}, {"type": "node", "id": 3687227186, "lat": 42.2774994, "lon": -71.0932215}, {"type": "node", "id": 3687227201, "lat": 42.2776703, "lon": -71.0930762}, {"type": "node", "id": 3687227204, "lat": 42.2776729, "lon": -71.0932155}, {"type": "node", "id": 3946796273, "lat": 42.3614044, "lon": -71.0651831}, {"type": "node", "id": 3946796275, "lat": 42.3614205, "lon": -71.0649593}, {"type": "node", "id": 3946796276, "lat": 42.361438, "lon": -71.0650058}, {"type": "node", "id": 4075406794, "lat": 42.354137, "lon": -71.0748686}, {"type": "node", "id": 4075406797, "lat": 42.3541956, "lon": -71.0746559}, {"type": "node", "id": 4503189175, "lat": 42.3665426, "lon": -71.1232098}, {"type": "node", "id": 4503189176, "lat": 42.3665438, "lon": -71.123216}, {"type": "node", "id": 4503189177, "lat": 42.3663719, "lon": -71.1223464}, {"type": "node", "id": 4503189178, "lat": 42.3663731, "lon": -71.1223528}, {"type": "node", "id": 4503189179, "lat": 42.3661976, "lon": -71.1226031}, {"type": "node", "id": 4503189180, "lat": 42.3662043, "lon": -71.1226008}, {"type": "node", "id": 4503189181, "lat": 42.3663037, "lon": -71.1231064}, {"type": "node", "id": 4503189182, "lat": 42.3662981, "lon": -71.1231084}, {"type": "node", "id": 4503189183, "lat": 42.3662241, "lon": -71.1227878}, {"type": "node", "id": 4503189184, "lat": 42.366208, "lon": -71.1227934}, {"type": "node", "id": 4503189185, "lat": 42.3662631, "lon": -71.1229862}, {"type": "node", "id": 4503189186, "lat": 42.3662799, "lon": -71.1229804}, {"type": "node", "id": 4691217117, "lat": 42.354083, "lon": -71.0747578}, {"type": "node", "id": 4691217118, "lat": 42.3541179, "lon": -71.0746312}, {"type": "node", "id": 4691217119, "lat": 42.3541028, "lon": -71.0746359}, {"type": "node", "id": 4691217120, "lat": 42.3540954, "lon": -71.074667}, {"type": "node", "id": 4691217121, "lat": 42.354102, "lon": -71.0746825}, {"type": "node", "id": 4691217122, "lat": 42.3540998, "lon": -71.0746925}, {"type": "node", "id": 4691217123, "lat": 42.3540822, "lon": -71.0746987}, {"type": "node", "id": 4691217124, "lat": 42.3540732, "lon": -71.0747376}, {"type": "node", "id": 4691217125, "lat": 42.3540583, "lon": -71.0748059}, {"type": "node", "id": 4776858595, "lat": 42.3580572, "lon": -71.0587936}, {"type": "node", "id": 4776858606, "lat": 42.3580936, "lon": -71.0589996}, {"type": "node", "id": 4776858618, "lat": 42.3581774, "lon": -71.05896}, {"type": "node", "id": 4776858733, "lat": 42.3581466, "lon": -71.0587611}, {"type": "node", "id": 4786907848, "lat": 42.3494397, "lon": -71.0781642, "tags": {"access": "yes", "addr:city": "Boston", "addr:housenumber": "700", "addr:postcode": "02176", "addr:state": "MA", "addr:street": "Boylston Street", "amenity": "library", "email": "info@leventhalmap.org", "level": "1", "name": "Norman B. Leventhal Map Center", "not:name": "BPL Map Room", "opening_hours": "Tu 11:00-17:00; We 13:00-19:00; Th-Sa 11:00-17:00; Su 13:00-17:00; PH off", "website": "https://leventhalmap.org", "wikidata": "Q7051939"}}, {"type": "node", "id": 6532872271, "lat": 42.3463386, "lon": -71.0901031}, {"type": "node", "id": 7115579042, "lat": 42.359979, "lon": -71.1280619}, {"type": "node", "id": 7115579043, "lat": 42.3598467, "lon": -71.1279128}, {"type": "node", "id": 7442740419, "lat": 42.3662264, "lon": -71.1228904, "tags": {"access_control": "rfid", "entrance": "yes", "wheelchair": "yes"}}, {"type": "node", "id": 7442740420, "lat": 42.3666266, "lon": -71.1227468, "tags": {"access_control": "rfid", "entrance": "yes", "wheelchair": "no"}}, {"type": "node", "id": 7618650775, "lat": 42.3495903, "lon": -71.0774702, "tags": {"country": "US", "flag:name": "United States", "flag:type": "national", "flag:wikidata": "Q42537", "height": "6", "lit": "yes", "man_made": "flagpole", "subject": "United States", "subject:wikidata": "Q30"}}, {"type": "node", "id": 7618650776, "lat": 42.3495617, "lon": -71.0774564, "tags": {"country": "US", "flag:name": "United States", "flag:type": "national", "flag:wikidata": "Q42537", "height": "6", "lit": "yes", "man_made": "flagpole", "subject": "United States", "subject:wikidata": "Q30"}}, {"type": "node", "id": 7618650777, "lat": 42.3495012, "lon": -71.0774272, "tags": {"country": "US", "flag:name": "United States", "flag:type": "national", "flag:wikidata": "Q42537", "height": "6", "lit": "yes", "man_made": "flagpole", "subject": "United States", "subject:wikidata": "Q30"}}, {"type": "node", "id": 7618721688, "lat": 42.3495144, "lon": -71.0774336, "tags": {"access": "yes", "door": "hinged", "entrance": "main"}}, {"type": "node", "id": 7620743964, "lat": 42.3521678, "lon": -71.0630441, "tags": {"amenity": "library", "name": "Boston Public Library Chinatown", "website": "https://www.bpl.org/locations/83/"}}, {"type": "node", "id": 7624557254, "lat": 42.351948, "lon": -71.0868521, "tags": {"access": "private", "amenity": "library", "email": "library@neco.edu", "internet_access": "wlan", "internet_access:fee": "customers", "name": "New England College of Optometry Library", "phone": "+1-617-587-5589", "website": "https://library.neco.edu/"}}, {"type": "node", "id": 7633585159, "lat": 42.3079423, "lon": -71.0812108, "tags": {"amenity": "library", "name": "Boston Public Library Grove Hall Branch"}}, {"type": "node", "id": 7644322064, "lat": 42.340609, "lon": -71.086368, "tags": {"amenity": "library", "name": "New England Conservatory of Music Performance Library", "operator": "New England Conservatory of Music"}}, {"type": "node", "id": 7644322072, "lat": 42.3406817, "lon": -71.0862634, "tags": {"amenity": "library", "name": "Isabelle Firestone Audio Library", "operator": "New England Conservatory of Music"}}, {"type": "node", "id": 7644779176, "lat": 42.3495027, "lon": -71.0788719, "tags": {"access": "yes", "addr:city": "Boston", "addr:housenumber": "700", "addr:postcode": "02116", "addr:state": "MA", "addr:street": "Boylston Street", "door": "automatic", "entrance": "main", "level": "0", "wheelchair": "yes"}}, {"type": "node", "id": 7644779178, "lat": 42.34917, "lon": -71.0791586}, {"type": "node", "id": 7644779181, "lat": 42.3492538, "lon": -71.0792003}, {"type": "node", "id": 7644779182, "lat": 42.3492773, "lon": -71.0792116, "tags": {"access": "yes", "door": "hinged", "entrance": "main", "level": "0"}}, {"type": "node", "id": 7644795792, "lat": 42.3490723, "lon": -71.0781662, "tags": {"access": "permit", "amenity": "loading_dock", "door": "sliding", "level": "0"}}, {"type": "node", "id": 7645031441, "lat": 42.349383, "lon": -71.0780997, "tags": {"door": "no", "entrance": "yes"}}, {"type": "node", "id": 7653904115, "lat": 42.3365133, "lon": -71.1013817, "tags": {"amenity": "library", "name": "Henrietta DeBenedictis Library"}}, {"type": "node", "id": 7706104666, "lat": 42.3497033, "lon": -71.0781371}, {"type": "node", "id": 7706104668, "lat": 42.3497664, "lon": -71.0779058}, {"type": "node", "id": 7722290022, "lat": 42.3162109, "lon": -71.0335835}, {"type": "node", "id": 7722290023, "lat": 42.316396, "lon": -71.0336093}, {"type": "node", "id": 7722290024, "lat": 42.3163915, "lon": -71.0339067}, {"type": "node", "id": 7727727715, "lat": 42.3511692, "lon": -71.1082727, "tags": {"amenity": "loading_dock", "door": "no"}}, {"type": "node", "id": 7747033145, "lat": 42.3164832, "lon": -71.0340585}, {"type": "node", "id": 7747033152, "lat": 42.3160686, "lon": -71.0340146}, {"type": "node", "id": 7747033153, "lat": 42.314201, "lon": -71.0347494, "tags": {"amenity": "library", "fixme": "More info is needed for the Massachusetts Judicial Archives.", "name": "Massachusetts Judicial Archives"}}, {"type": "node", "id": 7747240147, "lat": 42.3161116, "lon": -71.0334672}, {"type": "node", "id": 7761545638, "lat": 42.3495822, "lon": -71.0774663, "tags": {"access": "yes", "door": "hinged", "entrance": "main"}}, {"type": "node", "id": 7761545639, "lat": 42.3497116, "lon": -71.0775289, "tags": {"country": "US", "flag:name": "United States", "flag:type": "national", "flag:wikidata": "Q42537", "height": "6", "lit": "yes", "man_made": "flagpole", "subject": "United States", "subject:wikidata": "Q30"}}, {"type": "node", "id": 7761545640, "lat": 42.3493874, "lon": -71.0773722, "tags": {"country": "US", "flag:name": "United States", "flag:type": "national", "flag:wikidata": "Q42537", "height": "6", "lit": "yes", "man_made": "flagpole", "subject": "United States", "subject:wikidata": "Q30"}}, {"type": "node", "id": 7761545641, "lat": 42.3496057, "lon": -71.0774777, "tags": {"direction": "70", "height": "3", "highway": "street_lamp", "lamp_mount": "wall", "lamp_type": "electric"}}, {"type": "node", "id": 7761545642, "lat": 42.3495714, "lon": -71.0774611, "tags": {"direction": "70", "height": "3", "highway": "street_lamp", "lamp_mount": "wall", "lamp_type": "electric"}}, {"type": "node", "id": 7761545643, "lat": 42.3495333, "lon": -71.0774427, "tags": {"direction": "70", "height": "3", "highway": "street_lamp", "lamp_mount": "wall", "lamp_type": "electric"}}, {"type": "node", "id": 7761545644, "lat": 42.3494894, "lon": -71.0774215, "tags": {"direction": "70", "height": "3", "highway": "street_lamp", "lamp_mount": "wall", "lamp_type": "electric"}}, {"type": "node", "id": 7814552121, "lat": 42.3614051, "lon": -71.065075}, {"type": "node", "id": 8040648038, "lat": 42.3572176, "lon": -71.0694294, "tags": {"access": "private", "addr:city": "Boston", "addr:housenumber": "57A", "addr:postcode": "02108", "addr:state": "MA", "addr:street": "Chestnut Street", "amenity": "library", "email": "info@hmaboston.org", "level": "0", "library": "music", "name": "Harvard Musical Association", "office": "charity", "phone": "+1-617-523-2897", "start_date": "1892", "website": "https://hmaboston.org/"}}, {"type": "node", "id": 8121726667, "lat": 42.3509135, "lon": -71.107748}, {"type": "node", "id": 8121726668, "lat": 42.3513344, "lon": -71.107653}, {"type": "node", "id": 8261036649, "lat": 42.3358202, "lon": -71.038751, "tags": {"addr:city": "Boston", "addr:housenumber": "646", "addr:postcode": "02127", "addr:street": "East Broadway", "amenity": "library", "check_date": "2024-08-18", "internet_access": "wlan", "internet_access:fee": "no", "name": "South Boston Branch Library", "opening_hours": "Mo-We 10:00-18:00; Th 12:00-20:00; Fr-Sa 09:00-17:00; Su off", "phone": "+1 617-268-0180", "website": "https://www.bpl.org/locations/south-boston/"}}, {"type": "node", "id": 8261036651, "lat": 42.3147979, "lon": -71.067633, "tags": {"addr:city": "Boston", "addr:housenumber": "500", "addr:postcode": "02125", "addr:street": "Columbia Road", "amenity": "library", "name": "Uphams Corner Branch Library", "website": "https://www.bpl.org/"}}, {"type": "node", "id": 8261036652, "lat": 42.3324772, "lon": -71.0990632, "tags": {"addr:city": "Boston", "addr:housenumber": "1497", "addr:postcode": "02120", "addr:street": "Tremont Street", "amenity": "library", "name": "Parker Hill Branch Library", "website": "https://www.bpl.org/"}}, {"type": "node", "id": 8261036653, "lat": 42.3205222, "lon": -71.1111063}, {"type": "node", "id": 8261036654, "lat": 42.2860221, "lon": -71.054181}, {"type": "node", "id": 8261036655, "lat": 42.2875284, "lon": -71.0708517, "tags": {"addr:city": "Boston", "addr:housenumber": "690", "addr:postcode": "02124", "addr:street": "Washington Street", "amenity": "library", "name": "Codman Square Branch Library", "website": "https://www.bpl.org/"}}, {"type": "node", "id": 8261036656, "lat": 42.2855958, "lon": -71.1285567, "tags": {"addr:city": "Boston", "addr:housenumber": "4246", "addr:postcode": "02131", "addr:street": "Washington Street", "amenity": "library", "name": "Roslindale Branch Library", "website": "https://www.bpl.org/"}}, {"type": "node", "id": 8261036657, "lat": 42.2833892, "lon": -71.1574253, "tags": {"addr:city": "Boston", "addr:housenumber": "1961", "addr:postcode": "02132", "addr:street": "Centre Street", "amenity": "library", "name": "West Roxbury Branch Library", "website": "https://www.bpl.org/"}}, {"type": "node", "id": 8261036658, "lat": 42.3473385, "lon": -71.1526266}, {"type": "node", "id": 8994085010, "lat": 42.3134655, "lon": -71.04026}, {"type": "node", "id": 8994587328, "lat": 42.3138654, "lon": -71.0398165}, {"type": "node", "id": 8994587332, "lat": 42.3135016, "lon": -71.0392171}, {"type": "node", "id": 8996811205, "lat": 42.3131015, "lon": -71.0396594}, {"type": "node", "id": 8996949145, "lat": 42.3137715, "lon": -71.0399208}, {"type": "node", "id": 8998823308, "lat": 42.3137809, "lon": -71.0399107}, {"type": "node", "id": 8998917365, "lat": 42.3134076, "lon": -71.0393215}, {"type": "node", "id": 9190664768, "lat": 42.2860295, "lon": -71.0544976}, {"type": "node", "id": 9190664769, "lat": 42.2861679, "lon": -71.0544181}, {"type": "node", "id": 9190664770, "lat": 42.2861709, "lon": -71.0543719}, {"type": "node", "id": 9190664771, "lat": 42.2860898, "lon": -71.0544485}, {"type": "node", "id": 9190664772, "lat": 42.2860159, "lon": -71.054354}, {"type": "node", "id": 9190664773, "lat": 42.2864486, "lon": -71.054403}, {"type": "node", "id": 9190664774, "lat": 42.286319, "lon": -71.0545367, "tags": {"entrance": "main"}}, {"type": "node", "id": 9286748197, "lat": 42.3386755, "lon": -71.0881424}, {"type": "node", "id": 9286748198, "lat": 42.3385666, "lon": -71.0874729, "tags": {"amenity": "loading_dock"}}, {"type": "node", "id": 10866120749, "lat": 42.3367177, "lon": -71.1051713, "tags": {"addr:city": "Boston", "addr:housenumber": "300", "addr:state": "MA", "addr:street": "Longwood Avenue", "amenity": "library", "attribution": "Office of Geographic and Environmental Information (MassGIS)", "ele": "6", "fixme": "this was formerly a building - keeping the information around in a POI, becausse not sure whether the library for Boston Children's has been incorporated into some other part of the complex - needs some local checking/research", "gnis:feature_id": "2342109", "name": "Children's Hospital Library", "operator": "Boston Children's Hospital", "region": "Boston", "source": "USGS Geonames", "source:url": "http://mass.gov/mgis/libraries.htm", "type": "Special"}}, {"type": "node", "id": 11508874203, "lat": 42.3578622, "lon": -71.0622206}, {"type": "node", "id": 11508874204, "lat": 42.3578917, "lon": -71.06225}, {"type": "node", "id": 11508874207, "lat": 42.3577678, "lon": -71.0621279}, {"type": "node", "id": 11508874208, "lat": 42.3577963, "lon": -71.0620947}, {"type": "node", "id": 11508874209, "lat": 42.3578087, "lon": -71.062102}, {"type": "node", "id": 11508874210, "lat": 42.3578176, "lon": -71.0620832}, {"type": "node", "id": 11508874211, "lat": 42.3578275, "lon": -71.062069}, {"type": "node", "id": 11508874212, "lat": 42.3578408, "lon": -71.0620591}, {"type": "node", "id": 11508874213, "lat": 42.3579453, "lon": -71.0618162}, {"type": "node", "id": 11508874214, "lat": 42.3579387, "lon": -71.0618034}, {"type": "node", "id": 11508874215, "lat": 42.3579876, "lon": -71.0617969}, {"type": "node", "id": 11508874216, "lat": 42.3580286, "lon": -71.0618239}, {"type": "node", "id": 11508874217, "lat": 42.3580365, "lon": -71.0618421}, {"type": "node", "id": 11508874218, "lat": 42.3580395, "lon": -71.0618753}, {"type": "node", "id": 11508874222, "lat": 42.3579621, "lon": -71.0622943}, {"type": "node", "id": 11508874223, "lat": 42.3580384, "lon": -71.0618586}, {"type": "node", "id": 11577948283, "lat": 42.2734109, "lon": -71.0684432, "tags": {"amenity": "library", "name": "Lower Mills Branch Library", "operator": "Boston Public Library", "operator:wikidata": "Q894583", "phone": "+1-617-298-7841", "website": "https://www.bpl.org/locations/lower-mills/", "wikidata": "Q69862704"}}, {"type": "node", "id": 11872590653, "lat": 42.3502338, "lon": -71.1038043, "tags": {"amenity": "library", "name": "Boston University Stone Science Library"}}, {"type": "node", "id": 11895948832, "lat": 42.3579663, "lon": -71.0617817}, {"type": "way", "id": 29513254, "nodes": [325346555, 325346556, 325346557, 325346558, 325346560, 325346561, 325346563, 325346564, 325346565, 325346566, 325346555], "tags": {"addr:city": "Boston", "addr:housenumber": "132", "addr:postcode": "02215", "addr:state": "MA", "addr:street": "Riverway", "amenity": "library", "attribution": "Office of Geographic and Environmental Information (MassGIS)", "building": "yes", "ele": "9", "gnis:feature_id": "2345024", "name": "Wheelock College Library", "operator": "Boston University", "region": "Boston", "source": "USGS Geonames", "source:url": "http://mass.gov/mgis/libraries.htm", "type": "Academic"}}, {"type": "way", "id": 29551175, "nodes": [325629091, 7644779178, 7644779181, 7644779182, 325679183, 7644779176, 325302857, 325620430, 325665453, 325588691, 7706104666, 7706104668, 325635088, 7761545639, 7761545641, 7618650775, 7761545638, 7761545642, 7618650776, 2494962252, 7761545643, 7618721688, 7618650777, 7761545644, 7761545640, 325591003, 325646290, 325638303, 7644795792, 325575636, 325317464, 325629091]}, {"type": "way", "id": 29554877, "nodes": [325339726, 325689802, 325621432, 325443193, 325308184, 325539344, 325632791, 325552107, 7645031441, 325339726], "tags": {"access": "yes", "addr:city": "Boston", "addr:housenumber": "230", "addr:postcode": "02116", "addr:state": "MA", "addr:street": "Dartmouth Street", "building:architecture": "italianate", "man_made": "courtyard", "name": "McKim Courtyard", "owner": "City of Boston", "website": "https://www.bpl.org/mckim-points-of-interest/#courtyard"}}, {"type": "way", "id": 29566437, "nodes": [325552846, 2295907761, 2295907759, 2295907763, 325536151, 325691845, 325605904, 325299994, 325676255, 325636154, 325680946, 2295907776, 2295907774, 325581650, 2295934096, 9286748197, 2295907777, 325616594, 2295907780, 2295954752, 325339567, 325344342, 9286748198, 2295934090, 325643914, 2295943700, 2295943701, 2295907772, 2295907770, 2295943702, 2295943703, 2295907768, 2295907765, 2295943704, 2295943705, 325626440, 325323338, 2295943706, 2295943707, 325617672, 325670633, 325552846], "tags": {"addr:city": "Boston", "addr:housename": "Snell Library, Northeastern University", "addr:housenumber": "360", "addr:postcode": "02115", "addr:state": "MA", "addr:street": "Huntington Avenue", "alt_name": "Snell Library, Northeastern University", "amenity": "library", "building": "university", "building:levels": "5", "ele": "3", "fax": "+1 617 373 5409", "gnis:feature_id": "1971939", "internet_access": "yes", "name": "Snell Library", "operator": "Northeastern University", "phone": "+1 617 373 8778", "source": "MassGIS Buildings (http://www.mass.gov/mgis/lidarbuildingfp2d.htm);USGS Geonames", "toilets:wheelchair": "yes", "website": "https://library.northeastern.edu/", "wheelchair": "yes", "wheelchair:description": "Persons with Disabilities webpage: http://library.northeastern.edu/gateways/persons-with-disabilities", "wikipedia": "en:Northeastern University"}}, {"type": "way", "id": 29575199, "nodes": [325443960, 325679631, 325664018, 325631068, 325654603, 325687083, 325621792, 325639294, 325668210, 325441825, 325522394, 325431370, 325656735, 325626593, 325553493, 325313931, 325607415, 325617121, 325663067, 325653884, 325624408, 325628556, 325613978, 325546917, 325443960], "tags": {"addr:city": "Boston", "addr:housenumber": "65", "addr:postcode": "02119", "addr:state": "MA", "addr:street": "Warren Street", "amenity": "library", "building": "yes", "building:levels": "2", "check_date": "2023-10-23", "name": "Roxbury Branch of the Boston Public Library", "old_name": "Dudley Branch Boston Public Library", "wikidata": "Q69862719"}}, {"type": "way", "id": 29577316, "nodes": [325490611, 325499268, 325740509, 325885896, 325895937, 325460225, 325475536, 325812071, 325830193, 325852485, 325870963, 325741494, 325756614, 325787582, 325490611], "tags": {"addr:housenumber": "35", "addr:street": "Harvard Avenue", "amenity": "library", "building": "yes", "name": "Boston Public Library - Hyde Park Branch"}}, {"type": "way", "id": 29582287, "nodes": [325848916, 325788442, 325853188, 325869921, 325879889, 325895198, 325461369, 325468216, 325473525, 325481447, 325491611, 325500981, 325733904, 325754844, 325789398, 325879895, 325826668, 325847204, 325479669, 325459693, 325865085, 325471775, 325750496, 325489789, 325466772, 325729702, 325842418, 325785753, 325498978, 325822043, 325907394, 325864349, 325804599, 325890269, 325472182, 325479965, 325851480, 325866042, 325730002, 325751064, 325848916], "tags": {"addr:city": "Boston", "addr:housenumber": "400", "addr:postcode": "02115", "addr:state": "MA", "addr:street": "Fenway", "amenity": "library", "attribution": "Office of Geographic and Environmental Information (MassGIS)", "building": "yes", "name": "Cardinal Cushing Library", "operator": "Emmanuel College", "region": "Boston", "source:url": "http://mass.gov/mgis/libraries.htm", "type": "Academic"}}, {"type": "way", "id": 29590917, "nodes": [8261036653, 325784806, 325856846, 325896660, 325498679, 325493640, 325841828, 325820414, 325469727, 325459540, 325758633, 325739359, 325482013, 325471537, 325467150, 325461076, 8261036653], "tags": {"addr:city": "Boston", "addr:housenumber": "433", "addr:postcode": "02130", "addr:street": "Centre Street", "amenity": "library", "building": "yes", "name": "Connolly Branch Library", "website": "https://www.bpl.org/"}}, {"type": "way", "id": 29628272, "nodes": [325991879, 326002332, 326049811, 326063691, 325991879], "tags": {"addr:housenumber": "2044", "addr:street": "Columbus Avenue", "amenity": "library", "building": "yes", "name": "Boston Public Library: Egleston Square Branch"}}, {"type": "way", "id": 29647372, "nodes": [8261036654, 9190664772, 9190664770, 9190664769, 9190664771, 9190664768, 326304249, 9190664774, 326304251, 9190664773, 326304252, 326304253, 326304255, 8261036654], "tags": {"addr:city": "Dorchester;Boston", "addr:housenumber": "690", "addr:postcode": "02122", "addr:state": "MA", "addr:street": "Adams Street", "amenity": "library", "building": "yes", "building:levels": "1", "internet_access": "wlan", "name": "Adams Street Branch Library", "opening_hours": "Mo,Tu,Th 10:00-18:00; We 12:00-20:00; Fr 09:00-17:00; Sa 09:00-14:00", "operator": "Boston Public Library", "operator:type": "public", "source": "esri/Boston_MA_Addresses", "website": "https://www.bpl.org/locations/13/"}}, {"type": "way", "id": 29650751, "nodes": [326328718, 257537465, 326328714, 2518634102, 2518634103, 326328717, 2518634105, 326328707, 326328701, 2518634095, 2518634093, 2518634094, 2518634096, 2518634099, 2518634097, 2518634098, 2518634100, 326328702, 2518634101, 326328718], "tags": {"addr:city": "Boston", "addr:housenumber": "138;150", "addr:postcode": "02115", "addr:state": "MA", "addr:street": "Massachusetts Avenue", "amenity": "library", "attribution": "Office of Geographic and Environmental Information (MassGIS)", "building": "college", "building:colour": "#874C41", "building:levels": "7", "name": "Stan Getz Media Center And Library", "office": "Berklee College Of Music", "region": "Boston", "roof:material": "concrete", "roof:shape": "flat", "source:url": "http://mass.gov/mgis/libraries.htm", "type": "Academic"}}, {"type": "way", "id": 29650815, "nodes": [326329375, 326329376, 326329377, 326329378, 326329375], "tags": {"addr:housenumber": "685", "addr:street": "Tremont Street", "amenity": "library", "building": "yes", "name": "South End Branch - Boston Public Library"}}, {"type": "way", "id": 29673126, "nodes": [8261036658, 326511601, 326511602, 326511603, 326511604, 326511605, 326511606, 326511607, 326511608, 326511609, 326511610, 326511611, 326511612, 326511613, 326511614, 326511615, 326511616, 326511617, 8261036658], "tags": {"addr:city": "Boston", "addr:housenumber": "40", "addr:postcode": "02135", "addr:state": "MA", "addr:street": "Academy Hill Road", "amenity": "library", "building": "public", "contact:facebook": "bostonpubliclibrary", "contact:instagram": "bplboston", "contact:twitter": "bplboston", "internet_access": "wlan", "name": "Brighton Branch Library", "opening_hours": "opening_hours=Mo-We 10:00-18:00; Th 12:00-20:00; Fr-Sa 09:00-17:00; Su off", "operator": "Boston Public Library", "operator:type": "government", "phone": "+1-617-782-6032", "website": "https://www.bpl.org"}}, {"type": "way", "id": 29779620, "nodes": [328028566, 328028568, 328028570, 328028573, 328028566], "tags": {"addr:housenumber": "117", "addr:state": "MA", "addr:street": "Lake Street", "amenity": "library", "building": "yes", "ele": "48", "gnis:feature_id": "1973645", "name": "Boston College Theology and Ministry Library", "source": "USGS Geonames"}}, {"type": "way", "id": 29788932, "nodes": [328193325, 328100761, 2375735949, 2375735315, 328105755, 328089588, 2375735312, 328193325], "tags": {"addr:housenumber": "10", "addr:state": "MA", "amenity": "library", "building": "yes", "ele": "11", "gnis:feature_id": "1971259", "name": "Frances A. Countway Library of Medicine", "source": "USGS Geonames"}}, {"type": "way", "id": 29811822, "nodes": [328525280, 328525282, 328525284, 328525287, 328525289, 328525291, 328525293, 328525296, 328525280], "tags": {"addr:city": "Brighton", "addr:housenumber": "419", "addr:postcode": "02135", "addr:state": "MA", "addr:street": "Faneuil Street", "amenity": "library", "building": "yes", "email": "faneuil@bpl.org", "internet_access": "wlan", "name": "Faneuil Branch of the Boston Public Library", "opening_hours": "Mo,We,Th 10:00-18:00; Tu 12:00-20:00; Fr 09:00-17:00; Sa 09:00-14:00", "phone": "+1-617-782-6705", "website": "https://www.bpl.org/", "wikidata": "Q69862681"}}, {"type": "way", "id": 29824210, "nodes": [328605119, 327553450, 2577065807, 327541777, 328631651, 2577065816, 2577065818, 327513904, 328613711, 328606080, 2577065811, 2577065809, 327533792, 328605119], "tags": {"addr:city": "Jamaica Plain", "addr:housenumber": "30", "addr:postcode": "02130", "addr:state": "MA", "addr:street": "South Street", "amenity": "library", "building": "yes", "check_date": "2023-09-12", "email": "jamaicaplain@bpl.org", "internet_access": "wlan", "internet_access:fee": "no", "name": "Boston Public Library Jamaica Plain Branch", "opening_date": "2017-08-21", "opening_hours": "Mo-We 10:00-18:00; Th 12:00-20:00; Fr-Sa 09:00-17:00", "phone": "+1-617-524-2053", "source": "MassGIS Buildings (http://www.mass.gov/mgis/lidarbuildingfp2d.htm)", "website": "https://www.bpl.org/locations/jamaica-plain/", "wikidata": "Q69862716"}}, {"type": "way", "id": 29932471, "nodes": [329081845, 329090813, 329702408, 329071878, 329081845]}, {"type": "way", "id": 29939208, "nodes": [329795193, 7115579043, 7115579042, 329785494, 329789061, 329090585, 329098531, 329016400, 329078660, 329697784, 329701714, 3545396794, 3545396793, 3545381092, 3545381091, 3545381090, 3545381089, 3519261979, 329795193]}, {"type": "way", "id": 29964257, "nodes": [8994587328, 8994587332, 8998917365, 8996811205, 8994085010, 8996949145, 8998823308, 8994587328], "tags": {"addr:city": "Dorchester", "addr:housenumber": "100", "addr:postcode": "02125", "addr:state": "MA", "addr:street": "Morrissey Boulevard", "air_conditioning": "yes", "alt_name": "Joseph P. Healey Library", "amenity": "library", "building": "yes", "check_date": "2024-11-23", "contact:facebook": "https://facebook.com/HealeyLibraryUMB", "contact:instagram": "https://www.instagram.com/healeylibraryumb/", "contact:phone": "+1-617-287-5900", "contact:twitter": "https://twitter.com/healeyumb", "facebook": "https://facebook.com/HealeyLibraryUMB", "internet_access": "yes", "layer": "3", "name": "Healey Library", "operator": "University of Massachusetts Boston", "operator:type": "university", "phone": "+1-617-287-5900", "ref:isil": "US-MaBoEMKI", "twitter": "https://twitter.com/healeyumb", "website": "https://www.umb.edu/library/", "wheelchair": "yes"}}, {"type": "way", "id": 33529303, "nodes": [326189710, 326157626, 4503189183, 4503189184, 7442740419, 326221028, 326230516, 4503189185, 4503189186, 4503189181, 4503189182, 326203565, 4503189175, 4503189176, 326176219, 326189426, 326210745, 7442740420, 326181833, 326211143, 326217384, 4503189177, 4503189178, 326201187, 4503189179, 4503189180, 326189710], "tags": {"addr:city": "Boston", "addr:postcode": "02163", "addr:state": "MA", "addr:street": "Soldiers Field", "amenity": "library", "building": "yes", "ele": "3", "email": "infoservices@hbs.edu", "gnis:feature_id": "1970976", "name": "Baker Library / Bloomberg Center", "opening_hours": "Mo-Th 09:00-19:00; Fr 09:00-17:00; Su 12:00-19:00", "phone": "+1 617 495 6040", "source": "MassGIS Buildings (http://www.mass.gov/mgis/lidarbuildingfp2d.htm);USGS Geonames"}}, {"type": "way", "id": 130209089, "nodes": [328629113, 328606285, 327518722, 327510668, 327363362, 7727727715, 327524950, 327341886, 8121726668, 328636601, 8121726667, 328629812, 328620533, 328598308, 327543216, 328635540, 328629113], "tags": {"access": "private", "addr:city": "Boston", "addr:housenumber": "771", "addr:postcode": "02215", "addr:state": "MA", "addr:street": "Commonwealth Avenue", "air_conditioning": "yes", "amenity": "library", "architect": "Sert, Jackson & Gourley", "building": "university", "building:levels": "6", "check_date": "2023-12-31", "internet_access": "yes", "name": "Mugar Memorial Library", "official_name": "Stephen P. Mugar Memorial Library", "operator": "Boston University", "operator:type": "university", "phone": "+1-617-353-2700", "start_date": "1966", "website": "https://www.bu.edu/library/mugar-memorial/", "wheelchair": "yes", "wikidata": "Q6932084", "wikipedia": "en:Mugar Memorial Library"}}, {"type": "way", "id": 217512570, "nodes": [329914779, 7747033145, 7722290024, 329914780, 329914781, 7722290023, 7722290022, 2267942723, 7747240147, 329914800, 329914801, 329914802, 329914803, 329914804, 329914805, 329914806, 329914807, 329914808, 329914809, 329914810, 329914811, 329914812, 329914813, 329914814, 329914815, 329914816, 329914817, 329914818, 329914819, 329914820, 329914821, 329914822, 329914823, 329914824, 329914825, 329914826, 329914827, 329914828, 329914829, 329914830, 329914831, 329914832, 329914833, 329914834, 329914835, 329914836, 329914837, 329914838, 329914839, 329914840, 329914841, 329914842, 329914843, 329914844, 329914845, 329914846, 329914847, 329914848, 329914849, 329914850, 329914851, 329914852, 329914853, 329914854, 329914855, 329914856, 329914857, 329914858, 329914859, 329914860, 329914861, 329914862, 329914863, 329914864, 329914865, 329914866, 329914867, 329914868, 329914667, 329914668, 329914669, 329914670, 329914671, 329914672, 329914673, 329914674, 329914675, 329914676, 329914677, 329914678, 329914679, 329914680, 329914681, 329914682, 329914683, 329914684, 329914685, 329914686, 329914687, 329914688, 329914689, 329914690, 329914691, 329914692, 329914693, 329914694, 329914695, 329914696, 329914697, 329914698, 329914699, 329914700, 329914701, 329914702, 329914703, 329914704, 329914705, 329914706, 329914707, 329914708, 329914709, 329914710, 329914711, 329914712, 329914713, 329914714, 329914715, 329914716, 329914717, 329914718, 329914719, 329914720, 329914721, 329914722, 329914723, 329914724, 329914725, 329914726, 329914727, 329914728, 329914729, 329914730, 7747033152, 329914736, 329914737, 329914738, 329914739, 329914740, 329914741, 329914742, 329914743, 329914744, 329914745, 329914746, 329914747, 329914748, 329914749, 329914750, 329914751, 329914752, 329914753, 329914754, 329914755, 329914756, 329914757, 329914758, 329914759, 329914760, 329914761, 329914762, 329914763, 329914764, 329914765, 329914766, 329914767, 329914768, 329914769, 329914770, 329914771, 329914772, 329914773, 329914774, 329914775, 329914776, 329914777, 2267934764, 329914779], "tags": {"addr:city": "Dorchester", "addr:postcode": "02125", "addr:state": "MA", "air_conditioning": "yes", "alt_name": "JFK Presidential Library and Museum;JFK Library and Museum;JFK Library", "amenity": "library", "building": "yes", "contact:facebook": "https://www.facebook.com/JFKLibraryFdn/", "contact:instagram": "https://www.instagram.com/jfklibraryfdn/", "contact:linkedin": "https://www.linkedin.com/company/jfklfoundation/", "contact:phone": "+1-617-514-1600", "contact:tiktok": "https://www.tiktok.com/@jfklibraryfdn", "contact:twitter": "https://twitter.com/jfklibraryfdn", "contact:youtube": "https://www.youtube.com/@JFKLF", "facebook": "https://www.facebook.com/JFKLibraryFdn/", "fee": "yes", "name": "John F. Kennedy Presidential Library and Museum", "opening_hours": "Mo-Su 10:00-17:00", "phone": "+1-617-514-1600;+1-866-535-1960", "phone:mnemonic": "+1-866-JFK-1960", "ref:isil": "US-mbjfk", "tourism": "museum", "website": "https://www.jfklibrary.org/", "wikidata": "Q2007919", "wikipedia": "en:John F. Kennedy Presidential Library and Museum"}}, {"type": "way", "id": 291407294, "nodes": [2948724749, 2948724748, 2948724757, 2948724756, 2948724751, 2948724752, 2948724754, 2948724747, 2948724749], "tags": {"addr:housenumber": "365", "addr:street": "Bremen Street", "amenity": "library", "building": "yes", "name": "East Boston Branch Library", "operator": "Boston Public Library", "roof:colour": "white", "source": "Bing"}}, {"type": "way", "id": 364674256, "nodes": [3687227182, 3687227168, 3687227164, 3687227166, 3687227165, 3687227171, 3687227170, 3687227179, 3687227181, 3687227201, 3687227204, 3687227186, 3687227185, 3687227184, 3687227183, 3687227180, 3687227182]}, {"type": "way", "id": 364674258, "nodes": [3687227175, 3687227173, 3687227172, 3687227174, 3687227175]}, {"type": "way", "id": 391465002, "nodes": [328327598, 328400042, 3946796275, 3946796276, 7814552121, 3946796273, 328290924, 328306884, 328301702, 328316269, 328327598], "tags": {"addr:city": "Boston", "addr:housenumber": "151", "addr:postcode": "02114", "addr:state": "MA", "addr:street": "Cambridge Street", "amenity": "library", "building": "yes", "building:levels": "1", "ele": "10", "gnis:feature_id": "1971852", "name": "West End Branch Boston Public Library", "source": "esri/Boston_MA_Addresses;USGS Geonames", "wheelchair": "yes"}}, {"type": "way", "id": 405334631, "nodes": [4075406797, 328457936, 4691217118, 4691217119, 4691217120, 4691217121, 4691217122, 4691217123, 4691217124, 4691217117, 257537517, 367779426, 4691217125, 328433850, 4075406794, 4075406797], "tags": {"addr:city": "Boston", "addr:housenumber": "53", "addr:postcode": "02116", "addr:state": "MA", "addr:street": "Marlborough Street", "amenity": "library", "building": "residential", "gnis:feature_id": "2344895", "name": "French Cultural Center", "phone": "+1 617 912 0400", "region": "Boston", "website": "https://frenchculturalcenter.org/"}}, {"type": "way", "id": 405941805, "nodes": [11508874207, 11508874208, 11508874209, 11508874210, 11508874211, 11508874212, 257537368, 11508874213, 11508874214, 11895948832, 1325838609, 11508874215, 1325838662, 1325838647, 11508874216, 11508874217, 11508874223, 11508874218, 1325838664, 11508874222, 11508874204, 11508874203, 11508874207], "tags": {"addr:city": "Boston", "addr:housenumber": "10 1/2", "addr:state": "MA", "addr:street": "Beacon Street", "amenity": "library", "attribution": "Office of Geographic and Environmental Information (MassGIS)", "building": "yes", "building:levels": "6", "internet_access": "wlan", "name": "Boston Athenaeum", "region": "Boston", "source:url": "http://mass.gov/mgis/libraries.htm", "type": "Special", "website": "https://www.bostonathenaeum.org", "wikidata": "Q478013"}}, {"type": "way", "id": 484939937, "nodes": [4776858595, 4776858606, 4776858618, 4776858733, 4776858595], "tags": {"addr:city": "Boston", "addr:housenumber": "20", "addr:postcode": "02108", "addr:state": "MA", "addr:street": "City Hall Avenue", "amenity": "library", "building": "yes", "building:levels": "3", "name": "Boston Public Library Kirstein Business Branch", "old_name": "Boston Police Station No. 2", "operator": "Boston Public Library", "operator:type": "government", "source": "esri/Boston_MA_Addresses"}}, {"type": "way", "id": 695727738, "nodes": [2631219133, 327073340]}, {"type": "way", "id": 695727739, "nodes": [6532872271, 327215025]}, {"type": "way", "id": 695727772, "nodes": [327215025, 2631219122, 2631219128, 2631219130, 2631219133]}, {"type": "way", "id": 695727775, "nodes": [327073340, 6532872271]}, {"type": "relation", "id": 63755, "members": [{"type": "way", "ref": 29551175, "role": "outer"}, {"type": "way", "ref": 29554877, "role": "inner"}], "tags": {"addr:city": "Boston", "addr:housenumber": "700", "addr:postcode": "02116", "addr:state": "MA", "addr:street": "Boylston Street", "amenity": "library", "architect": "Charles Follen McKim", "attribution": "Office of Geographic and Environmental Information (MassGIS)", "building": "yes", "email": "ask@bpl.org", "heritage:website": "https://catalog.archives.gov/id/63796738", "internet_access": "wlan", "internet_access:fee": "no", "name": "Boston Public Library", "office": "Boston Massachusetts Regional Library System", "opening_hours": "Mo-Tu 10:00-18:00; We 10:00-20:00; Th 10:00-18:00; Fr-Sa 09:00-17:00", "phone": "+1-617-536-5400", "ref:nrhp": "73000317", "region": "Boston", "source:url": "http://mass.gov/mgis/libraries.htm", "type": "multipolygon", "website": "https://bpl.org/", "wikidata": "Q894583", "wikipedia": "en:Boston Public Library"}}, {"type": "relation", "id": 65389, "members": [{"type": "way", "ref": 29932471, "role": "inner"}, {"type": "way", "ref": 29939208, "role": "outer"}], "tags": {"addr:housenumber": "300", "addr:postcode": "02134", "addr:street": "North Harvard Street", "amenity": "library", "building": "yes", "contact:facebook": "bostonpubliclibrary", "contact:instagram": "bplboston", "contact:twitter": "bplboston", "email": "honanallston@bpl.org", "internet_access": "wlan", "name": "Honan-Allston Branch Library", "opening_hours": "Mo-Tu, Th 10:00-18:00; We 12:00-20:00; Fr-Sa 09:00-17:00", "phone": "(617) 787-6313", "type": "multipolygon", "website": "https://www.bpl.org/locations/honan-allston/", "wikidata": "Q14715554"}}, {"type": "relation", "id": 5422061, "members": [{"type": "way", "ref": 364674256, "role": "outer"}, {"type": "way", "ref": 364674258, "role": "inner"}], "tags": {"addr:city": "Mattapan", "addr:housenumber": "1350", "addr:postcode": "02126", "addr:street": "Blue Hill Avenue", "amenity": "library", "building": "yes", "name": "Mattapan Branch of the Boston Public Library", "opening_hours": "Mo,We 10:00-18:00; Tu,Th 12:00-20:00; Fr,Sa 09:00-17:00", "operator": "Boston Public Library", "phone": "+1 617 298 9218", "type": "multipolygon", "website": "https://www.bpl.org/branches/mattapan.php", "wikidata": "Q69862706"}}, {"type": "relation", "id": 9668118, "members": [{"type": "way", "ref": 695727772, "role": "outer"}, {"type": "way", "ref": 695727738, "role": "outer"}, {"type": "way", "ref": 695727775, "role": "outer"}, {"type": "way", "ref": 695727739, "role": "outer"}], "tags": {"addr:city": "Boston", "addr:housenumber": "1154", "addr:postcode": "02215", "addr:state": "MA", "addr:street": "Boylston Street", "amenity": "library", "building": "yes", "fax": "+1-617-859-0074", "name": "Massachusetts Historical Society", "opening_hours:covid19": "closed", "phone": "+1-617-536-1608", "type": "multipolygon", "website": "https://www.masshist.org/", "wikidata": "Q95113736"}}]}